,names,city,address,phone,web,description,category
0,Futeca Gym - Zona 14,Guatemala - Guatemala,"10ma. Avenida 10-50 zona 14. Plaza Futeca, Local 21",Teléfono: +502 22136900,https://futecagym.com/,"Futeca Gym, es un gimnasio que nace en el 2010. Enfocado en mejorar la calidad de vida de sus socios, a través del ejercicio, una buena alimentación y la creación de comunidades estrechas entre socios.",Gimnasios de Educación Física
1,Futeca Gym - Pradera Concepción,Guatemala - Guatemala,"Km. 15.5 Carretera a El Salvador, Finca Concepción interior C.C. Pradera Concepción, Santa Catarina Pinula",Teléfono: +502 66339866,https://futecagym.com/,"Futeca Gym, es un gimnasio que nace en el 2010. Enfocado en mejorar la calidad de vida de sus socios, a través del ejercicio, una buena alimentación y la creación de comunidades estrechas entre socios.",Gimnasios de Educación Física
2,Futeca Gym - Miraflores,Guatemala - Guatemala,"22 avenida, 7ma. calle zona 11, Paseo Miraflores",Teléfono: +502 22253200,https://futecagym.com/,"Futeca Gym, es un gimnasio que nace en el 2010. Enfocado en mejorar la calidad de vida de sus socios, a través del ejercicio, una buena alimentación y la creación de comunidades estrechas entre socios.",Gimnasios de Educación Física
3,Futeca Gym - San Cristóbal,Guatemala - Guatemala,Blvd. Principal 19-65 sector B1 San Cristóbal zona 8 de Mixco,Teléfono +502 24796470,https://futecagym.com/,"Futeca Gym, es un gimnasio que nace en el 2010. Enfocado en mejorar la calidad de vida de sus socios, a través del ejercicio, una buena alimentación y la creación de comunidades estrechas entre socios.",Gimnasios de Educación Física
4,Futeca Gym - Naranjo,Guatemala - Guatemala,"23 calle 10-00 Zona 4 Condado Naranjo , local 240 Naranjo Mall",Whatsapp: +502 410001310,https://futecagym.com/,"Futeca Gym, es un gimnasio que nace en el 2010. Enfocado en mejorar la calidad de vida de sus socios, a través del ejercicio, una buena alimentación y la creación de comunidades estrechas entre socios.",Gimnasios de Educación Física
5,Futeca Gym - Portales,Guatemala - Guatemala,"CA-9 Norte Rural al Atlántico, 3-20, zona 17. Centro Comercial Portales, Local 255. Parqueo 2do Nivel",Teléfono +502 22147100,https://futecagym.com/,"Futeca Gym, es un gimnasio que nace en el 2010. Enfocado en mejorar la calidad de vida de sus socios, a través del ejercicio, una buena alimentación y la creación de comunidades estrechas entre socios.",Gimnasios de Educación Física
6,Fitness One - Cayalá,Guatemala - Guatemala,Diagonal 35 Boulevard Austriaco 16-25 Zona 16 Cardales de Cayalá.,+502 2491-4333,https://fitnessone.com.gt/,"Todo lo que necesitas para transformar tu vida y tu cuerpo, las mejores ubicaciones, personal capacitado para hacer del ejercicio parte de tu vida.",Gimnasios de Educación Física
7,Fitness One - Pradera,Guatemala - Guatemala,Boulevar Los Próceres 25-74 Zona 10,+502 2423-6000,https://fitnessone.com.gt/,"Todo lo que necesitas para transformar tu vida y tu cuerpo, las mejores ubicaciones, personal capacitado para hacer del ejercicio parte de tu vida.",Gimnasios de Educación Física
8,Fitness One - RUS,Guatemala - Guatemala,Calzada Roosevelt 12-76 zona 7 C.C. RUS,+502 2226-2226,https://fitnessone.com.gt/,"Todo lo que necesitas para transformar tu vida y tu cuerpo, las mejores ubicaciones, personal capacitado para hacer del ejercicio parte de tu vida.",Gimnasios de Educación Física
9,Fitness One - Sankris Mall,Guatemala - Guatemala,3ra. Calle Sector A-3 Boulevard San Cristóbal 6-72 Zona 8 de Mixco,+502 2424-4848,https://fitnessone.com.gt/,"Todo lo que necesitas para transformar tu vida y tu cuerpo, las mejores ubicaciones, personal capacitado para hacer del ejercicio parte de tu vida.",Gimnasios de Educación Física
10,Scandinavia - Aguilar Batres,Guatemala - Guatemala,"Calzada Aguilar Batres14-07, Zona 12",Teléfonos: 2459-2586 y 2377-3013,https://www.scandinaviagym.com/,Cadena de 14 gimnasios. Siempre Cerca de Ti. Amplios Horarios. En las principales ciudades de Guatemala.,Gimnasios de Educación Física
11,Scandinavia - Vista Hermosa,Guatemala - Guatemala,Boulevard Vista Hermosa 21-95 zona 15,Teléfonos: 2277-9296 y 2369-1018,https://www.scandinaviagym.com/,Cadena de 14 gimnasios. Siempre Cerca de Ti. Amplios Horarios. En las principales ciudades de Guatemala.,Gimnasios de Educación Física
12,Scandinavia - Carretera a El Salvador,Guatemala - Guatemala,"Km. 16.5, Carretera a El Salvador Salida a San José Pinula",Teléfonos: 2277-9297 y 6634-0633,https://www.scandinaviagym.com/,Cadena de 14 gimnasios. Siempre Cerca de Ti. Amplios Horarios. En las principales ciudades de Guatemala.,Gimnasios de Educación Física
13,Scandinavia - Metronorte ,Guatemala - Guatemala,Centro Comercial Metronorte,Teléfonos: 2269 5605,https://www.scandinaviagym.com/,Cadena de 14 gimnasios. Siempre Cerca de Ti. Amplios Horarios. En las principales ciudades de Guatemala.,Gimnasios de Educación Física
14,Scandinavia - San Rafael,Guatemala - Guatemala,"km. 7.5 Carretera a El Atlántico zona 18, c.c. San Rafael, local #90",Teléfonos: 2267 2919,https://www.scandinaviagym.com/,Cadena de 14 gimnasios. Siempre Cerca de Ti. Amplios Horarios. En las principales ciudades de Guatemala.,Gimnasios de Educación Física
15,Scandinavia - El Frutal,Guatemala - Guatemala,"Centro Comercial El Frutal, Villa Nueva",Teléfonos: 3502 1704,https://www.scandinaviagym.com/,Cadena de 14 gimnasios. Siempre Cerca de Ti. Amplios Horarios. En las principales ciudades de Guatemala.,Gimnasios de Educación Física
16,Scandinavia - Antigua Guatemala,Guatemala - Guatemala,7a Calle Poniente #34,Teléfonos: 7832 6763,https://www.scandinaviagym.com/,Cadena de 14 gimnasios. Siempre Cerca de Ti. Amplios Horarios. En las principales ciudades de Guatemala.,Gimnasios de Educación Física
17,Scandinavia - Xela ,Guatemala - Guatemala,"Avenida Las Américas 11-50 Zona 3 Condado Santa María Local 8, Quetzaltenango",Teléfonos: 7763 7802,https://www.scandinaviagym.com/,Cadena de 14 gimnasios. Siempre Cerca de Ti. Amplios Horarios. En las principales ciudades de Guatemala.,Gimnasios de Educación Física
18,Scandinavia - San Cristobal,Guatemala - Guatemala,Centro Comercial Arkadia zona 10,Teléfonos: 2478 1566,https://www.scandinaviagym.com/,Cadena de 14 gimnasios. Siempre Cerca de Ti. Amplios Horarios. En las principales ciudades de Guatemala.,Gimnasios de Educación Física
19,Scandinavia - El Naranjo,Guatemala - Guatemala,Condado Naranjo,Teléfonos: 2212 7513,https://www.scandinaviagym.com/,Cadena de 14 gimnasios. Siempre Cerca de Ti. Amplios Horarios. En las principales ciudades de Guatemala.,Gimnasios de Educación Física
20,Scandinavia - Galerías Primma,Guatemala - Guatemala,Centro Comercial Galerías Primma,Teléfonos: 2474 2815,https://www.scandinaviagym.com/,Cadena de 14 gimnasios. Siempre Cerca de Ti. Amplios Horarios. En las principales ciudades de Guatemala.,Gimnasios de Educación Física
21,Scandinavia - Arkadia Premium,Guatemala - Guatemala,Centro Comercial Arkadia zona 10,Teléfonos: 2211 0046,https://www.scandinaviagym.com/,Cadena de 14 gimnasios. Siempre Cerca de Ti. Amplios Horarios. En las principales ciudades de Guatemala.,Gimnasios de Educación Física
22,Scandinavia - Zona 5,Guatemala - Guatemala,"39 calle 21 07, zona 5 (atrás de Paiz)",Teléfonos: 2335 7683,https://www.scandinaviagym.com/,Cadena de 14 gimnasios. Siempre Cerca de Ti. Amplios Horarios. En las principales ciudades de Guatemala.,Gimnasios de Educación Física
23,Scandinavia - San Lucas,Guatemala - Guatemala,"Centro Comercial El Sauce, San Lucas Sacatepéquez",Teléfonos: 7830 1641,https://www.scandinaviagym.com/,Cadena de 14 gimnasios. Siempre Cerca de Ti. Amplios Horarios. En las principales ciudades de Guatemala.,Gimnasios de Educación Física
24,Smart Fit - El Naranjo,Guatemala - Guatemala," Plaza Kalú, locales R2-R5 - 23 calle 14-50 Zona 4 de Mixco - Condado El Naranjo Mixco, GU - Guatemala",,https://www.smartfit.com.gt/,"Inaugurada en 2009, Smart Fit fue creada con el propósito de democratizar el acceso a la práctica de actividad física de alto nivel, con planes accesibles y adhesión facilitada.",Gimnasios de Educación Física
25,Smart Fit - Tikal Futura,Guatemala - Guatemala," Calzada Roosevelt 23-43 -  Ciudad de Guatemala, GU - Guatemala",,https://www.smartfit.com.gt/,"Inaugurada en 2009, Smart Fit fue creada con el propósito de democratizar el acceso a la práctica de actividad física de alto nivel, con planes accesibles y adhesión facilitada.",Gimnasios de Educación Física
26,Smart Fit - QUO Zona 4 ,Guatemala - Guatemala," Via 7, 4-20, Zona 4, Torre Q, Segundo Nivel, Guatemala  -  Ciudad de Guatemala, GU - Guatemala",,https://www.smartfit.com.gt/,"Inaugurada en 2009, Smart Fit fue creada con el propósito de democratizar el acceso a la práctica de actividad física de alto nivel, con planes accesibles y adhesión facilitada.",Gimnasios de Educación Física
27,Smart Fit - Los Próceres,Guatemala - Guatemala,"  3ª Avenida 16-52, Z.10 -  Centro Comercial Los Próceres Ciudad de Guatemala, GU - Guatemala",,https://www.smartfit.com.gt/,"Inaugurada en 2009, Smart Fit fue creada con el propósito de democratizar el acceso a la práctica de actividad física de alto nivel, con planes accesibles y adhesión facilitada.",Gimnasios de Educación Física
28,Smart Fit - Rambla,Guatemala - Guatemala," Centro Comercial Rambla 10 - Boulevar Los Próceres 25-76 Ciudad de Guatemala, GU - Guatemala",,https://www.smartfit.com.gt/,"Inaugurada en 2009, Smart Fit fue creada con el propósito de democratizar el acceso a la práctica de actividad física de alto nivel, con planes accesibles y adhesión facilitada.",Gimnasios de Educación Física
29,Smart Fit - Metrocentro Villa Nueva,Guatemala - Guatemala," Centro Comercial Metrocentro local L103 -  0 Calle 16-20, Zona 4 - Villa Nueva Ciudad de Guatemala, GU - Guatemala",,https://www.smartfit.com.gt/,"Inaugurada en 2009, Smart Fit fue creada con el propósito de democratizar el acceso a la práctica de actividad física de alto nivel, con planes accesibles y adhesión facilitada.",Gimnasios de Educación Física
30,Smart Fit - Metroplaza Carr. a El Salvador,Guatemala - Guatemala," Km 13.1  - Carr. a El Salvador, Local 208 Ciudad de Guatemala, GU - Guatemala",,https://www.smartfit.com.gt/,"Inaugurada en 2009, Smart Fit fue creada con el propósito de democratizar el acceso a la práctica de actividad física de alto nivel, con planes accesibles y adhesión facilitada.",Gimnasios de Educación Física
31,Poltec - CC METRONORTE,Guatemala - Guatemala,"Km. 5 Carretera al Atlántico Zona 17, Guatemala Guatemala", 2256-0882 ,http://www.poltecgym.com/,"El ejercicio es parte importante de un estilo de vida saludable. El ejercicio previene los problemas de salud, desarrolla resistencia, brinda más energía y puede ayudar a reducir el estrés.",Gimnasios de Educación Física
32,Poltec - CC PLAZA SAN RAFAEL,Guatemala - Guatemala,Ruta al Atlántico CC. Plaza San Rafael Zona 18 Guatemala, 2261-6391,http://www.poltecgym.com/,"El ejercicio es parte importante de un estilo de vida saludable. El ejercicio previene los problemas de salud, desarrolla resistencia, brinda más energía y puede ayudar a reducir el estrés.",Gimnasios de Educación Física
33,Poltec - CC GRAN PORTAL PETAPA,Guatemala - Guatemala,"45 Calle 19-40, zona 12, C. C. Gran Portal Petapa ", 2460-3185,http://www.poltecgym.com/,"El ejercicio es parte importante de un estilo de vida saludable. El ejercicio previene los problemas de salud, desarrolla resistencia, brinda más energía y puede ayudar a reducir el estrés.",Gimnasios de Educación Física
34,Poltec - CC ASIA MALL (ROOSEVELT),Guatemala - Guatemala,Calzada Roosevelt 13-88, 24743214 ,http://www.poltecgym.com/,"El ejercicio es parte importante de un estilo de vida saludable. El ejercicio previene los problemas de salud, desarrolla resistencia, brinda más energía y puede ayudar a reducir el estrés.",Gimnasios de Educación Física
35,Poltec - CC SANTA CLARA,Guatemala - Guatemala,"Km. 17.5 Pacifico, Terreno #6, C.C. Santa Clara, Villa Nueva., Guatemala 01011, Guatemala", 6644-8279 ,http://www.poltecgym.com/,"El ejercicio es parte importante de un estilo de vida saludable. El ejercicio previene los problemas de salud, desarrolla resistencia, brinda más energía y puede ayudar a reducir el estrés.",Gimnasios de Educación Física
36,Poltec - CC EL FARO,Guatemala - Guatemala,"Dirección: Km. 17.9 Carretera a San Jose Pinula, Centro Comercial Local 14, El Faro", 6637-4927,http://www.poltecgym.com/,"El ejercicio es parte importante de un estilo de vida saludable. El ejercicio previene los problemas de salud, desarrolla resistencia, brinda más energía y puede ayudar a reducir el estrés.",Gimnasios de Educación Física
37,Curves - Reforma Zona 15,Guatemala - Guatemala,1a calle 22-13 zona 15 Vista Hermosa II C.P. 10115 ,Teléfonos: (502) 2369 2622 | (502) 2369 2644 | (502) 4010 8759,https://www.curveslatinoamerica.com/guatemala.html#,"Curves es un gimnasio para mujeres, la franquicia ofrece un programa de perdida de peso saludable y razonable.",Gimnasios de Educación Física
38,Curves - Quetzaltenango,Guatemala - Guatemala,"Avenida 9-66 Zona 3, Plaza Delco C.P. 9001 ",Teléfono: (502) 7763 6831,https://www.curveslatinoamerica.com/guatemala.html#,"Curves es un gimnasio para mujeres, la franquicia ofrece un programa de perdida de peso saludable y razonable.",Gimnasios de Educación Física
39,Full Contact Studio,Guatemala - Guatemala,2 C 10-06 Z-1,(+502) 2232 6575,,,Gimnasios de Educación Física
40,Club Atletico Atenas,Guatemala - Guatemala,Diagonal 14. 22-06 Zona 5,(+502) 2335 3680,http://www.clubatenas.com,,Gimnasios de Educación Física
41,Le Petit Spa,Guatemala - Guatemala,Dg 6 14-86 Z 10,(+502) 2366 7508,http://www.lepetitspagt.com,,Gimnasios de Educación Física
42,Madiel Spa,Guatemala - Guatemala,Av las Americas 7-30 Z 13 Edif Real América L 3d 3 Nivel,(+502) 2360 5070,http://www.madielspa.es.tl,,Gimnasios de Educación Física
43,Armonia Colonial,Guatemala - Guatemala,Boulevard Principal 23 Calle 18-96 Col. Villa Hermosa I Loc. 8 Z 7 Sn Mig P,(+502) 2448 2553,,,Gimnasios de Educación Física
44,Fitness One,Guatemala - Guatemala,Boulevard Los Próceres 25-74 Zona 10,(+502) 2423 6000,,,Gimnasios de Educación Física
45,Dr. Spa,Amatitlán - Guatemala,Kilómetro 29.5 Centro Comercial Flores del Lago Nivel 3 Local 4 Amatitlán,(+502) 6632 9534,,,Gimnasios de Educación Física
46,Zona Libre,Huehuetenango - Huehuetenango,2 Avenida A 1-53 zona 3 Huehuetenango,(+502) 4284 9059,,,Gimnasios de Educación Física
47,Solaz Sauna Y Masaje,Jocotenango - Sacatepequez,Diagonal 1 Número 34 Zona 4 Jocotenango Sacatepequez,(+502) 5588 2533,,,Gimnasios de Educación Física
48,Massage Spa,Guatemala - Guatemala,3 Calle 8-76 Zona 8 De Mixco Boulevard Principal Edicifio Centro Empresarial,(+502) 2480 7042,,,Gimnasios de Educación Física
49,Squash Zone,Guatemala - Guatemala,10 Avenida 10-50 Zona 14,(+502) 5580 1015,,,Gimnasios de Educación Física
50,Sforzo Gym,Guatemala - Guatemala,Calzada Roosevelt 12-25 Zona 11,(+502) 2440 2489,,,Gimnasios de Educación Física
51,La Farfalla,Guatemala - Guatemala,Boulevard Principal 3 Calle 8-88 Zona 8 Mixco Cd. San Cristobal,(+502) 2322 3100,http://www.facebook.com/spa.farfalla,,Gimnasios de Educación Física
52,Nova Spa Estetico,Guatemala - Guatemala,"Boulevar Los Proceres 25-74, zona 10 Guatemala",(+502) 4110 3089,,,Gimnasios de Educación Física
53,San Silvestre Spa Sauna Y Jacuzzi,Guatemala - Guatemala,1 Av Cl A 4-64 Z 7 Almolonga Quetzaltenango,(+502) 7766 8587,,,Gimnasios de Educación Física
54,Sporta Guatemala S.A.,Guatemala - Guatemala,KM 18.5 CARRET A EL SALVADOR,(+502) 6625 9100,,,Gimnasios de Educación Física
55,Vmedical Spa,Guatemala - Guatemala,3 Cl A 8-38 Edif Renova Z 10 3 Nivel,(+502) 3006 3604,,,Gimnasios de Educación Física
56,Fiore,Guatemala - Guatemala,Av Americas 9-55 Plaza Oro L 10,(+502) 2366 7166,,,Gimnasios de Educación Física
57,Hostal Los Volcanes,Guatemala - Guatemala,16 Calle 8-00 Zona 13 Aurora 1,(+502) 2360 3232,,,Gimnasios de Educación Física
58,Prodepsa Gimnasio,Guatemala - Guatemala,10 Av 10-50 Z 14 C.C. Plaza Futeca L 21,(+502) 2366 8054,,,Gimnasios de Educación Física
59,San Gregorio Hotel Y Spa,Guatemala - Guatemala,Km 30.5 Carrt A Santa Elena Barillas Lt 50 Lotificación San Gregorios Vista al Lago,(+502) 6634 3666,http://www.sangregoriospa.com,,Gimnasios de Educación Física
60,World Gym (San Cristobal),Guatemala - Guatemala,3a Cl 62-72 Sector A 3 Boulevar San Cristobal Z 8 Mixco C.C. Sankrismol,(+502) 2423 6000,http://www.fitnessone.com,,Gimnasios de Educación Física
61,Carla S Salón & Day Spa,Guatemala - Guatemala,Av 21 A 0-97 Z 15 Vista Hermosa 2,(+502) 2365 7944,,,Gimnasios de Educación Física
62,Beauty Clinic Salon Y Day Spa,Guatemala - Guatemala,Av 21 9-05 Z 11 Mirador 1,(+502) 2474 3609,,,Gimnasios de Educación Física
63,Cy Sport,Guatemala - Guatemala,5 Cl Z 6 V. Nueva Czda Concepcion Plz Villa Nueva,(+502) 6636 6452,,,Gimnasios de Educación Física
64,Fut Y Pub,Quetzaltenango - Quetzaltenango,C.C. Las Americas Int. Profutbol Xela 8 Calle 0-90 Zona 9,(+502) 7763 5077,,,Gimnasios de Educación Física
65,Icom Hitech,Guatemala - Guatemala,C.C. Gran Via Local 01 Zona 07,(+502) 2475 2508,,,Gimnasios de Educación Física
66,Libreria Y P.A.P. Oscar De León P.A.L.A. No. 5,Guatemala - Guatemala,7 Avenida 9-35 Zona 1,(+502) 2232 5060,,,Gimnasios de Educación Física
67,Pet Shop Don Diego,Guatemala - Guatemala,Manzana 2 Lote 8A San Rafael Buenavista Zona 18,(+502) 2242 6645,,,Gimnasios de Educación Física
68,Serviicasa,Escuintla - Escuintla,4 Av. 3-44 Zona 1,(+502) 7889 2196,,,Gimnasios de Educación Física
69,Wirenet (Quetzaltenango),Quetzaltenango - Quetzaltenango,29 Av. 8 A-26 Zona 7 Quetzaltenango,(+502) 7763 7474,,,Gimnasios de Educación Física
70,"Accounting Auditores & Consultores, S.A.",Guatemala - Guatemala,"Diagonal 6, 16-21 Zona 10 Guatemala",(+502) 2366 7342,,,Gimnasios de Educación Física
71,Alive Smart Fitness,Guatemala - Guatemala,Dg 6 12-42 Zona 10 Design Center L 211,(+502) 2206 8000,,,Gimnasios de Educación Física
72,Escuela Manejarte,Guatemala - Guatemala,Aguilar Batres 37-95 Local 5 y 6 Plaza Solana Zona 12,(+502) 2476 9841,,,Gimnasios de Educación Física
73,Lainfiesta Godoy S.A.,Guatemala - Guatemala,Aguilar Batres 37-95 Local 5 y 6 Plaza Solana Zona 12,(+502) 2476 9841,,,Gimnasios de Educación Física
74,Sistemas Litográficos,Guatemala - Guatemala,Aguilar Batres 37-95 Local 5 y 6 Plaza Solana Zona 12,(+502) 2476 9841,,,Gimnasios de Educación Física
75,Evolution Gym,Puerto Barrios - Izabal,5a Cl - 8a Av,,,,Gimnasios de Educación Física
76,Salud Y Belleza Integral,Guatemala - Guatemala,15 Calle 1-11 Edificio Terra Esperanza Nivel 10 Zona 10,(+502) 2300 0510,,,Gimnasios de Educación Física
77,Renueva Tu Figura Hoy,Guatemala - Guatemala,8 Avenida 40-59 Zona 8,(+502) 4207 8637,,,Gimnasios de Educación Física
78,Gimnasio Mega Gym,San Marcos - San Marcos,3 Av Zona 1 Cantón Pueblo Nuevo Pajapita,(+502) 4837 4071,,,Gimnasios de Educación Física
79,Monkey Business Calisthenics,Guatemala - Guatemala,5 Av 5-55 Z 14,(+502) 2366 5759,,,Gimnasios de Educación Física
80,Golden Clinic,Guatemala - Guatemala,"9a Cl 24-38, Zna 7 Plaza Castilla 2do. Nivel",(+502) 3526 5337,,,Gimnasios de Educación Física
81,Asociación De Pentatlon Moderno,Guatemala - Guatemala,3A Cl 16-15 Zona 15,(+502) 2369 4468,,,federaciones deportivas
82,Comite Olimpico Guatemalteco,Guatemala - Guatemala,10 Cl 2-28 Zona 9,(+502) 2223 9500,,,federaciones deportivas
83,Federación Nacional De Beisbol,Guatemala - Guatemala,Av Simeon Cañas Final Zona 2,(+502) 2254 1119,,,federaciones deportivas
84,Federación Nacional De Boxeo De Guatemala,Guatemala - Guatemala,24 Cl Palacio De Los Deportes 9-31 Zona 4,(+502) 2361 8263,,,federaciones deportivas
85,Federación Nacional De Esgrima C.D.A.G.,Guatemala - Guatemala,12 Av 25 Cl Zona 5,(+502) 2331 2680,,,federaciones deportivas
86,Federación Nacional De Remo Y Canotaje De Guatemala,Guatemala - Guatemala,26 Cl 9-31 Zona 5,(+502) 2339 3376,,,federaciones deportivas
87,Federación Nacional De Voleibol,Guatemala - Guatemala,Gimnacio 7 De Diciembre Zona 5,(+502) 2434 4006,,,federaciones deportivas
88,Direccion General De Educacion Fisica,Guatemala - Guatemala,32 Cl 9-10 Zona 11,(+502) 2422 6800,,,federaciones deportivas
89,Federacion Nacional De Futbol,Guatemala - Guatemala,2 Cl 15-57 Zona 15,(+502) 2422 7777,,,federaciones deportivas
90,Federacion Nacional De Ciclismo De Guatemala,Guatemala - Guatemala,26 Cl 9-31 Z.5,(+502) 2332 3979,,,federaciones deportivas
91,Federación Nacional De Balonmano,Guatemala - Guatemala,Av 14 18-13 Zona 13,(+502) 2493 4200,http://www.guatemalasnbalonmano.com,,federaciones deportivas
92,Federacion Nacional De Baloncesto,Guatemala - Guatemala,Gimnasio Nacional Teodoro Palacios Flores Z.5,(+502) 2361 9851,,,federaciones deportivas
93,Asociación De Pentatlon Moderno,Guatemala - Guatemala,3A Cl 16-15 Zona 15,(+502) 2369 4468,,,federaciones deportivas
94,Comite Olimpico Guatemalteco,Guatemala - Guatemala,10 Cl 2-28 Zona 9,(+502) 2223 9500,,,federaciones deportivas
95,Federación Nacional De Beisbol,Guatemala - Guatemala,Av Simeon Cañas Final Zona 2,(+502) 2254 1119,,,federaciones deportivas
96,Federación Nacional De Boxeo De Guatemala,Guatemala - Guatemala,24 Cl Palacio De Los Deportes 9-31 Zona 4,(+502) 2361 8263,,,federaciones deportivas
97,Federación Nacional De Esgrima C.D.A.G.,Guatemala - Guatemala,12 Av 25 Cl Zona 5,(+502) 2331 2680,,,federaciones deportivas
98,Federación Nacional De Remo Y Canotaje De Guatemala,Guatemala - Guatemala,26 Cl 9-31 Zona 5,(+502) 2339 3376,,,federaciones deportivas
99,Federación Nacional De Voleibol,Guatemala - Guatemala,Gimnacio 7 De Diciembre Zona 5,(+502) 2434 4006,,,federaciones deportivas
100,Direccion General De Educacion Fisica,Guatemala - Guatemala,32 Cl 9-10 Zona 11,(+502) 2422 6800,,,federaciones deportivas
101,Federacion Nacional De Futbol,Guatemala - Guatemala,2 Cl 15-57 Zona 15,(+502) 2422 7777,,,federaciones deportivas
102,Federacion Nacional De Ciclismo De Guatemala,Guatemala - Guatemala,26 Cl 9-31 Z.5,(+502) 2332 3979,,,federaciones deportivas
103,Federación Nacional De Balonmano,Guatemala - Guatemala,Av 14 18-13 Zona 13,(+502) 2493 4200,http://www.guatemalasnbalonmano.com,,federaciones deportivas
104,Federacion Nacional De Baloncesto,Guatemala - Guatemala,Gimnasio Nacional Teodoro Palacios Flores Z.5,(+502) 2361 9851,,,federaciones deportivas
105,Dance Studio,Guatemala - Guatemala,18 Calle 23-30 Zona 10 Plaza Decorisima Local 18,(+502) 2366 5684,http://www.dancestudio.com.gt,,ballet
106,Academia Scenic Dance,Guatemala - Guatemala,3 Avenida 14-19 Zona 14,(+502) 5204 7081,http://www.scenicdance.com,,ballet
107,Dance Studio S.A.,Guatemala - Guatemala,18 Calle 23-30 Zona 10 Plaza Decorisima Local 18,(+502) 2366 5684,http://www.dancestudio.com.gt,,ballet
108,Ballet Nacional De Guatemala,Guatemala - Guatemala,5 Cl 03-43 Z 1,(+502) 2253 3118,http://balletnacionaldeguatemala.blogspot.com,,ballet
109,New Time Crew,Guatemala - Guatemala,6 Avenida 3-39 Nivel 3 Zona 1,(+502) 5922 7937,,,ballet
110,Estudio Internacional Awalim Danza Árabe,Guatemala - Guatemala,"3ra calle, 3-59 zona 1 La casona",(+502) 5280 2307,,,ballet
111,Olé Flamenco En Guatemala,Guatemala - Guatemala,Km 24.5 Carret el Salvador Condominio Joya de Oro Casa 17,(+502) 5770 7050,,,ballet
112,Academia Dance Vision,Guatemala - Guatemala,3 Cl 7-89 Zona 8 Mixco,(+502) 5851 1116,,,ballet
113,Al-Tamira - Quiero Clientes,Guatemala - Guatemala,3 Calle 7-89 Zona 8 Mixco,(+502) 5851 1116,,,ballet
114,Al-Tamira,Guatemala - Guatemala,3 Calle 7-89 Zona 8 Mixco,(+502) 5851 1116,,,ballet
115,Sky Dance Academy,Guatemala - Guatemala,Bul Tulmtzu 17 Av 2-15 C.C. Valle del Sol Z.4 Mixco,(+502) 2431 4113,http://www.skydancegt.com,,ballet
116,Metro Bowl,Guatemala - Guatemala,Cl 2 Bul Vista Hermosa 15-93 Zona 15,(+502) 2243 2424,http://www.metrobowl.com.gt,,boliche
117,Cosenza Academy,San José Pinula - Guatemala,"Km 18.9 Carretera A San José Pinula, C.C. la Plazoleta Ciudad de Guatemala",(+502) 6637 5035,www.cosenzaacademy.com,"Buscamos poder contribuir a la formación integral de tu familia.la única escuela certificada en Guatemala de Jiu-jitsu por la Gracie University de Torrance, California.
Ofrecemos programas certificados,  normados y acreditados en defensa personal Karate,  Gracie,  Jiu - Jitsu,  MMA,  ArtesMarciales Mixtas,  Defensa Para Mujeres,  Antibullying,  Defensa Para Niños,  Jiu - Jitsu para niños.Plan Débito Automático (Inscripción Gratis)",artes marciales
118,Trofeos Finos,Guatemala - Guatemala,18 Calle 12-79 Zona 7 de Mixco Colonia San Ignacio,(+502) 2434 5633,www.trofeosfinos.com,"Fabricamos de trofeos de resina tipo escultura, así como de medallas, plaquetas de madera y metal , pines, gafetes, reconocimientos de vidrio, trofeos de tubos y mármol, plaquetas de bronce y mármol.
Somos una empresa que atiende al mercado guatemalteco y centroamericano. Visite nuestro showroom en la fábrica o le enviamos a nuestros vendedores. Síganos en nuestra página de facebook,  instagram como trofeos finos,  o nuestra página web.",deportes
119,Eurobike S.A.,Guatemala - Guatemala,27 Avenida 33-80 Zona 12 Santa Elisa Bodega # 10,(+502) 2442 4825,eurobikegt.com,"Nos hemos caracterizado por ofrecer una gran variedad de productos de excelente calidad; gracias a esto, nuestras bicicletas son vendidas en los almacenes de cadena más importantes del país.
10 años de exitosa trayectoria en la distribución de bicicletas y juguetes. Desde que iniciamos nuestras actividades comerciales,  nos hemos caracterizado por ofrecer una gran variedad de productos de excelente calidad; gracias a esto,  nuestras bicicletas son vendidas en los almacenes de cadena más.",deportes
120,Cosenza Academy,San José Pinula - Guatemala,"Km 18.9 Carretera A San José Pinula, C.C. la Plazoleta Ciudad de Guatemala",(+502) 6637 5035,www.cosenzaacademy.com,"Buscamos poder contribuir a la formación integral de tu familia.la única escuela certificada en Guatemala de Jiu-jitsu por la Gracie University de Torrance, California.
Ofrecemos programas certificados,  normados y acreditados en defensa personal Karate,  Gracie,  Jiu - Jitsu,  MMA,  ArtesMarciales Mixtas,  Defensa Para Mujeres,  Antibullying,  Defensa Para Niños,  Jiu - Jitsu para niños.Plan Débito Automático (Inscripción Gratis)",deportes
121,Forrest Running Shop,Guatemala - Guatemala,"Av, las Americas 6-78 Edificio ""el Uno"" Zona 13 Local 3",,www.forrestrunningshop.com,,deportes
122,Bodegas De Mayoreo Super Cicles,Guatemala - Guatemala,6ta. Avenida 6-71 Zona 4 Guatemala,(+502) 2334 2974,bdmsupercicles.wixsite.com/bike,"Bicicletas para Toda la Familia, Triciclos para Niños,Triciclos de carga, Monopatines, Patines, Gran variedad de repuestos para todo tipo de bicicleta y Taller de servicio para todas las marcas.
Gran Variedad de Repuestos y Taller de Servicio para todas las Marcas.",deportes
123,Delfines S.A.,Guatemala - Guatemala,9 Calle 20-81 Zona 14,(+502) 2337 2779,http://wwwwdelfinesguatemala.com,,deportes
124,Partido,Guatemala - Guatemala,2A. Calle 36-369 Z.7,(+502) 2439 4388,,,deportes
125,Hotel Villa Deportiva,Guatemala - Guatemala,12 AV 26-25 Z-5,(+502) 2332 7767,,,deportes
126,Deportes Online,Guatemala - Guatemala,31 Avenida 22-51 Condominio El Refugio Edificio G Nivel 1 Apto 1 Zona 18,(+502) 4259 3773,,,deportes
127,Mundo Deportes,Guatemala - Guatemala,31 AVENIDA 22-51 Z-18 CONDOMINIO EL REFUGIO EDIFICIO G NIVEL 2 APTO 4,(+502) 5496 0386,,,deportes
128,Hacienda Nueva Country Club,Guatemala - Guatemala,Km 24.5 Ruta Nacional 18 San José Pinula Mataquescuintla,(+502) 6628 1000,http://www.haciendanueva.gt,,deportes
129,Aquatic Center,Guatemala - Guatemala,Km 15.5 Carretera A El Salvador Lote 1L Puerta Parada,(+502) 5217 8526,,,deportes
130,Balance Concept Zona 13,Guatemala - Guatemala,Avenida Las Americas 19-30 Zona 13,(+502) 5809 1997,,,deportes
131,Big Mountain (Miraflores),Guatemala - Guatemala,5 Av B 3-15 Zona 9,(+502) 2470 8393,,,deportes
132,Club La Villa,Guatemala - Guatemala,20 Avenida 8-81,(+502) 2333 7324,,,deportes
133,Club Municipal,Guatemala - Guatemala,2 Calle 15-95 Zona 13,(+502) 2333 0037,,,deportes
134,Escandinavia Gym,Guatemala - Guatemala,Búl Vista Hermosa 2195 Z 15,(+502) 2369 1018,,,deportes
135,Fed. Nac. De Tenis De Campo De Guatemala,Guatemala - Guatemala,3 Calle 16-75 Zona 15 Colonia Minerva,(+502) 2369 8771,,,deportes
136,Futeca Playball,Guatemala - Guatemala,Km20.8 Carr A El Salvador Fraijanes,(+502) 2424 3939,,,deportes
137,Gimnasio Fitness Extreme,Guatemala - Guatemala,14av 19-50 Z4,,,,deportes
138,Globaltone,Guatemala - Guatemala,5 Av 8-40 Z 01,(+502) 2238 4699,,,deportes
139,Hotel Lobby Bar,Guatemala - Guatemala,Hotel Tikal Futura Casco Finca Rio Lindo Casa 5 La Gomera,,,,deportes
140,Indesa (Scandinavia Gym),Guatemala - Guatemala,C.C. Chuckee Chese Local 6 Zona 9 Blvd Liberacion 6-31 Z9,(+502) 2377 3012,,,deportes
141,La Rocalla,Guatemala - Guatemala,3 Calle 13-32 Zona 15 Colonia Tecun Uman,(+502) 2253 4223,,,deportes
142,Scandinavia Gym,Retalhuleu - Retalhuleu,Cc. Paseo Las Palma Local #45 Retalhuleu,(+502) 2269 5604,,,deportes
143,Scandinavia Gym,Quetzaltenango - Quetzaltenango,Av. Las Americas Condado Santa Maria L-8 Quetzaltenango,(+502) 7763 7802,,,deportes
144,Scandinavia San Cristobal,Guatemala - Guatemala,Boolevard San Cristobal 3 Calle 17-92 Zona 8 De Mixco,(+502) 2474 6367,,,deportes
145,Scandinavia Zona 5,Guatemala - Guatemala,39 Avenida 21-07 Zona 5,(+502) 2474 8367,,,deportes
146,Sodesa (Solucion Deportiva),Quetzaltenango - Quetzaltenango,"Diagonal 2, 27-61",(+502) 7763 7438,,,deportes
147,Tiro Practico,Guatemala - Guatemala,9 Calle 4-15 Colonia El Campo I Zona 14,(+502) 2476 8262,,,deportes
148,Top Spin,Guatemala - Guatemala,Km 14.1 Al Salv. Cc Paseo Sn Sebastian,(+502) 2369 8694,,,deportes
149,Tres Virtudes (Pure Yoga),Guatemala - Guatemala,Diagonal 35 Boulevard Austriaco 16-25 C.C. Cardales S-207 Zona 16,(+502) 2491 4240,,,deportes
150,Zona Pilates,Guatemala - Guatemala,16 Calle 0-27 Zona 14,(+502) 2368 1844,,,deportes
151,All Gym,Quetzaltenango - Quetzaltenango,6 C. C 4-12 Z 9 2 Niv. Los Cerezos I,(+502) 4326 4790,,,deportes
152,Billar Club,Guatemala - Guatemala,12 Calle 1-25 Zona 10; Local 3,(+502) 2366 1712,,,deportes
153,Gimnasio Shadday,Quetzaltenango - Quetzaltenango,4A Calle 15 Ave 3-51 Z.1 Quetgo,(+502) 7761 9720,,,deportes
154,Seguridad Maxima-A Semax-A,Jutiapa - Jutiapa,9 Av. 5-75 Zona 3 Barrio Cerro Colorado,(+502) 4220 2024,,,deportes
155,Tenis Todo,Guatemala - Guatemala,12 Avenida 5-16 Zona 1,(+502) 2361 2467,,,deportes
156,Xfit Gym Y Spa,Guatemala - Guatemala,15 Av. 0-95 Monte Real Zona 4 De Mixco,(+502) 5455 0521,,,deportes
157,Conader,Guatemala - Guatemala,Av 7a 6-31 Z 13,(+502) 2475 4743,http://www.conader.com.gt,,deportes
158,Federación Nacional De Ajedrez De Guatemala,Guatemala - Guatemala,Av 10 A 25-01 Z 5,(+502) 2360 8267,,,deportes
159,Asecondep,Guatemala - Guatemala,"14 AVENIDA 3-26 ZONA 3 COLONIA VALLE DEL SOL, MIXCO",(+502) 4907 1605,,,deportes
160,Direccion General Del Deporte Y La Recreacion,Guatemala - Guatemala,6 Calle Y 6 Avenida Z.1,(+502) 3001 6520,,,deportes
161,Liga De Futbol Segunda División De No Aficionados,Guatemala - Guatemala,Cl 2 A 15-57 Zona 15,(+502) 2365 8200,http://www.segundadivisiondenoaficionados.com,,deportes
162,Golden Dreams Gt,Guatemala - Guatemala,Av 5 A 10-68 Zona 1,(+502) 4522 2479,,,deportes
163,Pilates Powerhouse Studio,Guatemala - Guatemala,Cl 16 22-40 Z 10,(+502) 2337 1283,,,deportes
164,Club Deportivo Cotzumalguapa,Escuintla - Escuintla,Cl 3-46 Zona 1 Santa Lucia Cotzumalguapa,(+502) 7882 5104,,,deportes
165,Gimnasio Maya,Mazatenango - Suchitepequez,Cl 2-94 Zona 1 Mazatenango,(+502) 7872 2553,,,deportes
166,Hogarama Sport,Guatemala - Guatemala,Calzada Aguilar Batres 34-70 Zona 11 Centro Comercial Galerias Del Sur Guatemala Ciudad,(+502) 2476 8166,,,deportes
167,Action Sports,Quetzaltenango - Quetzaltenango,Cl Zona 1 Edificio Municipal Quetzaltenango,(+502) 7765 3279,,,deportes
168,Atlanta Sport,Guatemala - Guatemala,Cl 5-00 Zona 3 Guatemala Ciudad,(+502) 2472 1559,,,deportes
169,Atlas,Guatemala - Guatemala,Cl 32-30 Zona 7 Colonia Toledo Guatemala Ciudad,(+502) 5599 6800,,,deportes
170,Bazar Deportivo Heidy,Escuintla - Escuintla,Cl 2-23 Zona 1 Edificio Comercial El Portalito San Jose,(+502) 7881 2106,,,deportes
171,Centro Deportivo Jaguar Sport,Cobán - Alta Verapaz,Cl 1-12 Zona 1 Coban,(+502) 7951 1166,,,deportes
172,Centro Deportivo Paiz,Chiquimula - Chiquimula,Cl 10-20 Zona 1 Chiquimula,(+502) 7942 3713,,,deportes
173,Centro Deportivo Werner,Cuilapa - Santa Rosa,Cl 1-53 Zona 1 Colonia El Centro Cuilapa,(+502) 7886 5147,,,deportes
174,Champs City,Escuintla - Escuintla,Av Local 26 Zona 2 Escuintla,(+502) 7889 3740,,,deportes
175,Creaciones Leomara,Totonicapán - Totonicapan,Km. 189 Canton Nimapa Paraje Chipatris Totonicapan,(+502) 5801 0368,,,deportes
176,Deportes Saga,Santa Cruz Del Quiché - Quiche,Av 3-18 Zona 5 Santa Cruz Del Quiche,(+502) 7755 3474,,,deportes
177,Deporticentro Jose,Chiquimulilla - Santa Rosa,Cl Principal Zona 3 Colonia Santiag Chiquimulilla,(+502) 7885 0863,,,deportes
178,El Mundo Deportivo,Guatemala - Guatemala,Av 17-40 Zona 1 Guatemala Ciudad,(+502) 2253 7003,,,deportes
179,Gimnasio Coloso,Guatemala - Guatemala,Av 20-30 Zona 3 Guatemala Ciudad,(+502) 2230 4660,,,deportes
180,Gimnasio Hercules,Guatemala - Guatemala,Cl 1-53 Zona 1 Guatemala Ciudad,(+502) 2238 4178,,,deportes
181,Gimnasio Sas,Quetzaltenango - Quetzaltenango,Cl 4-58 Zona 1 Colonia La Esperanza Coatepeque,(+502) 7775 1892,,,deportes
182,Implementos Deportivos Orellana,Guatemala - Guatemala,Cl 25-59 Zona 5 Colonia La Palmita Guatemala Ciudad,(+502) 5407 8000,,,deportes
183,Multideportes,Guatemala - Guatemala,Calzada Aguilar Batres 34-70 Zona 11 Centro Comercial Galerias Del Sur Guatemala Ciudad,(+502) 2476 3943,,,deportes
184,Mundo Deportivo Fetzer,Cobán - Alta Verapaz,Zona 2 Coban,(+502) 7951 0616,,,deportes
185,Olimpus Gym,Zacapa - Zacapa,Cl 13-36 Zona 1 Colonia La Sociedad Zacapa,(+502) 7941 5145,,,deportes
186,Soccer Express,Guatemala - Guatemala,Av 13-38 Zona 1 Guatemala Ciudad,(+502) 2221 0347,,,deportes
187,Vida Sana,Guatemala - Guatemala,Calzada Aguilar Batres 34-70 Zona 11 Centro Comercial Galerias Del Sur Guatemala Ciudad,(+502) 2476 8145,,,deportes
188,Distribuidora Carrillo,Guatemala - Guatemala,Manzana 10 L 699 Zona 18 Colonia Maya,(+502) 2492 4141,ww.distribuidoracarrillogt.com,"Todo en materiales para construcción, ferretería en general, pisos, sanitarios, lavatrastos, hierro, laminas, cemento, y mucho más.
Opciones de financiamiento,  visa cuotas,  servicio a domicilio,  herramienta manual y eléctrica,  tubería de PVC,  depósitos y cisternas,  pilas plásticas,  grifería,  electricidad e iluminación,  cerrajería y accesorios y mucho más!…",entrenamiento fisico
189,Full Contact Studio,Guatemala - Guatemala,2 C 10-06 Z-1,(+502) 2232 6575,,,entrenamiento fisico
190,Club Atletico Atenas,Guatemala - Guatemala,Diagonal 14. 22-06 Zona 5,(+502) 2335 3680,http://www.clubatenas.com,,entrenamiento fisico
191,Le Petit Spa,Guatemala - Guatemala,Dg 6 14-86 Z 10,(+502) 2366 7508,http://www.lepetitspagt.com,,entrenamiento fisico
192,Madiel Spa,Guatemala - Guatemala,Av las Americas 7-30 Z 13 Edif Real América L 3d 3 Nivel,(+502) 2360 5070,http://www.madielspa.es.tl,,entrenamiento fisico
193,Armonia Colonial,Guatemala - Guatemala,Boulevard Principal 23 Calle 18-96 Col. Villa Hermosa I Loc. 8 Z 7 Sn Mig P,(+502) 2448 2553,,,entrenamiento fisico
194,Fitness One,Guatemala - Guatemala,Boulevard Los Próceres 25-74 Zona 10,(+502) 2423 6000,,,entrenamiento fisico
195,Dr. Spa,Amatitlán - Guatemala,Kilómetro 29.5 Centro Comercial Flores del Lago Nivel 3 Local 4 Amatitlán,(+502) 6632 9534,,,entrenamiento fisico
196,Zona Libre,Huehuetenango - Huehuetenango,2 Avenida A 1-53 zona 3 Huehuetenango,(+502) 4284 9059,,,entrenamiento fisico
197,Solaz Sauna Y Masaje,Jocotenango - Sacatepequez,Diagonal 1 Número 34 Zona 4 Jocotenango Sacatepequez,(+502) 5588 2533,,,entrenamiento fisico
198,Massage Spa,Guatemala - Guatemala,3 Calle 8-76 Zona 8 De Mixco Boulevard Principal Edicifio Centro Empresarial,(+502) 2480 7042,,,entrenamiento fisico
199,Squash Zone,Guatemala - Guatemala,10 Avenida 10-50 Zona 14,(+502) 5580 1015,,,entrenamiento fisico
200,Sforzo Gym,Guatemala - Guatemala,Calzada Roosevelt 12-25 Zona 11,(+502) 2440 2489,,,entrenamiento fisico
201,La Farfalla,Guatemala - Guatemala,Boulevard Principal 3 Calle 8-88 Zona 8 Mixco Cd. San Cristobal,(+502) 2322 3100,http://www.facebook.com/spa.farfalla,,entrenamiento fisico
202,Nova Spa Estetico,Guatemala - Guatemala,"Boulevar Los Proceres 25-74, zona 10 Guatemala",(+502) 4110 3089,,,entrenamiento fisico
203,San Silvestre Spa Sauna Y Jacuzzi,Guatemala - Guatemala,1 Av Cl A 4-64 Z 7 Almolonga Quetzaltenango,(+502) 7766 8587,,,entrenamiento fisico
204,Sporta Guatemala S.A.,Guatemala - Guatemala,KM 18.5 CARRET A EL SALVADOR,(+502) 6625 9100,,,entrenamiento fisico
205,Vmedical Spa,Guatemala - Guatemala,3 Cl A 8-38 Edif Renova Z 10 3 Nivel,(+502) 3006 3604,,,entrenamiento fisico
206,Fiore,Guatemala - Guatemala,Av Americas 9-55 Plaza Oro L 10,(+502) 2366 7166,,,entrenamiento fisico
207,Hostal Los Volcanes,Guatemala - Guatemala,16 Calle 8-00 Zona 13 Aurora 1,(+502) 2360 3232,,,entrenamiento fisico
208,Cosenza Academy,San José Pinula - Guatemala,"Km 18.9 Carretera A San José Pinula, C.C. la Plazoleta Ciudad de Guatemala",(+502) 6637 5035,www.cosenzaacademy.com,"Buscamos poder contribuir a la formación integral de tu familia.la única escuela certificada en Guatemala de Jiu-jitsu por la Gracie University de Torrance, California.
Ofrecemos programas certificados,  normados y acreditados en defensa personal Karate,  Gracie,  Jiu - Jitsu,  MMA,  ArtesMarciales Mixtas,  Defensa Para Mujeres,  Antibullying,  Defensa Para Niños,  Jiu - Jitsu para niños.Plan Débito Automático (Inscripción Gratis)",artes marciales
209,Cosenza Academy,San José Pinula - Guatemala,"Km 18.9 Carretera A San José Pinula, C.C. la Plazoleta Ciudad de Guatemala",(+502) 6637 5035,www.cosenzaacademy.com,"Buscamos poder contribuir a la formación integral de tu familia.la única escuela certificada en Guatemala de Jiu-jitsu por la Gracie University de Torrance, California.
Ofrecemos programas certificados,  normados y acreditados en defensa personal Karate,  Gracie,  Jiu - Jitsu,  MMA,  ArtesMarciales Mixtas,  Defensa Para Mujeres,  Antibullying,  Defensa Para Niños,  Jiu - Jitsu para niños.Plan Débito Automático (Inscripción Gratis)",artes marciales
210,Schumann'S Cordova,Guatemala - Guatemala,Blvd San Cristobal Centro Comercial San Cristobal Zona 8 Mixco,(+502) 2478 1097,http://www.schumanscordova.com,,artes marciales
211,"Empresas De Competencia, Sociedad Anonima",Guatemala - Guatemala,Boulevard Rafael Landivar Paseo Cayala L 209,(+502) 2493 8000,,,artes marciales
212,"Grupo Aquatic, S.A.",Guatemala - Guatemala,"Km 17.5 Boulevard San José Villa Nueva, Frente A Guatemarmol",(+502) 2312 0808,www.aquaticcenterguate.com,"Clases de natación para bebés, niños y adultos. Nado libre para adultos, aquaerobics, rehabilitación y mujeres embarazadas.
Somos un centro de enseñanza donde nuestra experiencia como nadadores olímpicos nos ha dado el amor al agua,  algo que queremos compartir con los niños. Ofrecemos programas para todas las edades,  niveles de aprendizaje y gustos particulares.",natacion
213,Waterproof Swim Academy,Guatemala - Guatemala,15 Av A y 3 Cl D Mixco Z 8,(+502) 2375 8195,,,natacion
214,"Federacion Nacional De Natacion, Clavados, Polo Acuatico Y Nado Sincronizado",Guatemala - Guatemala,10 Av Z-4,(+502) 2334 1075,http://www.fenadegua.gt,,natacion
215,Asociacion Nacional De Vuelo Libre De Guatemala,Guatemala - Guatemala,10 Calle 2-28 Z 9 Casa de la Cultura,(+502) 2385 1221,www.vuelolibre.com.gt,"Promover la práctica del vuelo libre como herramienta de desarrollo de la cultura física en los ciudadanos guatemaltecos y mejorando su calidad de vida.
La Asociación Deportiva Nacional de Vuelo Libre,  se enorgullece de representar dignamente a nuestro país Guatemala,  integrando y alentando a las personas a participar abiertamente en el Deporte de Ala Delta y/o Parapente.",aviacion
216,Gt Aviation,Guatemala - Guatemala,Avenida Hincapié y 18 Calle Zona 13 Hangar K-2,(+502) 2458 4307,,,aviacion
217,"Golf Total, S.A.",Guatemala - Guatemala,Av 30 Final Z.11,(+502) 2417 0000,,,golf
218,Top Golf S.A.,Guatemala - Guatemala,7 Av 7-78 Z.4,(+502) 2360 7826,,,golf
219,Cubana De Aviacion,Guatemala - Guatemala,13 Cl 2Do Nivel Local 29 3-40 Zona 10,(+502) 2367 2288,,,hipodromos
220,Scenic Dance Guatemala,Guatemala - Guatemala,"3a. avenida, 14-19 zona 14, Ciudad de Guatemala Ver mapa.",2368-0858 | 2478-4688,https://es-la.facebook.com/ScenicDance/,"¿Listo para aprender nuevos pasos? Scenic Dance Guatemala es un espacio increíble para conocer diferentes géneros musicales y aprender a bailar con mucho ritmo. Desde clases de hip hop, ballet, tap, flamenco, salsa, teatro musical y mucho más. Este es uno de los estudios más reconocidos gracias a sus increíbles presentaciones y distintos concursos de baile en los que participan.",Baile
221,Salsa Latin Guatemala,Guatemala - Guatemala,"18 calle 15-51, Zona 13 C.C. Paseo Real, Ciudad de Guatemala Ver mapa.",4217-2567 | 4008-6112,https://www.facebook.com/Salsa-Latin-Guatemala-178268719078/,"¡Atención amantes del baile! Salsa Latin Guatemala es la primera academia profesional de baile latino de Guatemala. Lo mejor es que cuenta con más de 14 años de experiencia en el mundo del baile. Podrás encontrar clases de salsa, bachata, boogalo, pachanga, chachachá y más. Participan en competencias internacionales y cuentan con distintos niveles para que puedas aprender poco a poco.",Baile
222,Academia Dance Art,Guatemala - Guatemala,"Bulevar Vista Hermosa 25-80, zona 15 Vista Hermosa 2, edificio María del Alma local 9A, Ciudad de Guatemala Ver mapa.",3093-8434,https://es-la.facebook.com/Danceartguatemala/,"La Academia Dance Art ofrece profesionales expertos en enseñarte la técnica correcta, apasionados en múltiples géneros de baile; amplio trayecto en la salsa y bachata. Lo mejor es que su academia es reconocida gracias a los múltiples premios que han alcanzado en concursos nacionales e internacionales.",Baile
223,Academia BellyDance Rashida,Guatemala - Guatemala,"Plaza Las Cañas, Local 201, zona 10, Ciudad de Guatemala Ver mapa.",2337-0980,https://es-la.facebook.com/Rashidaacademy/,"Esta academia de baile es ideal para las personas que desean aprender todo sobre el belly dance. Ubicada en la zona 10, la Academia BellyDance Rashida cuenta con profesionales artísticos que te mostrarán distintas técnicas en clases personalizadas. Además, ofrecen clases de baile latino, tango, hip hop, yoga, company y mucho más.",Baile
224,Addiction Dance Studio,Guatemala - Guatemala,"Galerías Primma Locales 203 y 204, Ciudad de Guatemala Ver mapa.",5466-3773,https://es-la.facebook.com/adsgt/,¿Con ganas de bailar? Addiction Dance Studio es un espacio ideal para aprender distintos tipos de baile con clases personalizadas. Ofrecen desde clases de jazz hasta bachata y latin dance de parejas. Lo mejor es que te enseñarán desde los pasos más básicos hasta capacitaciones para concursos de baile en pareja y grupales.,Baile
225,Escuela Cubana de Baile,Guatemala - Guatemala,"Bulevar Vista Hermosa 2a. calle 14-85 zona 15, Ciudad de Guatemala Ver mapa.",2369-5571,https://es-la.facebook.com/Escuela-Cubana-de-Baile-110562958135/,"La Escuela Cubana de Baile es un espacio perfecto para aprender a bailar ritmos latinos. Salsa, merengue, bachata, baile en parejas y mucho más. Lo mejor es que son clases personalizadas con muchos ritmos que seguro te encantarán. Cuentan con distintos niveles y podrás aprender el baile en parejas.",Baile
226,In Motion Dance & Fitness Guatemala,Guatemala - Guatemala,"8a. Calle 28-00, zona 11 interior Parque Comercial Las Majadas Local 37, Ciudad de Guatemala Ver mapa.",4226-3000,http://www.inmotiongt.com/,In Motion Dance & Fitness es un centro muy completo para aprender a bailar y a la vez para ejercitarte de una manera muy entretenida. Cuentan con 10 años de experiencia y ofrecen desde danza árabe hasta clases grupales de bachata o salsa. Lo mejor es que ofrecen la opción de pagar por clase para que pruebes las distintas disciplinas. Sin duda te va a encantar.,Baile
227,Academia de Ballet DanzArte,Guatemala - Guatemala,"Avenida Elena 3-31 zona 1, Ciudad de Guatemala Ver mapa.",4662-6874,https://es-la.facebook.com/Danzarte.ballet/,"La Academia de Ballet DanzArte cuenta con tres diferentes sucursales ubicadas en la Ciudad de Guatemala. Sin duda alguna, este es un buen destino para recibir clases de ballet para niñas desde 1.5 años, hasta adultos. Cuentan con clausuras y presentaciones en público, con hermosas coreografías y vestuarios llenos de detalles.",Baile
228,Ritmo y Sabor Guatemala,Guatemala - Guatemala,"4a. avenida, 16-24 zona 14, Ciudad de Guatemala Ver mapa.",4800-2015,https://es-la.facebook.com/ritmoysaborgt/,"Ritmo y Sabor es una reconocida academia en donde enseñan a bailar distintos tipos de música. Desde salsa, bachata, rueda de casino, merengue, clases personalizadas para niños y mucho más. Lo mejor es que cuentan con horarios bastante amplios para que elijas el que mejor te quede. Además, ofrecen un pase completo para poder disfrutar de todas las clases de la academia, sin limitación.",Baile
229,Escuela Municipal de Danza Clásica,Guatemala - Guatemala,"7a. avenida 11-67 zona 1, 2o. Nivel, Ciudad de Guatemala Ver mapa.",2251-1898,https://es-la.facebook.com/EMDCgt/,"¿Amante de la música clásica? En la zona 1 de la Ciudad de Guatemala existe una Escuela Municipal de Danza Clásica en donde se imparten talleres llenos de talento y pasos únicos. Lo mejor es que las mensualidades son cómodas y puedes entrar en distintas etapas del año. Además, este sitio es ideal para conocer personas que aman esta música y a maestros que dedican mucho tiempo a este tipo de danza.",Baile
230,Heroes Academy Guatemala,Guatemala - Guatemala,"6a. avenida 3-39 zona 1, Ciudad de Guatemala Ver mapa.",5132-2501,https://es-la.facebook.com/HeroesCompanyGT/,"Heroes Academy es una academia especializada y certificada internacionalmente por ""UPPSALA Loves Hip Hop"", de Suecia, en Street Dance. Lo mejor es que vas a encontrar clases de géneros urbanos como el Popping, Locking, Breaking, Krumping, House, Waacking, Vogue, Hip-Hop Old School y New Style, Jazz-Funk, Dancehall y Ragga Jam. ¡Te va a encantar!",Baile
231,Unidanza Guatemala,Guatemala - Guatemala,"Cardales de Cayalá Zona 16 Local 207 Sur, Diagonal 35 Bulevar Austriaco 16-25, Ciudad de Guatemala Ver mapa.",2491-4337,http://unidanza.net/,"En Unidanza vas a encontrar un gran equipo de maestros de ballet, jazz, hip hop y pilates, entregados a la enseñanza de la danza con el deseo de desarrollar y compartir este arte con futuras generaciones. Lo mejor es que las clases son personalizadas y cuentan con distintas presentaciones en lugares llenos de historia. ¡A bailar se ha dicho!",Baile
232,Unlimited Dance Academy,Guatemala - Guatemala,"Bulevar Los Próceres, 24-24 zona 10 C. C. Las Cañas, Ciudad de Guatemala Ver mapa.",2366-7892 | 2366-7893,https://unlimited-dance.com.gt/,"¿Con ganas de aprender pasos nuevos? Sin duda alguna Unlimited Dance Academy es un buen lugar para disfrutar del baile y de sus diferentes ritmos. Cuentan con más de 20 años de experiencia, con clases personalizadas y pasos impresionantes. Lo mejor es que cuentan con presentaciones y un ambiente muy agradable, en donde seguro conocerás personas que comparten la pasión por el baile.",Baile
233,The Dance Factory,Guatemala - Guatemala,"Km. 14.5 Carretera a El Salvador, Centro Comercial Escala Local B-2, Ciudad de Guatemala Ver mapa.",6634-2230 | 2258-8628,https://es-la.facebook.com/DanceFactoryGT/,The Dance Factory es una de las academias de baile más grande del país. Cuenta con tres sucursales en la Ciudad de Guatemala y clases de distintos géneros musicales. Son conocidos gracias a sus clausuras con escenografías únicas y bailes espectaculares. Aceptan a bailarines a partir de los 4 años de edad y es una opción única para enamorarte del baile.,Baile
234,Invictus Performance Training,Guatemala - Guatemala,"8a. avenida 6-63, Zona 14",2367 1239,https://www.facebook.com/invictusperformance/,crossfit,crossfit
235,CrossFit 502,Guatemala - Guatemala,"Ubicación:  Dinamia Cayalá, Zona 16 ",2368 5013,https://www.facebook.com/CF502/,crossfit,crossfit
236,CrossFit 502,Guatemala - Guatemala," C.C. Escala, Carretera a El Salvador",6637 3778,https://www.facebook.com/CF502/,crossfit,crossfit
237,CrossFit FD6,Guatemala - Guatemala,"Plaza Futeca, Zona 14 ",2213 6900,https://www.facebook.com/d6lifechangingfitness/,crossfit,crossfit
238,Crossfit FD6,Guatemala - Guatemala," C.C. Miraflores, Zona 11",2225 3200,https://www.facebook.com/d6lifechangingfitness/,crossfit,crossfit
239,Sense CrossFit,Guatemala - Guatemala,"Ubicación: 9a. avenida 16-03, Zona 10",2366 5836,https://www.facebook.com/amsicrossfit/,crossfit,crossfit
240,AMSI CrossFit,Guatemala - Guatemala,"8a. avenida, 9-28, San Cristóbal, Zona 8 de Mixco",2480 1592,https://www.facebook.com/brauathletics/,crossfit,crossfit
241,Brau Athletics CrossFit,Guatemala - Guatemala,"Plaza Empresarial Muxbal, Santa Catarina Pinula",2441 9008,https://www.facebook.com/crossfitspringcity7/,crossfit,crossfit
242,CrossFit Spring City Once,Guatemala - Guatemala,"C.C. Via Majadas, Zona 11 ",2473 7396,https://www.facebook.com/OaksCrossFit/,crossfit,crossfit
243,CrossFit Spring City Once,Guatemala - Guatemala," Expobodegas Petapa, Zona 12",2477 4632,https://www.facebook.com/crossfitspringcity7/,crossfit,crossfit
244,Dinamic Fitness - PASAJE NARANJO,Guatemala - Guatemala,10 avenida 18-58 zona 4 de mixco Condado Naranjo. C.C. Pasaje Naranjo,,https://dinamic.com.gt/,"Somos un nuevo tipo de gym, un lugar para ponerte en forma. ¡Un lugar para ser feliz!Nuestros programas de ejercicios están diseñados bajo una planificación de entrenamiento cardiovascular y de fuerza. Todo con un soporte científico que garantiza que obtendrás resultados de forma segura.",Gimnasios de Educación Física
245,Dinamic Fitness - FORUM ZONA 10,Guatemala - Guatemala,3ra ave 10-80 Zona 10 Edificio Forum Zona Viva Local 201,TEL: 2214-0707,https://dinamic.com.gt/,"Somos un nuevo tipo de gym, un lugar para ponerte en forma. ¡Un lugar para ser feliz!Nuestros programas de ejercicios están diseñados bajo una planificación de entrenamiento cardiovascular y de fuerza. Todo con un soporte científico que garantiza que obtendrás resultados de forma segura.",Gimnasios de Educación Física
246,Dinamic Fitness - CENTRO 21,Guatemala - Guatemala,"<span style=""font-size: xx-large;"">CALZADA SAN JUAN 21-14 </span>","<span style=""font-size: xx-large;"">TEL: 2243-0003</span>",https://dinamic.com.gt/,"Somos un nuevo tipo de gym, un lugar para ponerte en forma. ¡Un lugar para ser feliz!Nuestros programas de ejercicios están diseñados bajo una planificación de entrenamiento cardiovascular y de fuerza. Todo con un soporte científico que garantiza que obtendrás resultados de forma segura.",Gimnasios de Educación Física
247,Dinamic Fitness - VILLA HERMOSA,Guatemala - Guatemala,CENTRO COMERCIAL PACIFIC VILLA HERMOSA,TEL: 2214-0505,https://dinamic.com.gt/,"Somos un nuevo tipo de gym, un lugar para ponerte en forma. ¡Un lugar para ser feliz!Nuestros programas de ejercicios están diseñados bajo una planificación de entrenamiento cardiovascular y de fuerza. Todo con un soporte científico que garantiza que obtendrás resultados de forma segura.",Gimnasios de Educación Física
248,Dinamic Fitness - ZONA PORTALES,Guatemala - Guatemala,"3ra. Av. 10-10 Zona 17 km. 4.5 Ruta al Atlantico Zona Portales Guatemala, Guatemala",TEL: 2217-1111,https://dinamic.com.gt/,"Somos un nuevo tipo de gym, un lugar para ponerte en forma. ¡Un lugar para ser feliz!Nuestros programas de ejercicios están diseñados bajo una planificación de entrenamiento cardiovascular y de fuerza. Todo con un soporte científico que garantiza que obtendrás resultados de forma segura.",Gimnasios de Educación Física
249,Dinamic Fitness - ROOSEVELT,Guatemala - Guatemala,C.C. Gran Vía Roosevelt Local 31,TEL: 2243-0000,https://dinamic.com.gt/,"Somos un nuevo tipo de gym, un lugar para ponerte en forma. ¡Un lugar para ser feliz!Nuestros programas de ejercicios están diseñados bajo una planificación de entrenamiento cardiovascular y de fuerza. Todo con un soporte científico que garantiza que obtendrás resultados de forma segura.",Gimnasios de Educación Física
250,Fight Club,Guatemala - Guatemala,24 ave 47-64 zona 12 Prados de Monte Maria,tel:(5025) 4522-0530,https://directorio.guatemala.com/listing_reports.php?report=website&id=259,"La cualidad dual de Fight Club Guatemala le define como un ejército y una familia donde cada miembro es valioso y estimado; desde el más pequeño, hasta el más grande. El sentido de pertenencia y la solidaridad que se vive en Fight Club es singular.

Fight Club Guatemala es una organización de Artes Marciales Mixtas establecida en diciembre de 1,999, como una sucursal de Grizzly Gym International.","Artes Marciales
                                    

                                                                                                                                 y
                                                                                                                            Boxeo"
251,CrossFit 502 Carr. a El Salvador,Guatemala - Guatemala,Km. 14.5 Carretera a El Salvador,tel:+(502) 6637-3778,https://directorio.guatemala.com/listing_reports.php?report=website&id=3448,"En CrossFit 502 nos enfocamos en que nuestros miembros alcancen un nivel más alto de acondicionamiento físico y desempeño general, con un programa de entrenamiento diferente, divertido y que genera resultados.

Nuestra filosofía se basa en entrenamientos personalizados en un ambiente grupal, con entrenadores certificados que guiarán cada una de las sesiones. Los resultados de nuestros miembros, son el reflejo del esfuerzo y sacrificio que entregan en cada entreno.",Crossfit
252,Neurogym Antigua,Guatemala - Guatemala,5a. Avenida Norte #17,tel:(502) 7831-5210 | 5892-2527,https://directorio.guatemala.com/listing_reports.php?report=website&id=1821,"Neurogym Antigua ofrece un programa de estimulación temprana, enfocado en cuatro áreas de desarrollo: neurofísca, neurocognitiva, neurolingüística, y socio-emocional.",Pesas
253,Dinamic Fitness Zona Portales,Guatemala - Guatemala,3a Avenida 10-10 Zona 17 ,tel:+(502) 2217-1111,https://directorio.guatemala.com/listing_reports.php?report=website&id=52344,"Dinamic es un concepto nuevo de fitness, un lugar donde nos encanta subirte el ánimo. No te juzgamos, no importa si eres experto o tu primera vez en un gimnasio, te hacemos sentir bien en un ambiente motivador y accesible.",Pesas
254,Futeca Sport Gym Pradera Concepción,Guatemala - Guatemala,"Km 15.5 Carretera a El Salvador, ",tel:+(502) 2366-8052,https://directorio.guatemala.com/listing_reports.php?report=website&id=52160,Futeca Sport Gym Pradera Concepción cuenta con los mejores programas para que cumplas tus objetivos de manera efectiva y segura. Formamos parte de una cadena deportiva que incluye gimnasios y canchas deportivas. Visita tu sede Futeca más cercana.,Pesas
255,Vertical Shapes,Guatemala - Guatemala,"2da. Calle 23-51 Zona 15, Vista Hermosa I",tel:+(502) 2369-8775,https://directorio.guatemala.com/listing_reports.php?report=website&id=427,"Vertical Shapes es una academia especializada en Pole Fitness y acrobacias aéreas, dirigido al 100% para mujeres que desean ejercitar y tonificar su cuerpo, siempre de una forma entretenida y logrando un aumento en la autoestima de cada una.

El Pole Dance está dirigido a mujeres que desean ejercitar y tonificar su cuerpo de una forma entretenida y logrando aumento en la autoestima.",Pole Dance
256,Scandinavia Gym Galerías Primma,Guatemala - Guatemala,Calzada Roosevelt 14-82 Zona 7,tel:+(502) 2474-2815,https://directorio.guatemala.com/listing_reports.php?report=website&id=2029,"Scandinavia Gym inicó en 1992 atentiendo a la necesidad de los guatemaltecos de un servicio de salud que formara mentes y cuerpos saludables a través de ejercicio constante y practicado de una manera correcta.

Hoy en día la cadena cuenta con 12 gimnasios incluyendo ubicaciones en las arterias principales de la ciudad de Guatemala y sus suburbios, y cuatro localidades en las ciudades principales del interior del país.

La misión de Scandinavia es lograr las metas de todos sus clientes brindando la mejor ubicación, tecnología de punta y asesoría.","TRX
                                    

                                                                                                                                ,
                                                                                                                            Zumba
                                    

                                                                                                                                ,
                                                                                                                            Pesas
                                    

                                                                                                                                 y
                                                                                                                            Pilates"
257,World Gym Roosevelt,Guatemala - Guatemala,Calz. Roosevelt 21-01 Zona 7,tel:+(502) 2243-0000,https://directorio.guatemala.com/listing_reports.php?report=website&id=1864,"Ubicado en el Centro Comercial Gran Vía, World Gym Roosevelt cuenta con una piscina semi-olímpica bajo techo y climatizada con programas de natación para niños y adultos, área de pesas y equipo selectorizado, equipo cardiovascular que incluye bandas, elípticas y escaladoras.

También posee un área para clases de entrenamiento metabólico (FIT), un salón de cycling, dos salones de clases de grupo, clínica de nutrición y de orientación, instructores capacitados y certificados en cada una de las diferentes disciplinas del fitness, una cafetería y área de estar para que disfrutes de un nuevo estilo de vida saludable.",Pesas
258,Scandinavia Gym Metronorte,Guatemala - Guatemala,"Calz. Marsical Zavala, 11 Avenida 00-92 Zona 17",tel:+(502) 2269-5605,https://directorio.guatemala.com/listing_reports.php?report=website&id=2037,"Scandinavia Gym inicó en 1992 atentiendo a la necesidad de los guatemaltecos de un servicio de salud que formara mentes y cuerpos saludables a través de ejercicio constante y practicado de una manera correcta.

Hoy en día la cadena cuenta con 12 gimnasios incluyendo ubicaciones en las arterias principales de la ciudad de Guatemala y sus suburbios, y cuatro localidades en las ciudades principales del interior del país.

La misión de Scandinavia es lograr las metas de todos sus clientes brindando la mejor ubicación, tecnología de punta y asesoría.","Pesas
                                    

                                                                                                                                ,
                                                                                                                            Pilates
                                    

                                                                                                                                ,
                                                                                                                            TRX
                                    

                                                                                                                                 y
                                                                                                                            Zumba"
259,Gimnasio Curves Antigua,Guatemala - Guatemala,"Salida a Ciudad Vieja No. 25, Hotel Real Plaza",tel:+(502) 7832-0770,https://directorio.guatemala.com/listing_reports.php?report=website&id=1816,Curves es el centro de fitness más grande del mundo diseñado especialmente para mujeres. Puedes perder peso con solo 30 minutos diarios 3 veces a la semana.,"Zumba
                                    

                                                                                                                                ,
                                                                                                                            TRX
                                    

                                                                                                                                 y
                                                                                                                            Pilates"
260,Equinox Gym Santa Amelia,Guatemala - Guatemala,"Blvd. Hospital Militar 13-27, Zona 16",tel:+(502) 2261-0572,https://directorio.guatemala.com/listing_reports.php?report=website&id=288,"Equinox Gym es más que un gimnasio, es un estilo de vida. Con tres sucursales en las áreas más importantes del país, Equinox espera satisfacer a todos sus clientes con excelentes resultados.",Pesas
261,Alive Gimnasio Boutique,Guatemala - Guatemala,Diagonal 6 12-42 zona 10,tel:+(502) 2206-8000,https://directorio.guatemala.com/listing_reports.php?report=website&id=292,"Brindamos una atmósfera amigable, espacios cómodos, seguros y servicio fantástico para practicar ejercicio inspirador. Sportfit, Alivefit, Yoga y HIIT one on one, son nuestros programas de ejercicio diseñados para motivar hasta aquellos que el ejercicio nunca ha sido su fuerte.

Adicionalmente a las áreas de entrenamiento, contamos un un restaurante de comida ligera y saludable el ""KIWI Lounge"" y vestidores limpios y elegantes que harán que disfrutes cada visita a Alive al máximo.","Pilates
                                    

                                                                                                                                ,
                                                                                                                            TRX
                                    

                                                                                                                                ,
                                                                                                                            Yoga
                                    

                                                                                                                                 y
                                                                                                                            Pesas"
262,Mix Fun Fitness,Guatemala - Guatemala,Km. 14 Carretera a El Salvador,tel:+(502) 6685-2344,,"Con Mix Fun Fitness únete a la fiesta. Ve por lo saludable, diviértete y ponte en forma. Olvida el ejercicio, solo piérdete en la original fiesta de baile fitness.","Pesas
                                    

                                                                                                                                ,
                                                                                                                            Zumba
                                    

                                                                                                                                 y
                                                                                                                            Pilates"
263,180 Grados Fitness,Guatemala - Guatemala,Km. 22.5 Carretera a El Salvador,tel:+(502) 6662-5087,https://directorio.guatemala.com/listing_reports.php?report=website&id=2228,"180 Grados Fitness tiene como objetivo fundamental dirigir un entrenamiento funcional que genere un mejor rendimiento físico, mayor coordinación, agilidad y también un mayor gasto de calorías por minuto. 

El entrenamiento funcional es el nuevo secreto del fitness, se ha convertido en la base de cualquier entrenamiento y tiene como objetivo el entrenamiento del movimiento del cuerpo en todos sus ejes y en sus rangos de movimiento natural.","Crossfit
                                    

                                                                                                                                 y
                                                                                                                            TRX"
264,Cosenza,Guatemala - Guatemala,Km. 18.9 Carretera San José Pinula,tel:+(502) 6634-6823,https://directorio.guatemala.com/listing_reports.php?report=website&id=526,"A una edad muy temprana, Helio Gracie aprendió las técnicas del Jiu-Jitsu Japonés tradicional con su hermano mayor, Carlos. A fines de los años 1920, comenzó a modificar estas técnicas para adaptarlas a su físico débil con el propósito de desarrollar un sistema que le permitiera defenderse de contrincantes de mayor estatura.

Luego de varios años de perfeccionamiento, pudo demostrar la efectividad de su arte al derrotar regularmente a contrincantes más fuertes y más corpulentos, algunos de los cuales pesaban más de 100 libras más que él. Como consecuencia de ello, las técnicas de Helio se convirtieron rápidamente en la nueva expresión del jiu-jitsu en Brasil y abrieron el camino para una revolución mundial en las artes marciales.",Artes Marciales
265,YogAntigua,Guatemala - Guatemala,1ra Avenida Sur #6,tel:+(502) 5251-4809,https://directorio.guatemala.com/listing_reports.php?report=website&id=51884,"YogAntigua es la mejor opción que puedes elegir al momento de hacer ejercicio. Cuentan con equipo especializado, instructores calificados y la mejor disposición para que los visites. Mantén en armonía tu cuerpo y mente con YogAntigua",Yoga
266,Boom Kettlebell Plaza Varietá,Guatemala - Guatemala,Blvd. Landívar Zona 16,tel:+(502) 2333-9772,https://directorio.guatemala.com/listing_reports.php?report=website&id=289,"Nuestro personal es altamente capacitado con certificados obtenidos en los EEUU. Contamos con herramientas nunca antes vistas en Guatemala para mejorar la condición física. 

Boom Kettlebell incrementa la flexibilidad, fuerza y tonifica los músculos. Fortalece las articulaciones convirtiéndolo en una excelente herramienta para cualquier deporte o terapia de recuperación de lesiones, además de ser excelente para tratar y corregir la espalda y postura en general.","TRX
                                    

                                                                                                                                 y
                                                                                                                            Calisthenics"
267,Ka Synergy,Guatemala - Guatemala,18 Calle 15-51 Zona 13,tel:+(502) 2362-6530,https://directorio.guatemala.com/listing_reports.php?report=website&id=553,"Ka Synergy es un concepto de formación con artes marciales y fitness, para toda la familia. Hay programas apropiados para cada etapa del desarrollo.

Utilizamos la licencia Skillz y Hyper para nuestros programas de arte marcial dividiendo las etapas del desarrollo del alumno en edades y ventanas especificas",Artes Marciales
268,Active Zone,Guatemala - Guatemala,Boulevard Hospital Militar Centro Comercial ,tel:+(502) 2255-8054,https://directorio.guatemala.com/listing_reports.php?report=website&id=10050,"Active Zone es el resultado de un proyecto familiar que busca prestar un servicio personalizado e individual. Se inician los ejercicios por muchas razones: salud, bienestar, prescripción médica, peso, para afirmar y tonificar. 

Con un equipo adecuado de instructores certificados y calificados, utilizando las rutinas más modernas y efectivas, un ambiente agradable acogedor y una  supervisión personalizada, acompañados por dos nutricionistas que ven mensualmente a cada alumno, no hay duda que todo eso que esperamos lograr con el ejercicio lo tendremos en ACTIVE ZONE.","Pilates
                                    

                                                                                                                                ,
                                                                                                                            Pole Dance
                                    

                                                                                                                                 y
                                                                                                                            TRX"
269,Exerzone,Guatemala - Guatemala,"Blvd. San Cristóbal, 5a. Avenida 3-05 Sector A-3",tel:+(502) 2246-5555,https://directorio.guatemala.com/listing_reports.php?report=website&id=1585,"Health, fun and fitness! Comienza una nueva vida en Exerzone, el gimnasio que te ofrece salud, diversión y mucho más. Clases de baile, aeróbicos, zumba, insanity, pilates, pole dance y otras actividades para ti.","Pesas
                                    

                                                                                                                                 y
                                                                                                                            TRX"
270,Scandinavia Gym Zona 9,Guatemala - Guatemala,Blvd. Liberación 6-31 Zona 9,tel:+(502) 2377-3012,https://directorio.guatemala.com/listing_reports.php?report=website&id=2036,"Scandinavia Gym inicó en 1992 atentiendo a la necesidad de los guatemaltecos de un servicio de salud que formara mentes y cuerpos saludables a través de ejercicio constante y practicado de una manera correcta.

Hoy en día la cadena cuenta con 12 gimnasios incluyendo ubicaciones en las arterias principales de la ciudad de Guatemala y sus suburbios, y cuatro localidades en las ciudades principales del interior del país.

La misión de Scandinavia es lograr las metas de todos sus clientes brindando la mejor ubicación, tecnología de punta y asesoría.","Pesas
                                    

                                                                                                                                ,
                                                                                                                            TRX
                                    

                                                                                                                                 y
                                                                                                                            Zumba"
271,Dinamic Fitness Roosevelt,Guatemala - Guatemala,Calzada Roosevelt 25-09 Zona 7 ,tel:+(502) 2217-1111,https://directorio.guatemala.com/listing_reports.php?report=website&id=52342,"Dinamic es un concepto nuevo de fitness, un lugar donde nos encanta subirte el ánimo. No te juzgamos, no importa si eres experto o tu primera vez en un gimnasio, te hacemos sentir bien en un ambiente motivador y accesible.",Pesas
272,The Fit Center,Guatemala - Guatemala,"Blvd. Rafael Landivar, 10-05 Zona 16",tel:+(502) 2493-7666,https://directorio.guatemala.com/listing_reports.php?report=website&id=744,"The Fit Center es un concepto integral de gimnasio personalizado en Paseo Cayalá. Programas integrales: clases de ejercicios, suplementos, nutrición, y quiropráctica.

En una clase de 45 minutos, estarás haciendo ejercicios funcionales y de aislamiento muscular que tienen además gran impacto en tu metabolismo, por lo que estarás quemando calorías hasta 48 horas después de entrenar.","Pesas
                                    

                                                                                                                                ,
                                                                                                                            Pilates
                                    

                                                                                                                                 y
                                                                                                                            TRX"
273,AMSI CrossFit,Guatemala - Guatemala,"8a. Avenida 9-28, Ciudad San Cristóbal",tel:+(502) 2480-1592,https://directorio.guatemala.com/listing_reports.php?report=website&id=12107,"AMSI CrossFit pertenecemos a la Comunidad de Crossfit como el quinto “box” afiliado en Guatemala. La comunidad sigue creciendo en nuestro país y estamos emocionados por encontrar potenciales crossfiteros.

Contamos con personal certificado para impartir las clases de inducción básica para formarte, guiarte y entrenarte durante las clases diarias.",Crossfit
274,Xtream Gym,Guatemala - Guatemala,6a. Avenida 6-63 Zona 10,tel:+(502) 2278-9325,https://directorio.guatemala.com/listing_reports.php?report=website&id=1212,"Nuestro gimnasio ofrece un entrenamiento por medio del acondicionamiento físico general que incluye la pérdida de peso y preparación física para mejorar el rendimiento en cualquier deporte.

Se realiza por medio de ejercicios con cambios de intensidad, trabajando con ejercicios aeróbicos y anaeróbicos, ejercicios de desarrollo de la fuerza con el uso del peso corporal, carrera, desarrollo de la coordinación, flexibilidad y explosividad del movimiento muscular.","Boxeo
                                    

                                                                                                                                 y
                                                                                                                            Artes Marciales"
275,Micheo Boxing by Futeca Oakland Mall,Guatemala - Guatemala,"Diagonal 6, 13-01 zona 10",tel:+(502) 2336-5569,,"En Micheo Boxing by Futeca somos una academia de boxeo diferente, ya que brindamos un servicio personalizado y tenemos el aval de la Federación Nacional de Boxeo de Guatemala. Contamos con el equipo completo y las instalaciones adecuadas para ti.

Nuestro objetivo es crear una condición fisica. Que nuestros estudiantes aprendan a boxear. Mejorar su estilo de vida, resistencia y fuerza. Eliminar estres y % de grasa",Boxeo
276,The Boxing Club,Guatemala - Guatemala,"20 calle 25-85, Zona 10",tel:+(502) 2363-3026,https://directorio.guatemala.com/listing_reports.php?report=website&id=490,"The Boxing Club es una escuela de boxeo enfocada en ofrecer instrucción de boxeo como fitness para lograr disciplina, quema de grasa, eliminación de estrés y defensa personal.",Boxeo
277,Asha Shala,Guatemala - Guatemala,5a. Avenida 20-42 Zona 14,tel:+(502) 2367-2698,https://directorio.guatemala.com/listing_reports.php?report=website&id=757,"Aquí puedes encontrar la herramienta que necesitas para una sanación física, psicológica y espiritual. 

Ofrecemos Yoga, Qi Cong, Shiatsu, Medicina China, Acupuntra, Network Spinal Analysis, Baras, Reiki, Consulta de Numerología, Cartas Astrales, Café y Tienda de Yoga.",Yoga
278,Schumanns Sporta,Guatemala - Guatemala,Km. 18.5 Carretera a El Salvador,tel:+(502) 6633-9623,https://directorio.guatemala.com/listing_reports.php?report=website&id=3438,"La misión de Schumanns Sporta es formar a personas con valores y actitud positiva hacia cualquier situación, enseñar el camino de la disciplina sin maltrato, para alcanzar el éxito. Enseñamos artes marciales para cualquier edad.",Artes Marciales
279,Sense Crossfit,Guatemala - Guatemala,9 Avenida 16-03 zona 10,tel:+(502) 2366-5836,https://directorio.guatemala.com/listing_reports.php?report=website&id=5447,Sense Crossfit es un centro de fuerza y acondicionamiento físico con metodología CrossFit. ¡Mejoramos TU Vida!,"Crossfit
                                    

                                                                                                                                 y
                                                                                                                            TRX"
280,Xsport Fitness Center,Guatemala - Guatemala,"Calz. Aguilar Batres, 37-95 Zona 12",tel:+(502) 2476-9841,,"En Xsport Fitness Center son por excelencia más que un gimnasio. Encontrarás la mejor asesoría, promociones y actividades para lograr tus metas.","Pesas
                                    

                                                                                                                                 y
                                                                                                                            TRX"
281,Scandinavia Gym Las Luces,Guatemala - Guatemala,Km 13.1 Carretera a El Salvador ,tel:+(502) 2269-5603,https://directorio.guatemala.com/listing_reports.php?report=website&id=2031,"Scandinavia Gym inicó en 1992 atentiendo a la necesidad de los guatemaltecos de un servicio de salud que formara mentes y cuerpos saludables a través de ejercicio constante y practicado de una manera correcta.

Hoy en día la cadena cuenta con 12 gimnasios incluyendo ubicaciones en las arterias principales de la ciudad de Guatemala y sus suburbios, y cuatro localidades en las ciudades principales del interior del país.

La misión de Scandinavia es lograr las metas de todos sus clientes brindando la mejor ubicación, tecnología de punta y asesoría.","TRX
                                    

                                                                                                                                ,
                                                                                                                            Zumba
                                    

                                                                                                                                ,
                                                                                                                            Pesas
                                    

                                                                                                                                 y
                                                                                                                            Pilates"
282,Pure Yoga,Guatemala - Guatemala,Diagonal 35 Blvd. Austriaco,tel:+(502) 2491-4240,https://directorio.guatemala.com/listing_reports.php?report=website&id=438,"El Yoga restablece el equilibrio, la simetría del cuerpo, aumenta la flexibilidad y reduce dolores. Únete a la familia de Pure Yoga y disfruta de una vida saludable.",Yoga
283,Urban Yoga,Guatemala - Guatemala,"Km 15.5 Carr. a El Salvador, Edificio Plaza Concep",tel:+(502) 4622-0497,,"Urban Yoga es un estudio en Carretera a El Salvador ofreciendo clases de Yoga de diferentes tipos: Vinyasa, Align & Flow, Hatha, Slow Flow, Ashtanga y clases estilo Mysore. Atrévete a algo fuera de lo convencional y divertido. Urban Yoga te invita a visitarlos.",Yoga
284,Zenith Training Center,Guatemala - Guatemala,"18 avenida ""A"", 1-17 Vista Hermosa II, Zona 15",tel:+(502) 2310-0546,https://directorio.guatemala.com/listing_reports.php?report=website&id=357,¡Ya olvídate de los gimnasios convencionales! Somos la forma inteligente de transformar tu cuerpo.,"TRX
                                    

                                                                                                                                ,
                                                                                                                            Calisthenics
                                    

                                                                                                                                 y
                                                                                                                            Pilates"
285,Curves Las Puertas,Guatemala - Guatemala,Centro Comercial Las Puertas,#ubicacion,,Gimnasio Curves también está ubicado en el Centro Comercial Las Puertas en San Lucas Sacatepéquez.,"Pilates
                                    

                                                                                                                                ,
                                                                                                                            TRX
                                    

                                                                                                                                 y
                                                                                                                            Zumba"
286,Adorarte,Guatemala - Guatemala,"4a. calle 23-40, Kaminal Juyu 1",tel:+(502) 2474-0562,,"Adorarte es una Academia Cristiana de Baile nuestra visión es ser un canal de Dios para preparar adoradores en espíritu y verdad que sean formados y levantados como líderes y ministros de Dios avivando sus dones y talentos. Equipando sus tres áreas: espíritu, alma y cuerpo, alcanzando así una relación personal y genuina con El amado y cumplir con excelencia la edificación del cuerpo de Cristo y la gran comisión.",Academias de Baile
287,Curves Zona 15,Guatemala - Guatemala,"1a. Calle 22-13 Zona 15, Vista Hermosa II",tel:+(502) 2369-2622,https://directorio.guatemala.com/listing_reports.php?report=website&id=1841,"Curves trabaja los principales grupos musculares con un entrenamiento completo de 30 minutos que combina ejercicio de fuerza y actividad cardiovascular sostenida a través de equipos de resistencia hidráulica. 

Curves también trabaja para ayudar a las mujeres a perder peso, obtener fuerza muscular y capacidad aeróbica y aumentar el metabolismo con su innovador y científicamente probado método que termina con la necesidad de dietas permanentes. 

Gary y Diane Heavin fundadores son considerados como innovadores del fenómeno que ha facilitado ejercitarse a más de 4 millones de mujeres en todo el mundo, muchas de las cuales están en el gimnasio por primera vez. Con 10.000 clubs en 89 países, Curves es la franquicia de fitness más grande del mundo.","Yoga
                                    

                                                                                                                                ,
                                                                                                                            Zumba
                                    

                                                                                                                                 y
                                                                                                                            Pilates"
288,Bizzu Aesthetics,Guatemala - Guatemala,11 Calle 1-86 ,tel:+(502) 2441-9193,https://directorio.guatemala.com/listing_reports.php?report=website&id=14934,"Bizzu Aesthetics Club es el único medical spa en Latinoamérica que cuenta con la más avanzada maquinaria para ofrecer los mejores tratamientos médicos estéticos. 

Estamos en constante actualización de nuestras máquinas y nuestra tecnología está patentada y es aprobada por la FDA. Cada tratamiento que se ofrece es personalizado (ya que cada cuerpo, cada piel es única) y cuenta con la asesoría y supervisión de un cirujano plástico.","Centros de Depilación
                                    

                                                                                                                                ,
                                                                                                                            Clínicas de Adelgazamiento
                                    

                                                                                                                                ,
                                                                                                                            Saunas
                                    

                                                                                                                                ,
                                                                                                                            Spa
                                    

                                                                                                                                 y
                                                                                                                            Yoga"
289,Okinawan Goju Ryu,Guatemala - Guatemala,Avenida Las Américas 17-16,tel:+(502) 2334-5697,https://directorio.guatemala.com/listing_reports.php?report=website&id=7695,"Okinawan Goju Ryu en Guatemala es dojo que desde 1987 enseña esta disciplina, dirigida por el Sensei Fernando Ramírez desde hace más de 23 años.

Sensei Ramirez obtuvo su cinta negra en 1977 bajo la guía y organización del Master Seikichi Toguchi, alumno directo de Master Chojun Miyagi. Sensei Ramirez viajó a Okinawa, China, India, Nepal. Aparte de karate, aprendió acupuntura y tai-chi-chuan estilo Chen.","Academias Deportivas
                                    

                                                                                                                                 y
                                                                                                                            Artes Marciales"
290,Akasha Yoga Centro Holístico,Guatemala - Guatemala,8a. Calle 28-00 Zona 11,tel:+(502) 2473-7844,https://directorio.guatemala.com/listing_reports.php?report=website&id=415,"Akasha Yoga Centro Holístico, abre las puertas para ser un lugar donde se encuentran diferentes métodos para tener una vida integral, uniendo el bienestar emocional, espiritual, físico y mental.

Akasha, es el simbolismo del elemento éter o espacio, es una palabra escrita en sánscrito cuya raíz quiere decir brillar y a veces se aplica al cielo.","Yoga
                                    

                                                                                                                                 y
                                                                                                                            TRX"
291,OB CrossFit,Guatemala - Guatemala,23 Calle 14-75 Zona 4 ,tel:+(502) 2333-0512,https://directorio.guatemala.com/listing_reports.php?report=website&id=487,"En OB CrossFit somos un centro de crossfit ubicado en Condado Naranjo de la Ciudad de Guatemala, contamos con las mejores instalaciones y el mejor equipo que hará que los resultados deseados se vean en muy poco tiempo.",Crossfit
292,CrossFit 502 Zona 16,Guatemala - Guatemala,Blvd. Austriaco 37-01 Zona 16,tel:+(502) 5872-6989,https://directorio.guatemala.com/listing_reports.php?report=website&id=3447,"En CrossFit 502 nos enfocamos en que nuestros miembros alcancen un nivel más alto de acondicionamiento físico y desempeño general, con un programa de entrenamiento diferente, divertido y que genera resultados.

Nuestra filosofía se basa en entrenamientos personalizados en un ambiente grupal, con entrenadores certificados que guiarán cada una de las sesiones. Los resultados de nuestros miembros, son el reflejo del esfuerzo y sacrificio que entregan en cada entreno.",Crossfit
293,Academia de Baile bailamos,Guatemala - Guatemala,8 Calle 20-70,tel:+(502) 2474-3727,,,Academias de Baile
294,Salsa in Motion Academy,Guatemala - Guatemala,"8 Calle 28-00, Zona 11 ",tel:+(502) 4215-1875,https://directorio.guatemala.com/listing_reports.php?report=website&id=522,"Salsa in Motion Academy es la mejor academia de Baile & Fitness en Guatemala. Si lo que quieres es aprender a bailar, has venido al lugar correcto. Además de salsa, con nosotros también podrás aprender a bailar bachata y tomar clases de Zumba Fitness.

Salsa In Motion Academy es arte, pasión, crecimiento, movimiento y vida. Promovemos y buscamos desarrollar en las personas su estado físico, psicológico y dancístico por medio de la interpretación y expresión musical.","Academias de Baile
                                    

                                                                                                                                 y
                                                                                                                            TRX"
295,CrossFit Habit,Guatemala - Guatemala,17 Avenida 24-45 Zona 11,tel:+(502) 5599-9990,https://directorio.guatemala.com/listing_reports.php?report=website&id=258,"CrossFit es un programa de entrenamiento con ejercicios funcionales con entrenamientos de alta intensidad y corta duración. 

CrossFit HABIT nace con la idea de buscar moldear continuamente de manera segura, eficiente y eficaz la práctica de este deporte y aumentar la capacidad de trabajo de nuestros atletas a través del tiempo haciendo de CrossFit un estilo de vida.",Crossfit
296,World Gym Pradera,Guatemala - Guatemala,Blvd. Los Próceres 25-74 Zona 10,tel:+(502) 2423-6000,https://directorio.guatemala.com/listing_reports.php?report=website&id=257,"En World Gym contamos con un centro de orientación que te guiará desde tu primer día, una clínica de nutrición que te enseñará a alimentarte de una manera más saludable a través del programa Fitness Coaching System, dos salones de clases grupales para que tu entrenamiento sea una experiencia diferente cada día, una piscina semi-olímpica bajo techo con programas de natación para niños y adultos.

Además de eso, siempre estarás guíado por instructores capacitados en el tema del fitness y nutrición que te brindarán la asesoría que necesitas para lograr un estilo de vida diferente a través de la dedicación y la perseverancia.",Pesas
297,Boom Gym,Guatemala - Guatemala,"15 Avenida 6-01, Century Plaza Nivel 4 Local 403",tel:+(502) 2362-0708,https://directorio.guatemala.com/listing_reports.php?report=website&id=15128,"En Boom Gym nuestro personal está altamente capacitado con certificados obtenidos en los EEUU. Contamos con herramientas nunca antes vistas en Guatemala para mejorar la condición física. 

Boom Gym es la herramienta mas rústica, efectiva y exigente del planeta. Se enfoca en crear resistencia, moldeando y fortaleciendo casi todos los músculos del cuerpo. Incrementa flexibilidad, fuerza y tonifica los músculos.",Crossfit
298,Casa San Juan,Guatemala - Guatemala,"3a Avenida Norte, Número 18 San Juan Del Obispo, ",tel:+(502) 7830-6799,https://directorio.guatemala.com/listing_reports.php?report=website&id=51983,"Casa San Juan es un hotel, restaurante y escuela de yoga que te ayudará a mantenerte en forma y relajado. Ellos manejan el estilo Ayurveda, que es una forma alternativa de medicina y curación. Visita Casa San Juan ubicada en Sacatepéquez.","Hoteles
                                    

                                                                                                                                 y
                                                                                                                            Yoga"
299,OM Yoga,Guatemala - Guatemala,6ta. Avenida 20-42 zona 10,tel:+(502) 2333-4310,https://directorio.guatemala.com/listing_reports.php?report=website&id=260,"Para OM Yoga, el yoga es el camino para evolucionar y dejar de sufrir. Vivimos en un mundo donde todo nos bloquea de la verdadera felicidad interna y al hacer yoga abrimos un espacio hacia nuevas posibilidades que nos da la vida.

Nuestro equipo está conformado por instructores y asistentes capacitados para asistirte y ayudarte en el camino que hoy inicias en OM. Cada profesor lleno de luz, está certificado en su estilo de yoga para servirte como un guía en tu práctica personal al entrar por las puertas de nuestro estudio.",Yoga
300,World Gym SanKris,Guatemala - Guatemala,"Blvd. San Cristóbal, 3a. Calle 6-72 Sector A-3",tel:+(502) 2424-4848,https://directorio.guatemala.com/listing_reports.php?report=website&id=1865,"Ubicado en el Centro Comercial más moderno, más seguro y en el mejor punto de San Cristóbal, World Gym SanKris cuenta con estacionamiento bajo techo, seguridad y con acceso directo al gimnasio sin necesidad de ingresar al comercial.

Además, posee una piscina semiolímpica de 4 carriles, climatizada y bajo techo con programas de natación tanto para niños como para adultos, un salón con el equipo más moderno para entrenamiento funcional metabólico, un salón de clases de cycling, salón para las diferentes clases de grupo como baile, kick-boxing, aeróbicos, etc., un salón especial para clases de Pilates Reformer y Mind & Body. Instructores capacitados y certificados en cada una de las disciplinas del fitness.","Pesas
                                    

                                                                                                                                ,
                                                                                                                            TRX
                                    

                                                                                                                                ,
                                                                                                                            Zumba
                                    

                                                                                                                                 y
                                                                                                                            Crossfit"
301,Scandinavia Gym El Frutal,Guatemala - Guatemala,Blvd. El Frutal 14-00 Zona 5,tel:+(502) 2277-9297,https://directorio.guatemala.com/listing_reports.php?report=website&id=2030,"Scandinavia Gym inicó en 1992 atentiendo a la necesidad de los guatemaltecos de un servicio de salud que formara mentes y cuerpos saludables a través de ejercicio constante y practicado de una manera correcta.

Hoy en día la cadena cuenta con 12 gimnasios incluyendo ubicaciones en las arterias principales de la ciudad de Guatemala y sus suburbios, y cuatro localidades en las ciudades principales del interior del país.

La misión de Scandinavia es lograr las metas de todos sus clientes brindando la mejor ubicación, tecnología de punta y asesoría.","Pesas
                                    

                                                                                                                                ,
                                                                                                                            TRX
                                    

                                                                                                                                 y
                                                                                                                            Zumba"
302,Active Mom,Guatemala - Guatemala,13 calle A 7-19 Centro Comercial Tiffany,tel:+(502) 2363-6424,,"Active Mom es un gimnasio diseñado para mujeres embarazadas, mamis que ya tuvieron sus bebés y mujeres que buscan sentirse motivadas y saludables.

Ofrecemos clases personalizadas, en un ambiente privado, diseñadas específicamente para las necesidades de las mujeres. Adaptamos nuestras clases al nivel y estado de cada mujer enfocándonos en su seguridad.",Yoga
303,Boom Kettlebell-Gym Zona 10,Guatemala - Guatemala,"Boulevard Los Próceres, Plaza Las Cañas, Sótano 1",tel:+(502) 2337-3613,https://directorio.guatemala.com/listing_reports.php?report=website&id=15122,"En Boom Kettlebell-Gym Zona 10 nuestro personal es altamente capacitado con certificados obtenidos en los EEUU. Contamos con herramientas nunca antes vistas en Guatemala para mejorar la condición física. 

Boom Kettlebell-Gym Zona 10 es la herramienta mas rústica, efectiva y exigente del planeta. Se enfoca en crear resistencia, moldeando y fortaleciendo casi todos los músculos del cuerpo. Incrementa flexibilidad, fuerza y tonifica los músculos.",Crossfit
304,ADS,Guatemala - Guatemala,Centro Comercial Galerías Primma Locales 203 y 204,tel:+(502) 2474-8628,,"En ADS encontrarás el lugar perfecto en donde el arte del movimiento se volverá tu adicción, todo en un lugar en donde te podrás moverte con toda libertad en nuestros diferentes bailes que enseñaremos en nuestra academia.",Academias de Baile
305,Zardoz Fitness,Guatemala - Guatemala,16 Calle final 41-85 Zona 5,tel:+(502) 2336-0091,https://directorio.guatemala.com/listing_reports.php?report=website&id=52216,"Zardoz Fitness es un centro de entrenamiento en el que puedes mejorar tu condición física, ponerte en forma o sacar tu estrés. Cuentan con área para pesas, cardio, yoga, ejercicios funcionales, y muchas más clases. Visítalos en Zona 5.",Pesas
306,Studio Fit,Guatemala - Guatemala, Km 32.2 San Lucas Sacatepéquez,tel:+(502) 4108-2156,,Studio Fit es un centro de ejercicios físicos que te ofrece clases guiadas con entrenadores certificados y profesionales.,Pesas
307,FUNFIT Studio,Guatemala - Guatemala,"15 Avenida ""B"" 12-16 Zona 11",tel:+(502) 4212-3730,,"Con Funfit Studio atrévete, descubre y experimenta una forma diferente de estar FIT por medio de Pole Dance/Fitness. ¡Con clases personalizadas y divertidas!","Pole Dance
                                    

                                                                                                                                 y
                                                                                                                            TRX"
308,FemmeFit Américas,Guatemala - Guatemala,Avenida Las Américas 14-28,tel:+(502) 2334-5315,https://directorio.guatemala.com/listing_reports.php?report=website&id=513,"FemmeFit es el nuevo standard en gimnasios para mujeres, ofreciendo el mix más completo y efectivo de rutinas de acondicionamiento físico. FemmeFit ofrece un ambiente con estilo y cómodo, pero a la vez retador y motivante. Desde su imagen, sus instalaciones, sus servicios, su personal y hasta el más mínimo detalle fueron inspirados en la mujer moderna, exitosa y activa.","Yoga
                                    

                                                                                                                                ,
                                                                                                                            Zumba
                                    

                                                                                                                                ,
                                                                                                                            Calisthenics
                                    

                                                                                                                                ,
                                                                                                                            Pilates
                                    

                                                                                                                                 y
                                                                                                                            TRX"
309,Gimnasio La Fábrica,Guatemala - Guatemala,1a. Avenida Norte #7,tel:+(502) 7832-9840,,"Gimnasio La Fábrica es una empresa dedicada al deporte en general, con amplias áreas con sección para crosstraining, escalada, levantamiento de pesas, cardio, spinning, box y cuenta con un juice bar para complementar nutrición y ejercicio.",Pesas
310,Scandinavia Gym Carr. a El Salvador,Guatemala - Guatemala,Km. 16.5 Carretera a El Salvador,tel:+(502) 6634-0633,https://directorio.guatemala.com/listing_reports.php?report=website&id=2028,"Scandinavia Gym inicó en 1992 atentiendo a la necesidad de los guatemaltecos de un servicio de salud que formara mentes y cuerpos saludables a través de ejercicio constante y practicado de una manera correcta.

Hoy en día la cadena cuenta con 12 gimnasios incluyendo ubicaciones en las arterias principales de la ciudad de Guatemala y sus suburbios, y cuatro localidades en las ciudades principales del interior del país.

La misión de Scandinavia es lograr las metas de todos sus clientes brindando la mejor ubicación, tecnología de punta y asesoría.","TRX
                                    

                                                                                                                                ,
                                                                                                                            Zumba
                                    

                                                                                                                                ,
                                                                                                                            Pesas
                                    

                                                                                                                                 y
                                                                                                                            Pilates"
311,Monkey Business Calisthenics,Guatemala - Guatemala,"15 Avenida y 4a. Calle 3-15, Zona 14",tel:+(502) 5917-0558,,"En Monkey Business Calisthenics verás forma segura y divertida de ejercitarse, en la cual se utiliza únicamente el peso corporal como resistencia en los entrenos. Los movimientos principales son pullups, push ups, dips, squats, handstands, jumps. Los cuales pueden evolucionar a movimientos más complejos como el muscle up, planche, human flag front y back lever, entre muchos otros.","Calisthenics
                                    

                                                                                                                                 y
                                                                                                                            TRX"
312,Curves San Cristóbal,Guatemala - Guatemala,"Blvd. San Cristóbal, 16-70 Zona 8",tel:+(502) 2480-8438,https://directorio.guatemala.com/listing_reports.php?report=website&id=1842,"Curves trabaja los principales grupos musculares con un entrenamiento completo de 30 minutos que combina ejercicio de fuerza y actividad cardiovascular sostenida a través de equipos de resistencia hidráulica. 

Curves también trabaja para ayudar a las mujeres a perder peso, obtener fuerza muscular y capacidad aeróbica y aumentar el metabolismo con su innovador y científicamente probado método que termina con la necesidad de dietas permanentes. 

Gary y Diane Heavin fundadores son considerados como innovadores del fenómeno que ha facilitado ejercitarse a más de 4 millones de mujeres en todo el mundo, muchas de las cuales están en el gimnasio por primera vez. Con 10.000 clubs en 89 países, Curves es la franquicia de fitness más grande del mundo.","TRX
                                    

                                                                                                                                ,
                                                                                                                            Zumba
                                    

                                                                                                                                 y
                                                                                                                            Pilates"
313,Micheo Boxing by Futeca Zona 14,Guatemala - Guatemala,10a Avenida 10-50 Zona 14 ,tel:+(502) 2366-8052,,"En Micheo Boxing by Futeca somos una academia de boxeo diferente, ya que brindamos un servicio personalizado y tenemos el aval de la Federación Nacional de Boxeo de Guatemala. Contamos con el equipo completo y las instalaciones adecuadas para ti.

Nuestro objetivo es crear una condición fisica. Que nuestros estudiantes aprendan a boxear. Mejorar  su estilo de vida, resistencia y fuerza. Eliminar estres y % de grasa",Boxeo
314,ADS Z15,Guatemala - Guatemala,1 Calle 18-53  Vista Hermosa 2,tel:+(502) 2369-0153,,"ADS Z15 encontrarás el lugar perfecto en donde el arte del movimiento se volverá tu adicción, todo en un lugar en donde te podrás moverte con toda libertad en nuestros diferentes bailes que enseñaremos en nuestra academia.",Academias de Baile
315,Futeca Sport Gym Miraflores,Guatemala - Guatemala,22 Avenida y 7a Calle Zona 11 Paseo Miraflores ,tel:+(502) 2366-8052,https://directorio.guatemala.com/listing_reports.php?report=website&id=52158,Futeca Sport Gym Miraflores cuenta con los mejores programas para que cumplas tus objetivos de manera efectiva y segura. Formamos parte de una cadena deportiva que incluye gimnasios y canchas deportivas. Visita tu sede Futeca más cercana.,Pesas
316,Vitam CrossFit,Guatemala - Guatemala,5a Avenida 12-56 Zona 14,tel:+(502) 2366-6810,https://directorio.guatemala.com/listing_reports.php?report=website&id=488,"El mejor y más completo método de acondicionamiento físico en donde usamos movimientos naturales y rutinas balanceadas de gymnastics, levantamiento de pesas y cardio.",Crossfit
317,Scandinavia Gym Vista Hermosa,Guatemala - Guatemala,"Blvd. Vista Hermosa, 21-95 Zona 15",tel:+(502) 2369-1018,https://directorio.guatemala.com/listing_reports.php?report=website&id=2033,"Scandinavia Gym inicó en 1992 atentiendo a la necesidad de los guatemaltecos de un servicio de salud que formara mentes y cuerpos saludables a través de ejercicio constante y practicado de una manera correcta.

Hoy en día la cadena cuenta con 12 gimnasios incluyendo ubicaciones en las arterias principales de la ciudad de Guatemala y sus suburbios, y cuatro localidades en las ciudades principales del interior del país.

La misión de Scandinavia es lograr las metas de todos sus clientes brindando la mejor ubicación, tecnología de punta y asesoría.","Pesas
                                    

                                                                                                                                ,
                                                                                                                            TRX
                                    

                                                                                                                                 y
                                                                                                                            Zumba"
318,Sporta Gym,Guatemala - Guatemala,Km 18.5 Carretera a El Salvador,tel:+(502) 6648-0100,https://directorio.guatemala.com/listing_reports.php?report=website&id=291,"En nuestro club no hay actitudes hostiles! Cada persona tiene metas diferentes cuando comienza pero todas desean obtener resultados. Ayudarles a que luzcan y se sientan en óptimas condiciones es nuestra misión y la razón de por qué le encantará estar con nosotros.

En Sporta Usted siempre tiene acceso a nuestros instructores y a las últimas técnicas de fitness y entrenamiento, todo en una localización muy conveniente.

¡Cada vez que venga a entrenar se sentirá muy bien al salir; sabiendo que luce y se siente de lo mejor!",Pesas
319,Ananda Yoga Estudio,Guatemala - Guatemala,Diagonal 6 13-63 Zona 10,tel:+(502) 3025-5117,https://directorio.guatemala.com/listing_reports.php?report=website&id=1374,"Ananda proviene del sanscrito ""felicidad suprema"" y representa una parte esencial de la vida y lo que busacmos para encontrar esa conexión interna.",Yoga
320,Scandinavia Gym San Cristóbal,Guatemala - Guatemala,"Blvd. San Cristóbal, 3a. Calle 17-92 Zona 8",tel:+(502) 2478-1566,https://directorio.guatemala.com/listing_reports.php?report=website&id=2032,"Scandinavia Gym inicó en 1992 atentiendo a la necesidad de los guatemaltecos de un servicio de salud que formara mentes y cuerpos saludables a través de ejercicio constante y practicado de una manera correcta.

Hoy en día la cadena cuenta con 12 gimnasios incluyendo ubicaciones en las arterias principales de la ciudad de Guatemala y sus suburbios, y cuatro localidades en las ciudades principales del interior del país.

La misión de Scandinavia es lograr las metas de todos sus clientes brindando la mejor ubicación, tecnología de punta y asesoría.","TRX
                                    

                                                                                                                                ,
                                                                                                                            Zumba
                                    

                                                                                                                                ,
                                                                                                                            Pesas
                                    

                                                                                                                                 y
                                                                                                                            Pilates"
321,Core Yoga,Guatemala - Guatemala,1ra Avenida 11-50 zona 10,tel:+(502) 5966-5906,https://directorio.guatemala.com/listing_reports.php?report=website&id=52188,Core Yoga es una plataforma de encuentro y exploración a través de la conexión entre el cuerpo y mente.  Practicamos diferentes estilos del yoga pero nos concentramos en el área sensorial para expandir el Kundalini y usar la energía conscientemente.,Yoga
322,Academia de Baile Español Mary Farrington,Guatemala - Guatemala,19 Calle 12-34,#ubicacion,,Academia de Baile Español Mary Farrington te invita a visitar nuestra pagina en facebook para enterarte de sus actividades.,Academias de Baile
323,Scandinavia Gym Aguilar Batres,Guatemala - Guatemala,"Calz. Aguilar Batres, 25-07 Zona 12",tel:+(502) 2459-2586,https://directorio.guatemala.com/listing_reports.php?report=website&id=2027,"Scandinavia Gym inicó en 1992 atentiendo a la necesidad de los guatemaltecos de un servicio de salud que formara mentes y cuerpos saludables a través de ejercicio constante y practicado de una manera correcta.

Hoy en día la cadena cuenta con 12 gimnasios incluyendo ubicaciones en las arterias principales de la ciudad de Guatemala y sus suburbios, y cuatro localidades en las ciudades principales del interior del país.

La misión de Scandinavia es lograr las metas de todos sus clientes brindando la mejor ubicación, tecnología de punta y asesoría.","Pesas
                                    

                                                                                                                                ,
                                                                                                                            TRX
                                    

                                                                                                                                 y
                                                                                                                            Zumba"
324,Futeca Sport Gym San Cristóbal,Guatemala - Guatemala,Bulevar Principal 19-65 Sector B 1 Zona 8 Mixco ,tel:+(502) 2366-8052,https://directorio.guatemala.com/listing_reports.php?report=website&id=52159,Futeca Sport Gym San Cristóbal cuenta con los mejores programas para que cumplas tus objetivos de manera efectiva y segura. Formamos parte de una cadena deportiva que incluye gimnasios y canchas deportivas. Visita tu sede Futeca más cercana.,Pesas
325,Scandinavia Gym Zona 5,Guatemala - Guatemala,39 Calle 21-07 Zona 5,tel:+(502) 2335-7683,https://directorio.guatemala.com/listing_reports.php?report=website&id=2034,"Scandinavia Gym inicó en 1992 atentiendo a la necesidad de los guatemaltecos de un servicio de salud que formara mentes y cuerpos saludables a través de ejercicio constante y practicado de una manera correcta.

Hoy en día la cadena cuenta con 12 gimnasios incluyendo ubicaciones en las arterias principales de la ciudad de Guatemala y sus suburbios, y cuatro localidades en las ciudades principales del interior del país.

La misión de Scandinavia es lograr las metas de todos sus clientes brindando la mejor ubicación, tecnología de punta y asesoría.","TRX
                                    

                                                                                                                                ,
                                                                                                                            Zumba
                                    

                                                                                                                                ,
                                                                                                                            Pesas
                                    

                                                                                                                                 y
                                                                                                                            Pilates"
326,Curves Miraflores,Guatemala - Guatemala,Calzada Roosevelt 21 Avenida Zona 11,tel:+(502) 2269-7369,https://directorio.guatemala.com/listing_reports.php?report=website&id=531,"Curves trabaja los principales grupos musculares con un entrenamiento completo de 30 minutos que combina ejercicio de fuerza y actividad cardiovascular sostenida a través de equipos de resistencia hidráulica. 

Curves también trabaja para ayudar a las mujeres a perder peso, obtener fuerza muscular y capacidad aeróbica y aumentar el metabolismo con su innovador y científicamente probado método que termina con la necesidad de dietas permanentes. 

Gary y Diane Heavin fundadores son considerados como innovadores del fenómeno que ha facilitado ejercitarse a más de 4 millones de mujeres en todo el mundo, muchas de las cuales están en el gimnasio por primera vez. Con 10.000 clubs en 89 países, Curves es la franquicia de fitness más grande del mundo.","Pilates
                                    

                                                                                                                                ,
                                                                                                                            Yoga
                                    

                                                                                                                                 y
                                                                                                                            Zumba"
327,Bilanz,Guatemala - Guatemala,18 Calle 20-70 Zona 10,tel:+(502) 2363-6392,,"Bilanz Pilates pretende que las personas que se ejercitan con nosotros adquieran un estilo de vida saludable.

Una buena salud física y mental es necesaria para vivir bien, de esta forma se mejora en las actividades de la vida diaria, se siente felicidad y se transmite positivismo.","Pilates
                                    

                                                                                                                                 y
                                                                                                                            TRX"
328,Boom Kettlebell-Gym Majadas,Guatemala - Guatemala,"Plazas Outlet, Majadas",tel:+(502) 2473-7794,https://directorio.guatemala.com/listing_reports.php?report=website&id=15124,"En Boom Kettlebell-Gym Majadas nuestro personal es altamente capacitado con certificados obtenidos en los EEUU. Contamos con herramientas nunca antes vistas en Guatemala para mejorar la condición física. 

Boom Kettlebell-Gym Majadas es la herramienta mas rústica, efectiva y exigente del planeta. Se enfoca en crear resistencia, moldeando y fortaleciendo casi todos los músculos del cuerpo. Incrementa flexibilidad, fuerza y tonifica los músculos.",Crossfit
329,Schumann's Majadas,Guatemala - Guatemala,"27 Avenida 6-40, Parque Comercial Las Majadas, ",tel:+(502) 3231-6693,,"En nuestro gimnasio Schumann's Majadas enseñamos Artes Marciales Mixtas (MMA) basados en el ""Galvan Combat System"" con la franquicia internacional ""Bonebreakers"" que ha desarrollado exitosamente un sistema de artes marciales mixtas efectivo, basado principalmente en muay thai, jiujitsu, boxeo y catch wrestling.

El sistema que enseñamos además de poner énfasis en la efectividad combativa, mantiene muy claro su papel como instrumento de desarrollo integral, planteando una serie de valores como: decisión, honor, valor, control, carácter, sinceridad y balance, que son las 7 normas para la vida.",Artes Marciales
330,CrossFit D6,Guatemala - Guatemala,10a. Avenida 10-50 Zona 14,tel:+(502) 3097-3463,https://directorio.guatemala.com/listing_reports.php?report=website&id=1077,"Todos los entrenadores tienen certificación de CrossFit Level-1 Trainer por lo que cualquier persona puede tener la confianza que está siendo atendido por alguien capacitado.

Nos caracterizamos por ofrecer una atención profesional y personalizada y damos nuestro máximo esfuerzo por realizar entrenos divertidos, variados y efectivos. Estamos seguros que desde el primer entreno la persona sentirá los cambios de nuestra metodología a la de un gimnasio tradicional.",Crossfit
331,ZUMBA Fitness MDA,Guatemala - Guatemala,"14 Calle ""B"" 13-05 Zona 10",tel:+(502) 5333-3370,https://directorio.guatemala.com/listing_reports.php?report=website&id=780,,Zumba
332,Boom Kettlebell-Gym Carretera a El Salvador,Guatemala - Guatemala,Kilómetro 14.1 Carretera a El Salvador Centro ,tel:+(502) 2339-5844,https://directorio.guatemala.com/listing_reports.php?report=website&id=15126,"En Boom Kettlebell-Gym Carretera a El Salvador nuestro personal está altamente capacitado con certificados obtenidos en los EEUU. Contamos con herramientas nunca antes vistas en Guatemala para mejorar la condición física. 

Boom Kettlebell-Gym Carretera a El Salvador es la herramienta mas rústica, efectiva y exigente del planeta. Se enfoca en crear resistencia, moldeando y fortaleciendo casi todos los músculos del cuerpo. Incrementa flexibilidad, fuerza y tonifica los músculos.",Crossfit
333,World Gym Cayalá,Guatemala - Guatemala,"Blvd. Austriaco, Diagonal 35, 16-25 Zona 16",tel:+(502) 2491-4333,https://directorio.guatemala.com/listing_reports.php?report=website&id=1863,"World Gym Cayalá, tiene una extensión  de más de 2 mil metros cuadrados, cuenta con salónes de usos múltiples para las distintas prácticas como: Cycling, FIT (Funcional Intensive Training), Mind & Body, stretching, Pilates Reformer, etc. 

Además, cuenta con las más recientes máquinas cardiovasculares del mercado, área de peso libre y peso selectorizado y una piscina semi-olímpica bajo techo, climatizada y tratada a base de sal.",Pesas
