,names,address,phone,web,description,category,city,link,long,lat,principal
0,180 Grados Fitness,Km. 22.5 Carretera a El Salvador,tel:+(502) 6662-5087,https://directorio.guatemala.com/listing_reports.php?report=website&id=2228,"180 Grados Fitness tiene como objetivo fundamental dirigir un entrenamiento funcional que genere un mejor rendimiento físico, mayor coordinación, agilidad y también un mayor gasto de calorías por minuto. 

El entrenamiento funcional es el nuevo secreto del fitness, se ha convertido en la base de cualquier entrenamiento y tiene como objetivo el entrenamiento del movimiento del cuerpo en todos sus ejes y en sus rangos de movimiento natural.","Crossfit, TRX",Guatemala - Guatemala,"https://www.google.com.ar/maps/place/180+grados+Fitness/@14.5014303,-90.4886139,15z/data=!3m1!4b1!4m5!3m4!1s0x8589a50cff69f85f:0x8f386687179f1095!8m2!3d14.5014305!4d-90.4798591",-90.4886139,14.5014303,"{'type': 'Point', 'coordinates': ['-90.4886139', '14.5014303']}"
1,Academia BellyDance Rashida,"Plaza Las Cañas, Local 201, zona 10, Ciudad de Guatemala Ver mapa.",2337-0980,https://es-la.facebook.com/Rashidaacademy/,"Esta academia de baile es ideal para las personas que desean aprender todo sobre el belly dance. Ubicada en la zona 10, la Academia BellyDance Rashida cuenta con profesionales artísticos que te mostrarán distintas técnicas en clases personalizadas. Además, ofrecen clases de baile latino, tango, hip hop, yoga, company y mucho más.",Baile,Guatemala - Guatemala,"https://www.google.com.ar/maps/place/Academia+Rashida+Bellydance/@14.5813049,-90.5052988,15z/data=!3m1!4b1!4m5!3m4!1s0x8589a348c7507c29:0x1e5cdbef98f518ad!8m2!3d14.5813051!4d-90.496544",-90.5052988,14.5813049,"{'type': 'Point', 'coordinates': ['-90.5052988', '14.5813049']}"
2,Academia Dance Art,"Bulevar Vista Hermosa 25-80, zona 15 Vista Hermosa 2, edificio María del Alma local 9A, Ciudad de Guatemala Ver mapa.",3093-8434,https://es-la.facebook.com/Danceartguatemala/,"La Academia Dance Art ofrece profesionales expertos en enseñarte la técnica correcta, apasionados en múltiples géneros de baile; amplio trayecto en la salsa y bachata. Lo mejor es que su academia es reconocida gracias a los múltiples premios que han alcanzado en concursos nacionales e internacionales.",Baile,Guatemala - Guatemala,"https://www.google.com.ar/maps/place/edificio+maria+del+alma/@14.5809978,-90.4936543,15z/data=!3m1!4b1!4m5!3m4!1s0x8589a3742bcb3aeb:0x78da9ec1cb86ed87!8m2!3d14.580998!4d-90.4848995",-90.4936543,14.5809978,"{'type': 'Point', 'coordinates': ['-90.4936543', '14.5809978']}"
3,Academia Dance Vision,3 Cl 7-89 Zona 8 Mixco,(+502) 5851 1116,,,ballet,Guatemala - Guatemala,"https://www.google.com.ar/maps/place/3+calle,+Guatemala/@14.6288768,-90.5765311,18.45z/data=!4m5!3m4!1s0x8589a046833cb879:0x102846327c64d37a!8m2!3d14.6290685!4d-90.5757224",-90.5765311,14.6288768,"{'type': 'Point', 'coordinates': ['-90.5765311', '14.6288768']}"
4,Academia de Baile Español Mary Farrington,19 Calle 12-34,#ubicacion,,Academia de Baile Español Mary Farrington te invita a visitar nuestra pagina en facebook para enterarte de sus actividades.,Academias de Baile,Guatemala - Guatemala,"https://www.google.com/maps/place/19+Calle+1234,+Cdad.+de+Guatemala,+Guatemala/@14.5894785,-90.5092288,17.53z/data=!4m5!3m4!1s0x8589a3c06ce4edfd:0xa02f571528be739!8m2!3d14.5898724!4d-90.5076447",-90.5092288,14.5894785,"{'type': 'Point', 'coordinates': ['-90.5092288', '14.5894785']}"
5,Academia de Ballet DanzArte,"Avenida Elena 3-31 zona 1, Ciudad de Guatemala Ver mapa.",4662-6874,https://es-la.facebook.com/Danzarte.ballet/,"La Academia de Ballet DanzArte cuenta con tres diferentes sucursales ubicadas en la Ciudad de Guatemala. Sin duda alguna, este es un buen destino para recibir clases de ballet para niñas desde 1.5 años, hasta adultos. Cuentan con clausuras y presentaciones en público, con hermosas coreografías y vestuarios llenos de detalles.",Baile,Guatemala - Guatemala,"https://www.google.com/maps/place/Avenida+Elena+331,+Cdad.+de+Guatemala+01001,+Guatemala/@14.646037,-90.5218574,17.82z/data=!4m5!3m4!1s0x8589a21b535ce475:0xe9dc6639c5585744!8m2!3d14.646465!4d-90.5207303",-90.5218574,14.646037,"{'type': 'Point', 'coordinates': ['-90.5218574', '14.646037']}"
6,Academia Scenic Dance,3 Avenida 14-19 Zona 14,(+502) 5204 7081,http://www.scenicdance.com,,ballet,Guatemala - Guatemala,"https://www.google.com/maps/place/Scenic+Dance+Guatemala/@14.581688,-90.5291758,15z/data=!3m1!4b1!4m5!3m4!1s0x8589a39cdd37aaa5:0x7b1b1427d1971cf5!8m2!3d14.5816882!4d-90.520421",-90.5291758,14.581688,"{'type': 'Point', 'coordinates': ['-90.5291758', '14.581688']}"
7,Active Mom,13 calle A 7-19 Centro Comercial Tiffany,tel:+(502) 2363-6424,,"Active Mom es un gimnasio diseñado para mujeres embarazadas, mamis que ya tuvieron sus bebés y mujeres que buscan sentirse motivadas y saludables.

Ofrecemos clases personalizadas, en un ambiente privado, diseñadas específicamente para las necesidades de las mujeres. Adaptamos nuestras clases al nivel y estado de cada mujer enfocándonos en su seguridad.",Yoga,Guatemala - Guatemala,"https://www.google.com/maps/place/Centro+Comercial+Tiffany,+14+Calle+A,+Cdad.+de+Guatemala,+Guatemala/@14.597526,-90.510677,17.87z/data=!4m5!3m4!1s0x8589a3c64510897b:0x9a9ccef3a3e0f2af!8m2!3d14.5978436!4d-90.5097611",-90.510677,14.597526,"{'type': 'Point', 'coordinates': ['-90.510677', '14.597526']}"
8,Active Zone,Boulevard Hospital Militar Centro Comercial,tel:+(502) 2255-8054,https://directorio.guatemala.com/listing_reports.php?report=website&id=10050,"Active Zone es el resultado de un proyecto familiar que busca prestar un servicio personalizado e individual. Se inician los ejercicios por muchas razones: salud, bienestar, prescripción médica, peso, para afirmar y tonificar. 

Con un equipo adecuado de instructores certificados y calificados, utilizando las rutinas más modernas y efectivas, un ambiente agradable acogedor y una  supervisión personalizada, acompañados por dos nutricionistas que ven mensualmente a cada alumno, no hay duda que todo eso que esperamos lograr con el ejercicio lo tendremos en ACTIVE ZONE.","Pilates, Pole Dance, TRX",Guatemala - Guatemala,"https://www.google.com/maps/place/Active+Zone+Guatemala/@14.6254494,-90.4800162,15z/data=!3m1!4b1!4m5!3m4!1s0x8589a2e859c3deff:0xef3f1504a3f360e6!8m2!3d14.6254496!4d-90.4712614",-90.4800162,14.6254494,"{'type': 'Point', 'coordinates': ['-90.4800162', '14.6254494']}"
9,Addiction Dance Studio,"Galerías Primma Locales 203 y 204, Ciudad de Guatemala Ver mapa.",5466-3773,https://es-la.facebook.com/adsgt/,¿Con ganas de bailar? Addiction Dance Studio es un espacio ideal para aprender distintos tipos de baile con clases personalizadas. Ofrecen desde clases de jazz hasta bachata y latin dance de parejas. Lo mejor es que te enseñarán desde los pasos más básicos hasta capacitaciones para concursos de baile en pareja y grupales.,Baile,Guatemala - Guatemala,"https://www.google.com/maps/place/Addiction+Dance+Studio+-+Galer%C3%ADas+Primma/@14.6241208,-90.5606934,15z/data=!3m1!4b1!4m5!3m4!1s0x8589a1bad91d0f07:0x684a2c548b08453d!8m2!3d14.624121!4d-90.5519386",-90.5606934,14.6241208,"{'type': 'Point', 'coordinates': ['-90.5606934', '14.6241208']}"
10,Adorarte,"4a. calle 23-40, Kaminal Juyu 1",tel:+(502) 2474-0562,,"Adorarte es una Academia Cristiana de Baile nuestra visión es ser un canal de Dios para preparar adoradores en espíritu y verdad que sean formados y levantados como líderes y ministros de Dios avivando sus dones y talentos. Equipando sus tres áreas: espíritu, alma y cuerpo, alcanzando así una relación personal y genuina con El amado y cumplir con excelencia la edificación del cuerpo de Cristo y la gran comisión.",Academias de Baile,Guatemala - Guatemala,"https://www.google.com/maps/place/4A+Calle+23-80,+Cdad.+de+Guatemala,+Guatemala/@14.6270527,-90.560624,15z/data=!3m1!4b1!4m5!3m4!1s0x8589a1ba4cebcf21:0x1099948b51bcb2e5!8m2!3d14.6270529!4d-90.5518692",-90.560624,14.6270527,"{'type': 'Point', 'coordinates': ['-90.560624', '14.6270527']}"
11,ADS Z15,1 Calle 18-53  Vista Hermosa 2,tel:+(502) 2369-0153,,"ADS Z15 encontrarás el lugar perfecto en donde el arte del movimiento se volverá tu adicción, todo en un lugar en donde te podrás moverte con toda libertad en nuestros diferentes bailes que enseñaremos en nuestra academia.",Academias de Baile,Guatemala - Guatemala,"https://www.google.com/maps/place/1+Calle+18-53,+Cdad.+de+Guatemala,+Guatemala/@14.592571,-90.5032818,15z/data=!3m1!4b1!4m5!3m4!1s0x8589a3a3a2c5d933:0x24b1a8a8625faa83!8m2!3d14.5925712!4d-90.494527",-90.5032818,14.592571,"{'type': 'Point', 'coordinates': ['-90.5032818', '14.592571']}"
12,Akasha Yoga Centro Holístico,8a. Calle 28-00 Zona 11,tel:+(502) 2473-7844,https://directorio.guatemala.com/listing_reports.php?report=website&id=415,"Akasha Yoga Centro Holístico, abre las puertas para ser un lugar donde se encuentran diferentes métodos para tener una vida integral, uniendo el bienestar emocional, espiritual, físico y mental.

Akasha, es el simbolismo del elemento éter o espacio, es una palabra escrita en sánscrito cuya raíz quiere decir brillar y a veces se aplica al cielo.","Yoga, TRX",Guatemala - Guatemala,"https://www.google.com/maps/place/Akasha+Yoga/@14.622321,-90.5713976,15z/data=!3m1!4b1!4m5!3m4!1s0x8589a1ad6e17ae2f:0xcb4791ed98b0f951!8m2!3d14.6223212!4d-90.5626428",-90.5713976,14.622321,"{'type': 'Point', 'coordinates': ['-90.5713976', '14.622321']}"
13,Alive Smart Fitness,Dg 6 12-42 Zona 10 Design Center L 211,(+502) 2206 8000,https://directorio.guatemala.com/listing_reports.php?report=website&id=292,"Brindamos una atmósfera amigable, espacios cómodos, seguros y servicio fantástico para practicar ejercicio inspirador. Sportfit, Alivefit, Yoga y HIIT one on one, son nuestros programas de ejercicio diseñados para motivar hasta aquellos que el ejercicio nunca ha sido su fuerte.

Adicionalmente a las áreas de entrenamiento, contamos un un restaurante de comida ligera y saludable el ""KIWI Lounge"" y vestidores limpios y elegantes que harán que disfrutes cada visita a Alive al máximo.","Pilates, TRX, Yoga, Pesas",Guatemala - Guatemala,"https://www.google.com/maps/place/Alive+Gimnasio+Boutique/@14.5986908,-90.5175638,15z/data=!3m1!4b1!4m5!3m4!1s0x8589a3c6323168c9:0x8804bba56313c766!8m2!3d14.598691!4d-90.508809",-90.5175638,14.5986908,"{'type': 'Point', 'coordinates': ['-90.5175638', '14.5986908']}"
14,All Gym,6 C. C 4-12 Z 9 2 Niv. Los Cerezos I,(+502) 4326 4790,,,deportes,Quetzaltenango - Quetzaltenango,"https://www.google.com/maps/place/CEREZOS+I/@14.8483462,-91.5530997,15z/data=!3m1!4b1!4m5!3m4!1s0x858e98239a83bbb5:0x630d500f8c5221b5!8m2!3d14.8483464!4d-91.5443449",-91.5530997,14.8483462,"{'type': 'Point', 'coordinates': ['-91.5530997', '14.8483462']}"
15,AMSI CrossFit,"8a. avenida, 9-28, San Cristóbal, Zona 8 de Mixco",2480 1592,https://www.facebook.com/brauathletics/,crossfit,crossfit,Guatemala - Guatemala,"https://www.google.com/maps/place/AMSI+Crossfit/@14.600928,-90.603891,15z/data=!3m1!4b1!4m5!3m4!1s0x8589a084c3a25949:0x35ba1a42ad3f5e35!8m2!3d14.6009282!4d-90.5951362",-90.603891,14.600928,"{'type': 'Point', 'coordinates': ['-90.603891', '14.600928']}"
16,Ananda Yoga Estudio,Diagonal 6 13-63 Zona 10,tel:+(502) 3025-5117,https://directorio.guatemala.com/listing_reports.php?report=website&id=1374,"Ananda proviene del sanscrito ""felicidad suprema"" y representa una parte esencial de la vida y lo que busacmos para encontrar esa conexión interna.",Yoga,Guatemala - Guatemala,"https://www.google.com/maps/place/Ananda+Yoga+Estudio+Guatemala/@14.6054073,-90.5194629,15z/data=!4m8!1m2!2m1!1sAnanda+Yoga+Estudio!3m4!1s0x0:0x29cb0992fdc42d67!8m2!3d14.5971331!4d-90.5070394",-90.5194629,14.6054073,"{'type': 'Point', 'coordinates': ['-90.5194629', '14.6054073']}"
17,Ananda Yoga Estudio,Diagonal 6 13-63 Zona 10,tel:+(502) 3025-5117,https://directorio.guatemala.com/listing_reports.php?report=website&id=1374,"Ananda proviene del sanscrito ""felicidad suprema"" y representa una parte esencial de la vida y lo que busacmos para encontrar esa conexión interna.",Yoga,Guatemala - Guatemala,"https://www.google.com/maps/place/Ananda+Yoga+Studio/@14.6054073,-90.5194629,15z/data=!4m8!1m2!2m1!1sAnanda+Yoga+Estudio!3m4!1s0x0:0x44ff42174b777ca8!8m2!3d14.6136822!4d-90.5143753",-90.5194629,14.6054073,"{'type': 'Point', 'coordinates': ['-90.5194629', '14.6054073']}"
18,Aquatic Center,Km 15.5 Carretera A El Salvador Lote 1L Puerta Parada,(+502) 5217 8526,,,deportes,Guatemala - Guatemala,"https://www.google.com/maps/search/Km+15.5+Carretera+A+El+Salvador+Lote+1L+Puerta+Parada/@14.5558898,-90.4562319,17.34z",-90.4562319,14.5558898,"{'type': 'Point', 'coordinates': ['-90.4562319', '14.5558898']}"
19,Aquatic Center,Mixco,,,,,,"https://www.google.com/maps/place/Aquatic+Center+Mixco/@14.6159291,-90.6854083,11z/data=!4m8!1m2!2m1!1sAquatic+Center!3m4!1s0x0:0x9e44c3132ace603c!8m2!3d14.6184681!4d-90.6116295",-90.6854083,14.6159291,"{'type': 'Point', 'coordinates': ['-90.6854083', '14.6159291']}"
20,Aquatic Center,"12 Avenida A 0-64, Cdad. de Guatemala 01007, Guatemala",,,,,,"https://www.google.com/maps/place/Aquatic+Center/@14.6159802,-90.6111838,12.09z/data=!4m8!1m2!2m1!1sAquatic+Center!3m4!1s0x8589a1a34903474b:0x65f5ac05ecbe0586!8m2!3d14.622638!4d-90.548419",-90.6111838,14.6159802,"{'type': 'Point', 'coordinates': ['-90.6111838', '14.6159802']}"
21,Aquatic Center,Villanueva,,,,,,"https://www.google.com/maps/place/Aquatic+Center/@14.6159291,-90.6854083,11z/data=!4m8!1m2!2m1!1sAquatic+Center!3m4!1s0x0:0x396e4c0c23cca9da!8m2!3d14.5427946!4d-90.6010723",-90.6854083,14.6159291,"{'type': 'Point', 'coordinates': ['-90.6854083', '14.6159291']}"
22,Armonia Colonial,Boulevard Principal 23 Calle 18-96 Col. Villa Hermosa I Loc. 8 Z 7 Sn Mig P,(+502) 2448 2553,,,Gimnasios de Educación Física,Guatemala - Guatemala,"https://www.google.com/maps/place/armoniacolonial+com/@14.6276431,-90.5317727,15z/data=!3m1!4b1!4m5!3m4!1s0x8589a226dd903e1b:0x48e43619c558d3b2!8m2!3d14.6276433!4d-90.5230179",-90.5317727,14.6276431,"{'type': 'Point', 'coordinates': ['-90.5317727', '14.6276431']}"
23,Asha Shala,5a. Avenida 20-42 Zona 14,tel:+(502) 2367-2698,https://directorio.guatemala.com/listing_reports.php?report=website&id=757,"Aquí puedes encontrar la herramienta que necesitas para una sanación física, psicológica y espiritual. 

Ofrecemos Yoga, Qi Cong, Shiatsu, Medicina China, Acupuntra, Network Spinal Analysis, Baras, Reiki, Consulta de Numerología, Cartas Astrales, Café y Tienda de Yoga.",Yoga,Guatemala - Guatemala,"https://www.google.com/maps/place/Dharma+Healing+Clinic/@14.5726183,-90.5256627,16.36z/data=!4m5!3m4!1s0x8589a3fcf137b70b:0x59902e793217821a!8m2!3d14.5740878!4d-90.5226123",-90.5256627,14.5726183,"{'type': 'Point', 'coordinates': ['-90.5256627', '14.5726183']}"
24,Asociación De Pentatlon Moderno,3A Cl 16-15 Zona 15,(+502) 2369 4468,,,federaciones deportivas,Guatemala - Guatemala,"https://www.google.com/maps/place/Pentatlon+Moderno+Guatemala/@14.6099564,-90.5009944,16z/data=!4m8!1m2!2m1!1sAsociaci%C3%B3n+De+Pentatlon+Moderno!3m4!1s0x8589a3b02c7dc707:0x997b2d6e17b9d61e!8m2!3d14.6026877!4d-90.4977536",-90.5009944,14.6099564,"{'type': 'Point', 'coordinates': ['-90.5009944', '14.6099564']}"
25,Asociacion Nacional De Vuelo Libre De Guatemala,10 Calle 2-28 Z 9 Casa de la Cultura,(+502) 2385 1221,www.vuelolibre.com.gt,"Promover la práctica del vuelo libre como herramienta de desarrollo de la cultura física en los ciudadanos guatemaltecos y mejorando su calidad de vida.
La Asociación Deportiva Nacional de Vuelo Libre,  se enorgullece de representar dignamente a nuestro país Guatemala,  integrando y alentando a las personas a participar abiertamente en el Deporte de Ala Delta y/o Parapente.",aviacion,Guatemala - Guatemala,"https://www.google.com/maps/place/Asociaci%C3%B3n+Nacional+de+Vuelo+Libre+de+Guatemala/@14.5921646,-90.5394186,15z/data=!3m1!4b1!4m5!3m4!1s0x8589a14ecbf85c61:0x50954a57a909b258!8m2!3d14.5921648!4d-90.5306638",-90.5394186,14.5921646,"{'type': 'Point', 'coordinates': ['-90.5394186', '14.5921646']}"
26,Balance Concept Zona 13,Avenida Las Americas 19-30 Zona 13,(+502) 5809 1997,,,deportes,Guatemala - Guatemala,"https://www.google.com/maps/place/Avenida+Las+Americas+1930,+Cdad.+de+Guatemala,+Guatemala/@14.5770165,-90.5322891,15z/data=!3m1!4b1!4m5!3m4!1s0x8589a3e2d665729b:0xc88f57d824a7109!8m2!3d14.5770167!4d-90.5235343",-90.5322891,14.5770165,"{'type': 'Point', 'coordinates': ['-90.5322891', '14.5770165']}"
27,Ballet Nacional De Guatemala,5 Cl 03-43 Z 1,(+502) 2253 3118,http://balletnacionaldeguatemala.blogspot.com,,ballet,Guatemala - Guatemala,"https://www.google.com/maps/place/Ballet+Nacional+de+Guatemala/@14.6438192,-90.5247982,15z/data=!3m1!4b1!4m5!3m4!1s0x8589a2107e7fd0d9:0xddd986095ce4588a!8m2!3d14.6438194!4d-90.5160434",-90.5247982,14.6438192,"{'type': 'Point', 'coordinates': ['-90.5247982', '14.6438192']}"
28,Big Mountain (Miraflores),5 Av B 3-15 Zona 9,(+502) 2470 8393,,,deportes,Guatemala - Guatemala,"https://www.google.com/maps/place/Big+Mountain/@14.6119208,-90.5278258,15z/data=!3m1!4b1!4m5!3m4!1s0x8589a342e6e26713:0x26fccec478daa6d3!8m2!3d14.611921!4d-90.519071",-90.5278258,14.6119208,"{'type': 'Point', 'coordinates': ['-90.5278258', '14.6119208']}"
29,Bilanz,18 Calle 20-70 Zona 10,tel:+(502) 2363-6392,,"Bilanz Pilates pretende que las personas que se ejercitan con nosotros adquieran un estilo de vida saludable.

Una buena salud física y mental es necesaria para vivir bien, de esta forma se mejora en las actividades de la vida diaria, se siente felicidad y se transmite positivismo.",Pilates TRX,Guatemala - Guatemala,"https://www.google.com/maps/place/Bilanz+Pilates/@14.58954,-90.5163053,15z/data=!3m1!4b1!4m5!3m4!1s0x8589a3d13d3f451f:0x1a1a5f7641676ce4!8m2!3d14.5895402!4d-90.5075505",-90.5163053,14.58954,"{'type': 'Point', 'coordinates': ['-90.5163053', '14.58954']}"
30,Billar Club,12 Calle 1-25 Zona 10; Local 3,(+502) 2366 1712,,,deportes,Guatemala - Guatemala,"https://www.google.com/maps/place/Billar+Club+Punto+5/@14.6009844,-90.5234301,15z/data=!3m1!4b1!4m5!3m4!1s0x8589a38c615b10cd:0xaba3b66d3cb51ff8!8m2!3d14.6009846!4d-90.5146753",-90.5234301,14.6009844,"{'type': 'Point', 'coordinates': ['-90.5234301', '14.6009844']}"
31,Boom Gym,"15 Avenida 6-01, Century Plaza Nivel 4 Local 403",tel:+(502) 2362-0708,https://directorio.guatemala.com/listing_reports.php?report=website&id=15128,"En Boom Gym nuestro personal está altamente capacitado con certificados obtenidos en los EEUU. Contamos con herramientas nunca antes vistas en Guatemala para mejorar la condición física. 

Boom Gym es la herramienta mas rústica, efectiva y exigente del planeta. Se enfoca en crear resistencia, moldeando y fortaleciendo casi todos los músculos del cuerpo. Incrementa flexibilidad, fuerza y tonifica los músculos.",Crossfit,Guatemala - Guatemala,"https://www.google.com/maps/place/Centro+Comercial+Century+Plaza/@14.5847303,-90.5282579,15z/data=!4m5!3m4!1s0x8589a3ddd91eeb05:0x806062e8ba47e6e1!8m2!3d14.5901204!4d-90.5209146",-90.5282579,14.5847303,"{'type': 'Point', 'coordinates': ['-90.5282579', '14.5847303']}"
32,Boom Kettlebell Plaza Varietá,Blvd. Landívar Zona 16,tel:+(502) 2333-9772,https://directorio.guatemala.com/listing_reports.php?report=website&id=289,"Nuestro personal es altamente capacitado con certificados obtenidos en los EEUU. Contamos con herramientas nunca antes vistas en Guatemala para mejorar la condición física. 

Boom Kettlebell incrementa la flexibilidad, fuerza y tonifica los músculos. Fortalece las articulaciones convirtiéndolo en una excelente herramienta para cualquier deporte o terapia de recuperación de lesiones, además de ser excelente para tratar y corregir la espalda y postura en general.","TRX, Calisthenia",Guatemala - Guatemala,"https://www.google.com/maps/place/Banco+Industrial/@14.6092788,-90.4992235,15z/data=!3m1!4b1!4m5!3m4!1s0x8589a3ab004eb84b:0xfabc57beac09d9bc!8m2!3d14.609279!4d-90.4904687",-90.4992235,14.6092788,"{'type': 'Point', 'coordinates': ['-90.4992235', '14.6092788']}"
33,Boom Kettlebell-Gym Carretera a El Salvador,Kilómetro 14.1 Carretera a El Salvador Centro,tel:+(502) 2339-5844,https://directorio.guatemala.com/listing_reports.php?report=website&id=15126,"En Boom Kettlebell-Gym Carretera a El Salvador nuestro personal está altamente capacitado con certificados obtenidos en los EEUU. Contamos con herramientas nunca antes vistas en Guatemala para mejorar la condición física. 

Boom Kettlebell-Gym Carretera a El Salvador es la herramienta mas rústica, efectiva y exigente del planeta. Se enfoca en crear resistencia, moldeando y fortaleciendo casi todos los músculos del cuerpo. Incrementa flexibilidad, fuerza y tonifica los músculos.",Crossfit,Guatemala - Guatemala,"https://www.google.com/maps/place/Boom+Kettlebell-Gym/@14.5832395,-90.5088124,14z/data=!4m8!1m2!2m1!1sBoom+Kettlebell-Gym+Carretera+a+El+Salvador!3m4!1s0x0:0xf97f9484a95fdc27!8m2!3d14.5850734!4d-90.4861128",-90.5088124,14.5832395,"{'type': 'Point', 'coordinates': ['-90.5088124', '14.5832395']}"
34,Boom Kettlebell-Gym Majadas,"Plazas Outlet, Majadas",tel:+(502) 2473-7794,https://directorio.guatemala.com/listing_reports.php?report=website&id=15124,"En Boom Kettlebell-Gym Majadas nuestro personal es altamente capacitado con certificados obtenidos en los EEUU. Contamos con herramientas nunca antes vistas en Guatemala para mejorar la condición física. 

Boom Kettlebell-Gym Majadas es la herramienta mas rústica, efectiva y exigente del planeta. Se enfoca en crear resistencia, moldeando y fortaleciendo casi todos los músculos del cuerpo. Incrementa flexibilidad, fuerza y tonifica los músculos.",Crossfit,Guatemala - Guatemala,"https://www.google.com/maps/place/Las+Plazas+Majadas/@14.6222578,-90.5712918,15z/data=!3m1!4b1!4m5!3m4!1s0x8589a1ad427cce21:0x4661c553bf198bc6!8m2!3d14.622258!4d-90.562537",-90.5712918,14.6222578,"{'type': 'Point', 'coordinates': ['-90.5712918', '14.6222578']}"
35,Boom Kettlebell-Gym Zona 10,"Boulevard Los Próceres, Plaza Las Cañas, Sótano 1",tel:+(502) 2337-3613,https://directorio.guatemala.com/listing_reports.php?report=website&id=15122,"En Boom Kettlebell-Gym Zona 10 nuestro personal es altamente capacitado con certificados obtenidos en los EEUU. Contamos con herramientas nunca antes vistas en Guatemala para mejorar la condición física. 

Boom Kettlebell-Gym Zona 10 es la herramienta mas rústica, efectiva y exigente del planeta. Se enfoca en crear resistencia, moldeando y fortaleciendo casi todos los músculos del cuerpo. Incrementa flexibilidad, fuerza y tonifica los músculos.",Crossfit,Guatemala - Guatemala,"https://www.google.com/maps/place/Boom+Kettlebell+Gym/@14.5832395,-90.5088124,14z/data=!4m8!1m2!2m1!1sboom+kettlebell+gym+majadas!3m4!1s0x0:0x90c2094ec169d77c!8m2!3d14.581403!4d-90.496493",-90.5088124,14.5832395,"{'type': 'Point', 'coordinates': ['-90.5088124', '14.5832395']}"
36,Brau Athletics CrossFit,"Plaza Empresarial Muxbal, Santa Catarina Pinula",2441 9008,https://www.facebook.com/crossfitspringcity7/,crossfit,crossfit,Guatemala - Guatemala,"https://www.google.com/maps/place/Plaza+Empresarial+Muxbal/@14.5832395,-90.5088124,14z/data=!4m5!3m4!1s0x8589a309e1c4552f:0x5613910964de6a91!8m2!3d14.5698431!4d-90.4856201",-90.5088124,14.5832395,"{'type': 'Point', 'coordinates': ['-90.5088124', '14.5832395']}"
37,Club Atletico Atenas,Diagonal 14. 22-06 Zona 5,(+502) 2335 3680,http://www.clubatenas.com,,Gimnasios de Educación Física,Guatemala - Guatemala,"https://www.google.com/maps/place/Gimnasio+Atenas/@14.6252859,-90.5069738,15z/data=!3m1!4b1!4m5!3m4!1s0x8589a2453b084beb:0x127e0945d865a604!8m2!3d14.6252861!4d-90.498219",-90.5069738,14.6252859,"{'type': 'Point', 'coordinates': ['-90.5069738', '14.6252859']}"
38,Club La Villa,20 Avenida 8-81,(+502) 2333 7324,,,deportes,Guatemala - Guatemala,"https://www.google.com/maps/place/Club+la+Villa/@14.5803977,-90.5120698,15z/data=!3m1!4b1!4m5!3m4!1s0x8589a393c63f1cbf:0x2f7e496587534948!8m2!3d14.5803979!4d-90.503315",-90.5120698,14.5803977,"{'type': 'Point', 'coordinates': ['-90.5120698', '14.5803977']}"
39,Club Municipal,2 Calle 15-95 Zona 13,(+502) 2333 0037,,,deportes,Guatemala - Guatemala,"https://www.google.com/maps/place/2+Calle+15,+Cdad.+de+Guatemala,+Guatemala/@14.5872527,-90.5148594,16.14z/data=!4m5!3m4!1s0x8589a3c200686951:0x72efec7bc08adf75!8m2!3d14.5885445!4d-90.5122628",-90.5148594,14.5872527,"{'type': 'Point', 'coordinates': ['-90.5148594', '14.5872527']}"
40,Core Yoga,1ra Avenida 11-50 zona 10,tel:+(502) 5966-5906,https://directorio.guatemala.com/listing_reports.php?report=website&id=52188,Core Yoga es una plataforma de encuentro y exploración a través de la conexión entre el cuerpo y mente.  Practicamos diferentes estilos del yoga pero nos concentramos en el área sensorial para expandir el Kundalini y usar la energía conscientemente.,Yoga,Guatemala - Guatemala,"https://www.google.com/maps/place/Universo+Core/@14.6016793,-90.5243739,15z/data=!4m8!1m2!2m1!1s1ra+Avenida+11-50+zona+10+guatemala!3m4!1s0x8589a3cfc49b3c2d:0xdcb9de99b78232cd!8m2!3d14.6017763!4d-90.5156339",-90.5243739,14.6016793,"{'type': 'Point', 'coordinates': ['-90.5243739', '14.6016793']}"
41,Cosenza Academy,"Km 18.9 Carretera A San José Pinula, C.C. la Plazoleta Ciudad de Guatemala",(+502) 6637 5035,www.cosenzaacademy.com,"Buscamos poder contribuir a la formación integral de tu familia.la única escuela certificada en Guatemala de Jiu-jitsu por la Gracie University de Torrance, California.
Ofrecemos programas certificados,  normados y acreditados en defensa personal Karate,  Gracie,  Jiu - Jitsu,  MMA,  ArtesMarciales Mixtas,  Defensa Para Mujeres,  Antibullying,  Defensa Para Niños,  Jiu - Jitsu para niños.Plan Débito Automático (Inscripción Gratis)",artes marciales,San José Pinula - Guatemala,"https://www.google.com/maps/place/Cosenza+Academy/@14.5447783,-90.4189167,15z/data=!3m1!4b1!4m5!3m4!1s0x8589bb147979a551:0xdab68263c97d8aff!8m2!3d14.5447785!4d-90.4101619",-90.4189167,14.5447783,"{'type': 'Point', 'coordinates': ['-90.4189167', '14.5447783']}"
42,CrossFit 502 - Dinamia,"Dinamia Cayalá, Zona 16 ",2368 5013,https://www.facebook.com/CF502/,crossfit,crossfit,Guatemala - Guatemala,"https://www.google.com/maps/place/Office+Depot+Dinamia+Cayal%C3%A1/@14.6104396,-90.4913717,15z/data=!3m1!4b1!4m5!3m4!1s0x8589a302176c66d9:0xf28c2b96ae767a45!8m2!3d14.6104398!4d-90.4826169",-90.4913717,14.6104396,"{'type': 'Point', 'coordinates': ['-90.4913717', '14.6104396']}"
43,CrossFit 502 -Escala," C.C. Escala, Carretera a El Salvador",6637 3778,https://www.facebook.com/CF502/,crossfit,crossfit,Guatemala - Guatemala,"https://www.google.com/maps/place/Centro+Comercial+Escala/@14.5592341,-90.4706406,15z/data=!3m1!4b1!4m5!3m4!1s0x8589a4a4307defe7:0x454b8065d7281a8!8m2!3d14.5592343!4d-90.4618858",-90.4706406,14.5592341,"{'type': 'Point', 'coordinates': ['-90.4706406', '14.5592341']}"
44,CrossFit FD6,"Plaza Futeca, Zona 14 ",2213 6900,https://www.facebook.com/d6lifechangingfitness/,"Todos los entrenadores tienen certificación de CrossFit Level-1 Trainer por lo que cualquier persona puede tener la confianza que está siendo atendido por alguien capacitado.

Nos caracterizamos por ofrecer una atención profesional y personalizada y damos nuestro máximo esfuerzo por realizar entrenos divertidos, variados y efectivos. Estamos seguros que desde el primer entreno la persona sentirá los cambios de nuestra metodología a la de un gimnasio tradicional.",crossfit,Guatemala - Guatemala,"https://www.google.com/maps/place/Crossfit+FD6+Z.14/@14.6022033,-90.6047275,12z/data=!4m8!1m2!2m1!1sCrossFit+FD6!3m4!1s0x8589a3e8dc58cdad:0xf5e617c6fad386d0!8m2!3d14.5836527!4d-90.5144054",-90.6047275,14.6022033,"{'type': 'Point', 'coordinates': ['-90.6047275', '14.6022033']}"
45,Crossfit FD6," C.C. Miraflores, Zona 11",2225 3200,https://www.facebook.com/d6lifechangingfitness/,crossfit,crossfit,Guatemala - Guatemala,"https://www.google.com/maps/place/Crossfit+FD6+Miraflores/@14.6021824,-90.6047276,12z/data=!4m8!1m2!2m1!1sCrossFit+FD6!3m4!1s0x8589a1af744da4e1:0x3c98f7bb70cb90c1!8m2!3d14.6207747!4d-90.5549686",-90.6047276,14.6021824,"{'type': 'Point', 'coordinates': ['-90.6047276', '14.6021824']}"
46,CrossFit Habit,17 Avenida 24-45 Zona 11,tel:+(502) 5599-9990,https://directorio.guatemala.com/listing_reports.php?report=website&id=258,"CrossFit es un programa de entrenamiento con ejercicios funcionales con entrenamientos de alta intensidad y corta duración. 

CrossFit HABIT nace con la idea de buscar moldear continuamente de manera segura, eficiente y eficaz la práctica de este deporte y aumentar la capacidad de trabajo de nuestros atletas a través del tiempo haciendo de CrossFit un estilo de vida.",Crossfit,Guatemala - Guatemala,"https://www.google.com/maps/place/Crossfit+Habit/@14.6045277,-90.5698451,15z/data=!3m1!4b1!4m5!3m4!1s0x8589a103cb823f49:0x9678a105b04a19b5!8m2!3d14.6045279!4d-90.5610903",-90.5698451,14.6045277,"{'type': 'Point', 'coordinates': ['-90.5698451', '14.6045277']}"
47,CrossFit Spring City Once,"C.C. Via Majadas, Zona 11 ",2473 7396,https://www.facebook.com/OaksCrossFit/,crossfit,crossfit,Guatemala - Guatemala,"https://www.google.com/maps/place/Via+Majadas,+Cdad.+de+Guatemala,+Guatemala/@14.6208767,-90.5689198,15z/data=!3m1!4b1!4m5!3m4!1s0x8589a1adc409025f:0xca2854b439f2f3f8!8m2!3d14.6208769!4d-90.560165",-90.5689198,14.6208767,"{'type': 'Point', 'coordinates': ['-90.5689198', '14.6208767']}"
48,CrossFit Spring City Once," Expobodegas Petapa, Zona 12",2477 4632,https://www.facebook.com/crossfitspringcity7/,crossfit,crossfit,Guatemala - Guatemala,"https://www.google.com/maps/place/CrossFit+Spring+City+7/@14.5687916,-90.5570252,15z/data=!3m1!4b1!4m5!3m4!1s0x8589a13469dcdf9b:0x47f16fc6d641f248!8m2!3d14.5687918!4d-90.5482704",-90.5570252,14.5687916,"{'type': 'Point', 'coordinates': ['-90.5570252', '14.5687916']}"
49,Cubana De Aviacion,13 Cl 2Do Nivel Local 29 3-40 Zona 10,(+502) 2367 2288,,,hipodromos,Guatemala - Guatemala,"https://www.google.com/maps/place/13+Calle+340,+Cdad.+de+Guatemala,+Guatemala/@14.5985542,-90.5150594,17.14z/data=!4m5!3m4!1s0x8589a3c590e43a37:0x79824f382f09edc3!8m2!3d14.5989554!4d-90.5132555",-90.5150594,14.5985542,"{'type': 'Point', 'coordinates': ['-90.5150594', '14.5985542']}"
50,Curves - Quetzaltenango,"Avenida 9-66 Zona 3, Plaza Delco C.P. 9001 ",Teléfono: (502) 7763 6831,https://www.curveslatinoamerica.com/guatemala.html#,"Curves es un gimnasio para mujeres, la franquicia ofrece un programa de perdida de peso saludable y razonable.",Gimnasios de Educación Física,Guatemala - Guatemala,"https://www.google.com/maps/place/Tu+Closet+xela+502/@14.8506216,-91.5680128,13z/data=!4m8!1m2!2m1!1splaza+delco+quetzaltenango!3m4!1s0x858ea2ab3b581ed1:0x3c0c3a8883e8a9b8!8m2!3d14.84127!4d-91.5178435",-91.5680128,14.8506216,"{'type': 'Point', 'coordinates': ['-91.5680128', '14.8506216']}"
51,Curves Las Puertas,Centro Comercial Las Puertas,#ubicacion,,Gimnasio Curves también está ubicado en el Centro Comercial Las Puertas en San Lucas Sacatepéquez.,"Pilates, TRX, Zumba",Guatemala - Guatemala,"https://www.google.com/maps/place/Centro+Comercial+Las+Puertas+San+Lucas/@14.6094205,-90.6672596,15z/data=!3m1!4b1!4m5!3m4!1s0x85890b9f8bad43b9:0x8041a1764c77ba2a!8m2!3d14.6094207!4d-90.6585048",-90.6672596,14.6094205,"{'type': 'Point', 'coordinates': ['-90.6672596', '14.6094205']}"
52,Curves Miraflores,Calzada Roosevelt 21 Avenida Zona 11,tel:+(502) 2269-7369,https://directorio.guatemala.com/listing_reports.php?report=website&id=531,"Curves trabaja los principales grupos musculares con un entrenamiento completo de 30 minutos que combina ejercicio de fuerza y actividad cardiovascular sostenida a través de equipos de resistencia hidráulica. 

Curves también trabaja para ayudar a las mujeres a perder peso, obtener fuerza muscular y capacidad aeróbica y aumentar el metabolismo con su innovador y científicamente probado método que termina con la necesidad de dietas permanentes. 

Gary y Diane Heavin fundadores son considerados como innovadores del fenómeno que ha facilitado ejercitarse a más de 4 millones de mujeres en todo el mundo, muchas de las cuales están en el gimnasio por primera vez. Con 10.000 clubs en 89 países, Curves es la franquicia de fitness más grande del mundo.","Pilates, Yoga, Zumba",Guatemala - Guatemala,"https://www.google.com/maps/place/Centro+Comercial+Miraflores/@14.621449,-90.5901343,13z/data=!4m8!1m2!2m1!1scalzada+roosvelt+21+avenida+zona+11!3m4!1s0x0:0xa26cbe7b9f7a7385!8m2!3d14.6212919!4d-90.5531037",-90.5901343,14.621449,"{'type': 'Point', 'coordinates': ['-90.5901343', '14.621449']}"
53,Curves San Cristóbal,"Blvd. San Cristóbal, 16-70 Zona 8",tel:+(502) 2480-8438,https://directorio.guatemala.com/listing_reports.php?report=website&id=1842,"Curves trabaja los principales grupos musculares con un entrenamiento completo de 30 minutos que combina ejercicio de fuerza y actividad cardiovascular sostenida a través de equipos de resistencia hidráulica. 

Curves también trabaja para ayudar a las mujeres a perder peso, obtener fuerza muscular y capacidad aeróbica y aumentar el metabolismo con su innovador y científicamente probado método que termina con la necesidad de dietas permanentes. 

Gary y Diane Heavin fundadores son considerados como innovadores del fenómeno que ha facilitado ejercitarse a más de 4 millones de mujeres en todo el mundo, muchas de las cuales están en el gimnasio por primera vez. Con 10.000 clubs en 89 países, Curves es la franquicia de fitness más grande del mundo.","TRX, Zumba Pilates",Guatemala - Guatemala,"https://www.google.com/maps/place/Blvd.+Sur+1670,+Guatemala/@14.5813137,-90.588902,15z/data=!4m5!3m4!1s0x8589a0b88815c343:0x22903d53a8ba7688!8m2!3d14.5792787!4d-90.58328",-90.588902,14.5813137,"{'type': 'Point', 'coordinates': ['-90.588902', '14.5813137']}"
54,Curves Zona 15,"1a. Calle 22-13 Zona 15, Vista Hermosa II",tel:+(502) 2369-2622,https://directorio.guatemala.com/listing_reports.php?report=website&id=1841,"Curves trabaja los principales grupos musculares con un entrenamiento completo de 30 minutos que combina ejercicio de fuerza y actividad cardiovascular sostenida a través de equipos de resistencia hidráulica. 

Curves también trabaja para ayudar a las mujeres a perder peso, obtener fuerza muscular y capacidad aeróbica y aumentar el metabolismo con su innovador y científicamente probado método que termina con la necesidad de dietas permanentes. 

Gary y Diane Heavin fundadores son considerados como innovadores del fenómeno que ha facilitado ejercitarse a más de 4 millones de mujeres en todo el mundo, muchas de las cuales están en el gimnasio por primera vez. Con 10.000 clubs en 89 países, Curves es la franquicia de fitness más grande del mundo.","Yoga, Zumba Pilates",Guatemala - Guatemala,"https://www.google.com/maps/place/Gimnasio+Curves/@14.5881748,-90.4996698,15z/data=!3m1!4b1!4m5!3m4!1s0x8589a39f7d2e5555:0x6890f567796f4caa!8m2!3d14.588175!4d-90.490915",-90.4996698,14.5881748,"{'type': 'Point', 'coordinates': ['-90.4996698', '14.5881748']}"
55,Cy Sport,5 Cl Z 6 V. Nueva Czda Concepcion Plz Villa Nueva,(+502) 6636 6452,,,Gimnasios de Educación Física,Guatemala - Guatemala,"https://www.google.com/maps/place/Plaza+Villa+Nueva/@14.5331361,-90.5938251,15z/data=!3m1!4b1!4m5!3m4!1s0x8589a76c5683d0e5:0x875861392309da!8m2!3d14.5331363!4d-90.5850703",-90.5938251,14.5331361,"{'type': 'Point', 'coordinates': ['-90.5938251', '14.5331361']}"
56,Dance Studio,18 Calle 23-30 Zona 10 Plaza Decorisima Local 18,(+502) 2366 5684,http://www.dancestudio.com.gt,,ballet,Guatemala - Guatemala,"https://www.google.com/maps/place/Plaza+Decor%C3%ADsima/@14.5825069,-90.5060998,15z/data=!3m1!4b1!4m5!3m4!1s0x8589a399fffad9cb:0xcc07e632b4121468!8m2!3d14.5825071!4d-90.497345",-90.5060998,14.5825069,"{'type': 'Point', 'coordinates': ['-90.5060998', '14.5825069']}"
57,Dinamic Fitness - CENTRO 21,"<span style=""font-size: xx-large;"">CALZADA SAN JUAN 21-14 </span>","<span style=""font-size: xx-large;"">TEL: 2243-0003</span>",https://dinamic.com.gt/,"Somos un nuevo tipo de gym, un lugar para ponerte en forma. ¡Un lugar para ser feliz!Nuestros programas de ejercicios están diseñados bajo una planificación de entrenamiento cardiovascular y de fuerza. Todo con un soporte científico que garantiza que obtendrás resultados de forma segura.",Gimnasios de Educación Física,Guatemala - Guatemala,"https://www.google.com/maps/place/Centro+21/@14.6264103,-90.5606009,15z/data=!3m1!4b1!4m5!3m4!1s0x8589a13ee7148155:0x74dbad336e5ab1c2!8m2!3d14.6264105!4d-90.5518461",-90.5606009,14.6264103,"{'type': 'Point', 'coordinates': ['-90.5606009', '14.6264103']}"
58,Dinamic Fitness - FORUM ZONA 10,3ra ave 10-80 Zona 10 Edificio Forum Zona Viva Local 201,TEL: 2214-0707,https://dinamic.com.gt/,"Somos un nuevo tipo de gym, un lugar para ponerte en forma. ¡Un lugar para ser feliz!Nuestros programas de ejercicios están diseñados bajo una planificación de entrenamiento cardiovascular y de fuerza. Todo con un soporte científico que garantiza que obtendrás resultados de forma segura.",Gimnasios de Educación Física,Guatemala - Guatemala,"https://www.google.com/maps/place/Dinamic+Fitness+Forum+Zona+viva/@14.6024819,-90.5221578,15z/data=!3m1!4b1!4m5!3m4!1s0x8589a3d895c196f1:0x10fadd0fc49d81c3!8m2!3d14.6024821!4d-90.513403",-90.5221578,14.6024819,"{'type': 'Point', 'coordinates': ['-90.5221578', '14.6024819']}"
59,Dinamic Fitness - PASAJE NARANJO,10 avenida 18-58 zona 4 de mixco Condado Naranjo. C.C. Pasaje Naranjo,,https://dinamic.com.gt/,"Somos un nuevo tipo de gym, un lugar para ponerte en forma. ¡Un lugar para ser feliz!Nuestros programas de ejercicios están diseñados bajo una planificación de entrenamiento cardiovascular y de fuerza. Todo con un soporte científico que garantiza que obtendrás resultados de forma segura.",Gimnasios de Educación Física,Guatemala - Guatemala,"https://www.google.com/maps/place/Pasaje+Naranjo/@14.6559569,-90.5517893,15z/data=!3m1!4b1!4m5!3m4!1s0x8589a1e040effd7f:0x17fdb5db0d3f470e!8m2!3d14.6559571!4d-90.5430345",-90.5517893,14.6559569,"{'type': 'Point', 'coordinates': ['-90.5517893', '14.6559569']}"
60,Dinamic Fitness - ROOSEVELT,C.C. Gran Vía Roosevelt Local 31,TEL: 2243-0000,https://dinamic.com.gt/,"Somos un nuevo tipo de gym, un lugar para ponerte en forma. ¡Un lugar para ser feliz!Nuestros programas de ejercicios están diseñados bajo una planificación de entrenamiento cardiovascular y de fuerza. Todo con un soporte científico que garantiza que obtendrás resultados de forma segura.",Gimnasios de Educación Física,Guatemala - Guatemala,"https://www.google.com/maps/place/Dinamic+Fitness+Roosevelt/@14.6248775,-90.5606726,15z/data=!3m1!4b1!4m5!3m4!1s0x8589a1bae39d1011:0xe654be23882cd43b!8m2!3d14.6248777!4d-90.5519178",-90.5606726,14.6248775,"{'type': 'Point', 'coordinates': ['-90.5606726', '14.6248775']}"
61,Dinamic Fitness - VILLA HERMOSA,CENTRO COMERCIAL PACIFIC VILLA HERMOSA,TEL: 2214-0505,https://dinamic.com.gt/,"Somos un nuevo tipo de gym, un lugar para ponerte en forma. ¡Un lugar para ser feliz!Nuestros programas de ejercicios están diseñados bajo una planificación de entrenamiento cardiovascular y de fuerza. Todo con un soporte científico que garantiza que obtendrás resultados de forma segura.",Gimnasios de Educación Física,Guatemala - Guatemala,"https://www.google.com/maps/place/Pacific+villa+hermosa/@14.5253591,-90.5621666,15z/data=!3m1!4b1!4m5!3m4!1s0x8589a7a91b6406e3:0x282833669a094419!8m2!3d14.5253593!4d-90.5534118",-90.5621666,14.5253591,"{'type': 'Point', 'coordinates': ['-90.5621666', '14.5253591']}"
62,Dinamic Fitness - ZONA PORTALES,"3ra. Av. 10-10 Zona 17 km. 4.5 Ruta al Atlantico Zona Portales Guatemala, Guatemala",TEL: 2217-1111,https://dinamic.com.gt/,"Somos un nuevo tipo de gym, un lugar para ponerte en forma. ¡Un lugar para ser feliz!Nuestros programas de ejercicios están diseñados bajo una planificación de entrenamiento cardiovascular y de fuerza. Todo con un soporte científico que garantiza que obtendrás resultados de forma segura.",Gimnasios de Educación Física,Guatemala - Guatemala,"https://www.google.com/maps/place/Dinamic+Fitness+Portales/@14.646914,-90.4917484,15z/data=!3m1!4b1!4m5!3m4!1s0x8589a32223495f6f:0xd03bda381450c21b!8m2!3d14.6469142!4d-90.4829936",-90.4917484,14.646914,"{'type': 'Point', 'coordinates': ['-90.4917484', '14.646914']}"
63,Equinox Gym Santa Amelia,"Blvd. Hospital Militar 13-27, Zona 16",tel:+(502) 2261-0572,https://directorio.guatemala.com/listing_reports.php?report=website&id=288,"Equinox Gym es más que un gimnasio, es un estilo de vida. Con tres sucursales en las áreas más importantes del país, Equinox espera satisfacer a todos sus clientes con excelentes resultados.",Pesas,Guatemala - Guatemala,"https://www.google.com/maps/place/Centro+Comercial+Santa+Amelia/@14.6469113,-90.5180132,13z/data=!4m8!1m2!2m1!1ssanta+amelia!3m4!1s0x8589a2e8fc8ea9b3:0x3260c4f090cd8278!8m2!3d14.6250522!4d-90.4714391",-90.5180132,14.6469113,"{'type': 'Point', 'coordinates': ['-90.5180132', '14.6469113']}"
64,Escuela Cubana de Baile,"Bulevar Vista Hermosa 2a. calle 14-85 zona 15, Ciudad de Guatemala Ver mapa.",2369-5571,https://es-la.facebook.com/Escuela-Cubana-de-Baile-110562958135/,"La Escuela Cubana de Baile es un espacio perfecto para aprender a bailar ritmos latinos. Salsa, merengue, bachata, baile en parejas y mucho más. Lo mejor es que son clases personalizadas con muchos ritmos que seguro te encantarán. Cuentan con distintos niveles y podrás aprender el baile en parejas.",Baile,Guatemala - Guatemala,"https://www.google.com/maps/place/Escuela+Cubana+de+Baile/@14.6046467,-90.5096162,15z/data=!3m1!4b1!4m5!3m4!1s0x8589a3b16a2fd8a3:0xa422358d8a21aa75!8m2!3d14.6046469!4d-90.5008614",-90.5096162,14.6046467,"{'type': 'Point', 'coordinates': ['-90.5096162', '14.6046467']}"
65,Escuela Municipal de Danza Clásica,"7a. avenida 11-67 zona 1, 2o. Nivel, Ciudad de Guatemala Ver mapa.",2251-1898,https://es-la.facebook.com/EMDCgt/,"¿Amante de la música clásica? En la zona 1 de la Ciudad de Guatemala existe una Escuela Municipal de Danza Clásica en donde se imparten talleres llenos de talento y pasos únicos. Lo mejor es que las mensualidades son cómodas y puedes entrar en distintas etapas del año. Además, este sitio es ideal para conocer personas que aman esta música y a maestros que dedican mucho tiempo a este tipo de danza.",Baile,Guatemala - Guatemala,"https://www.google.com/maps/place/7a+Avenida+11-67,+Cdad.+de+Guatemala,+Guatemala/@14.6373516,-90.5218084,15z/data=!3m1!4b1!4m5!3m4!1s0x8589a2165c72fb21:0xfaf2b7f9a0d314cb!8m2!3d14.6373518!4d-90.5130536",-90.5218084,14.6373516,"{'type': 'Point', 'coordinates': ['-90.5218084', '14.6373516']}"
66,Estudio Internacional Awalim Danza Árabe,"3ra calle, 3-59 zona 1 La casona",(+502) 5280 2307,,,ballet,Guatemala - Guatemala,"https://www.google.com/maps/place/Centro+Cultural+%22La+Casona%22/@14.6463551,-90.5241979,15z/data=!3m1!4b1!4m5!3m4!1s0x8589a2101e81e7dd:0x2f6df23911930837!8m2!3d14.6463553!4d-90.5154431",-90.5241979,14.6463551,"{'type': 'Point', 'coordinates': ['-90.5241979', '14.6463551']}"
67,Evolution Gym,5a Cl - 8a Av,,,,Gimnasios de Educación Física,Puerto Barrios - Izabal,"https://www.google.com/maps/place/Evolution+Energym/@14.6513959,-90.51198,17.52z/data=!4m5!3m4!1s0x8589a20c6dbf8819:0x639b380e2acda09!8m2!3d14.6515681!4d-90.5102041",-90.51198,14.6513959,"{'type': 'Point', 'coordinates': ['-90.51198', '14.6513959']}"
68,Exerzone,"Blvd. San Cristóbal, 5a. Avenida 3-05 Sector A-3",tel:+(502) 2246-5555,https://directorio.guatemala.com/listing_reports.php?report=website&id=1585,"Health, fun and fitness! Comienza una nueva vida en Exerzone, el gimnasio que te ofrece salud, diversión y mucho más. Clases de baile, aeróbicos, zumba, insanity, pilates, pole dance y otras actividades para ti.",Pesas TRX,Guatemala - Guatemala,"https://www.google.com/maps/place/Exerzone/@14.6129942,-90.6106184,15z/data=!3m1!4b1!4m5!3m4!1s0x85890a80224c197f:0xb88037363aa65ccf!8m2!3d14.6129944!4d-90.6018636",-90.6106184,14.6129942,"{'type': 'Point', 'coordinates': ['-90.6106184', '14.6129942']}"
69,Fed. Nac. De Tenis De Campo De Guatemala,3 Calle 16-75 Zona 15 Colonia Minerva,(+502) 2369 8771,,,deportes,Guatemala - Guatemala,"https://www.google.com/maps/place/Federaci%C3%B3n+Nacional+de+Tennis+de+Guatemala/@14.6025577,-90.506145,15z/data=!3m1!4b1!4m5!3m4!1s0x8589a3afd5e578e7:0x59741c091facc354!8m2!3d14.6025579!4d-90.4973902",-90.506145,14.6025577,"{'type': 'Point', 'coordinates': ['-90.506145', '14.6025577']}"
70,Federación Nacional De Ajedrez De Guatemala,Av 10 A 25-01 Z 5,(+502) 2360 8267,,,deportes,Guatemala - Guatemala,"https://www.google.com/maps/place/Federacion+Nacional+de+Ajedrez+Guatemala/@14.6239389,-90.5187886,15z/data=!3m1!4b1!4m5!3m4!1s0x8589a239db30c07b:0x65919102ec61df47!8m2!3d14.6239391!4d-90.5100338",-90.5187886,14.6239389,"{'type': 'Point', 'coordinates': ['-90.5187886', '14.6239389']}"
71,Federacion Nacional De Baloncesto,Gimnasio Nacional Teodoro Palacios Flores Z.5,(+502) 2361 9851,,,federaciones deportivas,Guatemala - Guatemala,"https://www.google.com/maps/place/Gimnasio+Teodoro+Palacios+Flores,+Cdad.+de+Guatemala,+Guatemala/@14.6231655,-90.5188091,15z/data=!3m1!4b1!4m5!3m4!1s0x8589a2376297e9f1:0x9fe3d4ab96106e3a!8m2!3d14.6230676!4d-90.5102778",-90.5188091,14.6231655,"{'type': 'Point', 'coordinates': ['-90.5188091', '14.6231655']}"
72,Federación Nacional De Beisbol,Av Simeon Cañas Final Zona 2,(+502) 2254 1119,,,federaciones deportivas,Guatemala - Guatemala,"https://www.google.com/maps/place/Enrique+Trapo+Torrebiarte,+Cdad.+de+Guatemala,+Guatemala/@14.6594384,-90.5116038,17.28z/data=!4m8!1m2!2m1!1sfinal+avenida+simeon+ca%C3%B1as+zona+2!3m4!1s0x858998a0facf39bd:0x55f1dab2ab3a2d3!8m2!3d14.6607765!4d-90.51013",-90.5116038,14.6594384,"{'type': 'Point', 'coordinates': ['-90.5116038', '14.6594384']}"
73,Federación Nacional De Boxeo De Guatemala,24 Cl Palacio De Los Deportes 9-31 Zona 4,(+502) 2361 8263,,,federaciones deportivas,Guatemala - Guatemala,"https://www.google.com/maps/place/CDAG/@14.6233809,-90.5214317,15z/data=!3m1!4b1!4m5!3m4!1s0x8589a23a0ac615f9:0xc255d05a9437fb96!8m2!3d14.6233811!4d-90.5126769",-90.5214317,14.6233809,"{'type': 'Point', 'coordinates': ['-90.5214317', '14.6233809']}"
74,Federacion Nacional De Ciclismo De Guatemala,26 Cl 9-31 Z.5,(+502) 2332 3979,,,federaciones deportivas,Guatemala - Guatemala,"https://www.google.com/maps/place/Vel%C3%B3dromo+Nacional+de+Guatemala/@14.5955452,-90.5410631,15z/data=!4m8!1m2!2m1!1sFederacion+Nacional+De+Ciclismo+De+Guatemala!3m4!1s0x8589a1644804605f:0x5b966a441c8907ef!8m2!3d14.5955452!4d-90.5323084",-90.5410631,14.5955452,"{'type': 'Point', 'coordinates': ['-90.5410631', '14.5955452']}"
75,Federación Nacional De Esgrima C.D.A.G.,12 Av 25 Cl Zona 5,(+502) 2331 2680,,,federaciones deportivas,Guatemala - Guatemala,"https://www.google.com/maps/place/CDAG/@14.6233809,-90.5214317,15z/data=!3m1!4b1!4m5!3m4!1s0x8589a23a0ac615f9:0xc255d05a9437fb96!8m2!3d14.6233811!4d-90.5126769",-90.5214317,14.6233809,"{'type': 'Point', 'coordinates': ['-90.5214317', '14.6233809']}"
76,Federacion Nacional De Futbol,2 Cl 15-57 Zona 15,(+502) 2422 7777,,,federaciones deportivas,Guatemala - Guatemala,"https://www.google.com/maps/place/Federaci%C3%B3n+Nacional+de+F%C3%BAtbol+de+Guatemala+(Fedefut)/@14.6027006,-90.5082685,15z/data=!3m1!4b1!4m5!3m4!1s0x8589a3b05480e533:0x8e64d6f461a682d4!8m2!3d14.6027008!4d-90.4995137",-90.5082685,14.6027006,"{'type': 'Point', 'coordinates': ['-90.5082685', '14.6027006']}"
77,"Federacion Nacional De Natacion, Clavados, Polo Acuatico Y Nado Sincronizado",10 Av Z-4,(+502) 2334 1075,http://www.fenadegua.gt,,natacion,Guatemala - Guatemala,"https://www.google.com/maps/place/FEDERACION+DE+NATACION+ZONA+15/@14.6026979,-90.5345333,13z/data=!4m8!1m2!2m1!1sFederacion+Nacional+De+Natacion,+Clavados,+Polo+Acuatico+Y+Nado+Sincronizado!3m4!1s0x0:0xdf14fde24e3e04d4!8m2!3d14.6027603!4d-90.4979253",-90.5345333,14.6026979,"{'type': 'Point', 'coordinates': ['-90.5345333', '14.6026979']}"
78,Federación Nacional De Remo Y Canotaje De Guatemala,26 Cl 9-31 Zona 5,(+502) 2339 3376,,,federaciones deportivas,Guatemala - Guatemala,"https://www.google.com/maps/place/FEDERACION+NACIONAL+DE+REMO+Y+CANOTAJE+DE+GUATEMALA/@14.6239765,-90.5197708,15z/data=!3m1!4b1!4m5!3m4!1s0x8589a23a750d5793:0x5dff10b416461df2!8m2!3d14.6239767!4d-90.511016",-90.5197708,14.6239765,"{'type': 'Point', 'coordinates': ['-90.5197708', '14.6239765']}"
79,Federación Nacional De Voleibol,Gimnacio 7 De Diciembre Zona 5,(+502) 2434 4006,,,federaciones deportivas,Guatemala - Guatemala,"https://www.google.com/maps/place/Federacion+Nacional+de+Voleibol/@14.6230628,-90.5196608,15z/data=!3m1!4b1!4m5!3m4!1s0x8589a237628abf63:0xdc2063ead9bb3ad4!8m2!3d14.623063!4d-90.510906",-90.5196608,14.6230628,"{'type': 'Point', 'coordinates': ['-90.5196608', '14.6230628']}"
80,Federación Nacional de Gimnasia,"Edificio Polideportivo, Cdad. de Guatemala, Guatemala",,,,,,"https://www.google.com/maps/place/Federaci%C3%B3n+Nacional+De+Gimnasia/@14.6216185,-90.5149467,16.16z/data=!4m8!1m2!2m1!1sfederacion+!3m4!1s0x8589a23742428fcd:0xcd89f2306671c34f!8m2!3d14.6222843!4d-90.5105022",-90.5149467,14.6216185,"{'type': 'Point', 'coordinates': ['-90.5149467', '14.6216185']}"
81,Federación Nacional de Tenis de Mesa,"Edificio Polideportivo, Cdad. de Guatemala, Guatemala",,,,,,"https://www.google.com/maps/place/Federaci%C3%B3n+Nacional+de+Tenis+de+Mesa+de+Guatemala/@14.620465,-90.5134663,16.16z/data=!4m8!1m2!2m1!1sfederacion+!3m4!1s0x0:0x383e3267a71c2a48!8m2!3d14.6222859!4d-90.5097847",-90.5134663,14.620465,"{'type': 'Point', 'coordinates': ['-90.5134663', '14.620465']}"
82,Federación Nacional de Karate,"Edificio Polideportivo, Cdad. de Guatemala, Guatemala",,,,,,"https://www.google.com/maps/place/Federacion+Nacional+De+Karate+De+Guatemala/@14.620465,-90.5134663,16.16z/data=!4m8!1m2!2m1!1sfederacion+!3m4!1s0x0:0xaeaa3fb341b1e0dc!8m2!3d14.6222483!4d-90.5099094",-90.5134663,14.620465,"{'type': 'Point', 'coordinates': ['-90.5134663', '14.620465']}"
83,Federación Nacional de Billar,Estadio Doroteo Guamuch Flores,,,,,,"https://www.google.com/maps/place/Estadio+Doroteo+Guamuch+Flores/@14.6204648,-90.5182988,15z/data=!4m8!1m2!2m1!1sfederacion+nacional+de+billar!3m4!1s0x0:0x1902c611b6c0d6b4!8m2!3d14.6257195!4d-90.5101749",-90.5182988,14.6204648,"{'type': 'Point', 'coordinates': ['-90.5182988', '14.6204648']}"
84,FemmeFit Américas,Avenida Las Américas 14-28,tel:+(502) 2334-5315,https://directorio.guatemala.com/listing_reports.php?report=website&id=513,"FemmeFit es el nuevo standard en gimnasios para mujeres, ofreciendo el mix más completo y efectivo de rutinas de acondicionamiento físico. FemmeFit ofrece un ambiente con estilo y cómodo, pero a la vez retador y motivante. Desde su imagen, sus instalaciones, sus servicios, su personal y hasta el más mínimo detalle fueron inspirados en la mujer moderna, exitosa y activa.","Yoga, Zumba, Calisthenia, Pilates, TRX",Guatemala - Guatemala,"https://www.google.com/maps/place/Femmefit+Fitness+Studio/@14.5954493,-90.5046926,15z/data=!3m1!4b1!4m5!3m4!1s0x8589a356c3826f3f:0x9329f1a07c8fa83b!8m2!3d14.5954495!4d-90.4959378",-90.5046926,14.5954493,"{'type': 'Point', 'coordinates': ['-90.5046926', '14.5954493']}"
85,Fight Club,24 ave 47-64 zona 12 Prados de Monte Maria,tel:(5025) 4522-0530,https://directorio.guatemala.com/listing_reports.php?report=website&id=259,"La cualidad dual de Fight Club Guatemala le define como un ejército y una familia donde cada miembro es valioso y estimado; desde el más pequeño, hasta el más grande. El sentido de pertenencia y la solidaridad que se vive en Fight Club es singular.

Fight Club Guatemala es una organización de Artes Marciales Mixtas establecida en diciembre de 1,999, como una sucursal de Grizzly Gym International.",artes marciales,Guatemala - Guatemala,"https://www.google.com/maps/place/Fight+Club+Guatemala/@14.5672602,-90.568837,15z/data=!3m1!4b1!4m5!3m4!1s0x8589a12b0cd170bd:0x1a75963f47c7d756!8m2!3d14.5672604!4d-90.5600822",-90.568837,14.5672602,"{'type': 'Point', 'coordinates': ['-90.568837', '14.5672602']}"
86,Fiore,Av Americas 9-55 Plaza Oro L 10,(+502) 2366 7166,,,Gimnasios de Educación Física,Guatemala - Guatemala,"https://www.google.com/maps/place/Avenida+Las+Americas+9-55,+Cdad.+de+Guatemala,+Guatemala/@14.5865323,-90.5288686,15z/data=!3m1!4b1!4m5!3m4!1s0x8589a3e73ec0ae71:0xc077bb37e0c53275!8m2!3d14.5865325!4d-90.5201138",-90.5288686,14.5865323,"{'type': 'Point', 'coordinates': ['-90.5288686', '14.5865323']}"
87,Fitness One - Cayalá,Diagonal 35 Boulevard Austriaco 16-25 Zona 16 Cardales de Cayalá.,+502 2491-4333,https://fitnessone.com.gt/,"Todo lo que necesitas para transformar tu vida y tu cuerpo, las mejores ubicaciones, personal capacitado para hacer del ejercicio parte de tu vida.",Gimnasios de Educación Física,Guatemala - Guatemala,"https://www.google.com/maps/place/Fitness+One+Cayal%C3%A1/@14.6119898,-90.491354,15z/data=!3m1!4b1!4m5!3m4!1s0x8589a2fdf1226043:0x6da0ebba1157c760!8m2!3d14.61199!4d-90.4825992",-90.491354,14.6119898,"{'type': 'Point', 'coordinates': ['-90.491354', '14.6119898']}"
88,Fitness One - Pradera,Boulevar Los Próceres 25-74 Zona 10,+502 2423-6000,https://fitnessone.com.gt/,"Todo lo que necesitas para transformar tu vida y tu cuerpo, las mejores ubicaciones, personal capacitado para hacer del ejercicio parte de tu vida.",Gimnasios de Educación Física,Guatemala - Guatemala,"https://www.google.com/maps/place/Fitness+One+Pradera/@14.5790628,-90.5032207,15z/data=!3m1!4b1!4m5!3m4!1s0x8589a39b0f7c8021:0x16866d9858c90363!8m2!3d14.579063!4d-90.4944659",-90.5032207,14.5790628,"{'type': 'Point', 'coordinates': ['-90.5032207', '14.5790628']}"
89,Fitness One - RUS,Calzada Roosevelt 12-76 zona 7 C.C. RUS,+502 2226-2226,https://fitnessone.com.gt/,"Todo lo que necesitas para transformar tu vida y tu cuerpo, las mejores ubicaciones, personal capacitado para hacer del ejercicio parte de tu vida.",Gimnasios de Educación Física,Guatemala - Guatemala,"https://www.google.com/maps/place/Fitness+One+Roosevelt/@14.579021,-90.6345521,11z/data=!4m8!1m2!2m1!1sfitness+one+russ!3m4!1s0x8589a1e1ff2b1159:0xe4edae1d37a2440a!8m2!3d14.6224274!4d-90.5500643",-90.6345521,14.579021,"{'type': 'Point', 'coordinates': ['-90.6345521', '14.579021']}"
90,Fitness One - Sankris Mall,3ra. Calle Sector A-3 Boulevard San Cristóbal 6-72 Zona 8 de Mixco,+502 2424-4848,https://fitnessone.com.gt/,"Todo lo que necesitas para transformar tu vida y tu cuerpo, las mejores ubicaciones, personal capacitado para hacer del ejercicio parte de tu vida.",Gimnasios de Educación Física,Guatemala - Guatemala,"https://www.google.com/maps/place/Fitness+One+San+Crist%C3%B3bal/@14.6114021,-90.606463,15z/data=!3m1!4b1!4m5!3m4!1s0x8589a088632dc347:0xc6f01f942f9f226d!8m2!3d14.6114023!4d-90.5977082",-90.606463,14.6114021,"{'type': 'Point', 'coordinates': ['-90.606463', '14.6114021']}"
91,Full Contact Studio,2 C 10-06 Z-1,(+502) 2232 6575,,,Gimnasios de Educación Física,Guatemala - Guatemala,"https://www.google.com/maps/place/Gimnasio+Full+Contact+Studio/@14.6461472,-90.5173697,15z/data=!3m1!4b1!4m5!3m4!1s0x8589a2129b458345:0x99ed6bbb329ed060!8m2!3d14.6461474!4d-90.5086149",-90.5173697,14.6461472,"{'type': 'Point', 'coordinates': ['-90.5173697', '14.6461472']}"
92,FUNFIT Studio,"15 Avenida ""B"" 12-16 Zona 11",tel:+(502) 4212-3730,,"Con Funfit Studio atrévete, descubre y experimenta una forma diferente de estar FIT por medio de Pole Dance/Fitness. ¡Con clases personalizadas y divertidas!","Pole Dance, TRX",Guatemala - Guatemala,"https://www.google.com/maps/place/15+Avenida+1216,+Cdad.+de+Guatemala,+Guatemala/@14.6122202,-90.5610531,15z/data=!3m1!4b1!4m5!3m4!1s0x8589a1a79a5251b1:0xf8ec51bec9502d90!8m2!3d14.6122204!4d-90.5522983",-90.5610531,14.6122202,"{'type': 'Point', 'coordinates': ['-90.5610531', '14.6122202']}"
93,Futeca Gym - Miraflores,"22 avenida, 7ma. calle zona 11, Paseo Miraflores",Teléfono: +502 22253200,https://futecagym.com/,"Futeca Gym, es un gimnasio que nace en el 2010. Enfocado en mejorar la calidad de vida de sus socios, a través del ejercicio, una buena alimentación y la creación de comunidades estrechas entre socios.",Gimnasios de Educación Física,Guatemala - Guatemala,"https://www.google.com/maps/place/Futeca+Gym+Miraflores/@14.620572,-90.5641941,15z/data=!3m1!4b1!4m5!3m4!1s0x8589a1afa18f4f01:0x8879dbc17cf60d37!8m2!3d14.6205722!4d-90.5554393",-90.5641941,14.620572,"{'type': 'Point', 'coordinates': ['-90.5641941', '14.620572']}"
94,Futeca Gym - Naranjo,"23 calle 10-00 Zona 4 Condado Naranjo , local 240 Naranjo Mall",Whatsapp: +502 410001310,https://futecagym.com/,"Futeca Gym, es un gimnasio que nace en el 2010. Enfocado en mejorar la calidad de vida de sus socios, a través del ejercicio, una buena alimentación y la creación de comunidades estrechas entre socios.",Gimnasios de Educación Física,Guatemala - Guatemala,"https://www.google.com/maps/place/Futeca+Sport+GYM+El+Naranjo/@14.6205693,-90.5904589,13z/data=!4m8!1m2!2m1!1sfuteca+gym+naranjo!3m4!1s0x8589a13e109e4db3:0xce0c3d218fc704b7!8m2!3d14.6507597!4d-90.5430967",-90.5904589,14.6205693,"{'type': 'Point', 'coordinates': ['-90.5904589', '14.6205693']}"
95,Futeca Gym - Portales,"CA-9 Norte Rural al Atlántico, 3-20, zona 17. Centro Comercial Portales, Local 255. Parqueo 2do Nivel",Teléfono +502 22147100,https://futecagym.com/,"Futeca Gym, es un gimnasio que nace en el 2010. Enfocado en mejorar la calidad de vida de sus socios, a través del ejercicio, una buena alimentación y la creación de comunidades estrechas entre socios.",Gimnasios de Educación Física,Guatemala - Guatemala,"https://www.google.com/maps/place/Centro+Comercial+Portales+Guatemala/@14.6471278,-90.4904942,15z/data=!3m1!4b1!4m5!3m4!1s0x8589a2858b795577:0x148c20c396c75cd8!8m2!3d14.647128!4d-90.4817394",-90.4904942,14.6471278,"{'type': 'Point', 'coordinates': ['-90.4904942', '14.6471278']}"
96,Futeca Gym - Pradera Concepción,"Km. 15.5 Carretera a El Salvador, Finca Concepción interior C.C. Pradera Concepción, Santa Catarina Pinula",Teléfono: +502 66339866,https://futecagym.com/,"Futeca Gym, es un gimnasio que nace en el 2010. Enfocado en mejorar la calidad de vida de sus socios, a través del ejercicio, una buena alimentación y la creación de comunidades estrechas entre socios.",Gimnasios de Educación Física,Guatemala - Guatemala,"https://www.google.com/maps/place/Futeca+Sport+GYM+Pradera+Concepci%C3%B3n/@14.5534248,-90.4616518,15z/data=!3m1!4b1!4m5!3m4!1s0x8589a4b278ab1aa5:0xa25c7fabce00a124!8m2!3d14.553425!4d-90.452897",-90.4616518,14.5534248,"{'type': 'Point', 'coordinates': ['-90.4616518', '14.5534248']}"
97,Futeca Gym - San Cristóbal,Blvd. Principal 19-65 sector B1 San Cristóbal zona 8 de Mixco,Teléfono +502 24796470,https://futecagym.com/,"Futeca Gym, es un gimnasio que nace en el 2010. Enfocado en mejorar la calidad de vida de sus socios, a través del ejercicio, una buena alimentación y la creación de comunidades estrechas entre socios.",Gimnasios de Educación Física,Guatemala - Guatemala,"https://www.google.com/maps/place/Futeca+Sport+GYM+San+Cristobal/@14.5933628,-90.5866068,15z/data=!3m1!4b1!4m5!3m4!1s0x8589a0ebfd71da89:0xd449b29551590b92!8m2!3d14.593363!4d-90.577852",-90.5866068,14.5933628,"{'type': 'Point', 'coordinates': ['-90.5866068', '14.5933628']}"
98,Futeca Gym - Zona 14,"10ma. Avenida 10-50 zona 14. Plaza Futeca, Local 21",Teléfono: +502 22136900,https://futecagym.com/,"Futeca Gym, es un gimnasio que nace en el 2010. Enfocado en mejorar la calidad de vida de sus socios, a través del ejercicio, una buena alimentación y la creación de comunidades estrechas entre socios.",Gimnasios de Educación Física,Guatemala - Guatemala,"https://www.google.com/maps/place/Futeca+Sport+Gym+Zona+14/@14.5933209,-90.7179382,11z/data=!4m8!1m2!2m1!1sfuteca+gym+zona+14!3m4!1s0x8589a3e8a508e5b3:0xebb704721f7b3be6!8m2!3d14.582708!4d-90.515705",-90.7179382,14.5933209,"{'type': 'Point', 'coordinates': ['-90.7179382', '14.5933209']}"
99,Futeca Playball,Km20.8 Carr A El Salvador Fraijanes,(+502) 2424 3939,,,deportes,Guatemala - Guatemala,"https://www.google.com/maps/search/futeca+playball/@14.584182,-90.5231594,15z/data=!3m1!4b1",-90.5231594,14.584182,"{'type': 'Point', 'coordinates': ['-90.5231594', '14.584182']}"
100,Gimnasio Coloso,Av 20-30 Zona 3 Guatemala Ciudad,(+502) 2230 4660,,,deportes,Guatemala - Guatemala,"https://www.google.com/maps/place/Gimnasio+Coloso/@14.630394,-90.5349415,15z/data=!3m1!4b1!4m5!3m4!1s0x8589a168d8e912bb:0x2c87284121561f5e!8m2!3d14.6303942!4d-90.5261867",-90.5349415,14.630394,"{'type': 'Point', 'coordinates': ['-90.5349415', '14.630394']}"
101,Gimnasio Curves Antigua,"Salida a Ciudad Vieja No. 25, Hotel Real Plaza",tel:+(502) 7832-0770,https://directorio.guatemala.com/listing_reports.php?report=website&id=1816,Curves es el centro de fitness más grande del mundo diseñado especialmente para mujeres. Puedes perder peso con solo 30 minutos diarios 3 veces a la semana.,"Zumba, TRX, Pilates",Guatemala - Guatemala,"https://www.google.com/maps/place/Hotel+Real+Plaza/@14.5523608,-90.7466352,15z/data=!3m1!4b1!4m8!3m7!1s0x85890e129ad8cd79:0x685de270eac37da4!5m2!4m1!1i2!8m2!3d14.552361!4d-90.7378804",-90.7466352,14.5523608,"{'type': 'Point', 'coordinates': ['-90.7466352', '14.5523608']}"
102,Gimnasio Fitness Extreme,14av 19-50 Z4,,,,deportes,Guatemala - Guatemala,"https://www.google.com/maps/place/Gimnasio+Fitness+Extreme/@14.653564,-90.5470287,15z/data=!3m1!4b1!4m5!3m4!1s0x8589a1e397783f4b:0xad13d9304527ff0f!8m2!3d14.6535642!4d-90.5382739",-90.5470287,14.653564,"{'type': 'Point', 'coordinates': ['-90.5470287', '14.653564']}"
103,Globaltone,5 Av 8-40 Z 01,(+502) 2238 4699,,,deportes,Guatemala - Guatemala,"https://www.google.com/maps/place/5+Av+8,+Cdad.+de+Guatemala,+Guatemala/@14.6305381,-90.5252311,15z/data=!3m1!4b1!4m5!3m4!1s0x8589a2234af52265:0xd4d3d2419b067373!8m2!3d14.6305383!4d-90.5164763",-90.5252311,14.6305381,"{'type': 'Point', 'coordinates': ['-90.5252311', '14.6305381']}"
104,"Grupo Aquatic, S.A.","Km 17.5 Boulevard San José Villa Nueva, Frente A Guatemarmol",(+502) 2312 0808,www.aquaticcenterguate.com,"Clases de natación para bebés, niños y adultos. Nado libre para adultos, aquaerobics, rehabilitación y mujeres embarazadas.
Somos un centro de enseñanza donde nuestra experiencia como nadadores olímpicos nos ha dado el amor al agua,  algo que queremos compartir con los niños. Ofrecemos programas para todas las edades,  niveles de aprendizaje y gustos particulares.",natacion,Guatemala - Guatemala,"https://www.google.com/maps/place/Guatemarmol/@14.5418834,-90.6096947,15z/data=!3m1!4b1!4m5!3m4!1s0x8589a770b4bc4c8d:0xd372e34c4d4e0dcc!8m2!3d14.5418836!4d-90.6009399",-90.6096947,14.5418834,"{'type': 'Point', 'coordinates': ['-90.6096947', '14.5418834']}"
105,Gt Aviation,Avenida Hincapié y 18 Calle Zona 13 Hangar K-2,(+502) 2458 4307,,,aviacion,Guatemala - Guatemala,"https://www.google.com/maps/place/Gt+Aviation/@14.5818761,-90.5384752,15z/data=!3m1!4b1!4m5!3m4!1s0x8589a1594ee24b5d:0x9fb563d89466baed!8m2!3d14.5818763!4d-90.5297204",-90.5384752,14.5818761,"{'type': 'Point', 'coordinates': ['-90.5384752', '14.5818761']}"
106,Hacienda Nueva Country Club,Km 24.5 Ruta Nacional 18 San José Pinula Mataquescuintla,(+502) 6628 1000,http://www.haciendanueva.gt,,deportes,Guatemala - Guatemala,"https://www.google.com/maps/place/Hacienda+Nueva+Country+Club/@14.5392861,-90.4070474,15z/data=!3m1!4b1!4m5!3m4!1s0x8589bbbe7a914f37:0x741ebd72e7ab0aec!8m2!3d14.5392863!4d-90.3982926",-90.4070474,14.5392861,"{'type': 'Point', 'coordinates': ['-90.4070474', '14.5392861']}"
107,Heroes Academy Guatemala,"6a. avenida 3-39 zona 1, Ciudad de Guatemala Ver mapa.",5132-2501,https://es-la.facebook.com/HeroesCompanyGT/,"Heroes Academy es una academia especializada y certificada internacionalmente por ""UPPSALA Loves Hip Hop"", de Suecia, en Street Dance. Lo mejor es que vas a encontrar clases de géneros urbanos como el Popping, Locking, Breaking, Krumping, House, Waacking, Vogue, Hip-Hop Old School y New Style, Jazz-Funk, Dancehall y Ragga Jam. ¡Te va a encantar!",Baile,Guatemala - Guatemala,"https://www.google.com/maps/place/6A+Avenida+339,+Cdad.+de+Guatemala,+Guatemala/@14.6450358,-90.5141724,18.26z/data=!4m5!3m4!1s0x8589a211c87ab2e7:0xb073449578d1f21b!8m2!3d14.6452706!4d-90.5134782",-90.5141724,14.6450358,"{'type': 'Point', 'coordinates': ['-90.5141724', '14.6450358']}"
108,Hogarama Sport,Calzada Aguilar Batres 34-70 Zona 11 Centro Comercial Galerias Del Sur Guatemala Ciudad,(+502) 2476 8166,,,deportes,Guatemala - Guatemala,"https://www.google.com/maps/place/Edificio+Galer%C3%ADas+del+Sur,+Calz.+Aguilar+Batres+34-80,+Cdad.+de+Guatemala+01011,+Guatemala/@14.5903969,-90.569666,15z/data=!3m1!4b1!4m5!3m4!1s0x8589a11f04e4b6a7:0xdd5886dbaea2121a!8m2!3d14.5903971!4d-90.5609112",-90.569666,14.5903969,"{'type': 'Point', 'coordinates': ['-90.569666', '14.5903969']}"
109,Icom Hitech,C.C. Gran Via Local 01 Zona 07,(+502) 2475 2508,,,Gimnasios de Educación Física,Guatemala - Guatemala,"https://www.google.com/maps/place/Gran+V%C3%ADa+Roosevelt/@14.6243425,-90.5611286,15z/data=!3m1!4b1!4m5!3m4!1s0x8589a1bae767bc09:0x7384ae5fab50e340!8m2!3d14.6243427!4d-90.5523738",-90.5611286,14.6243425,"{'type': 'Point', 'coordinates': ['-90.5611286', '14.6243425']}"
110,In Motion Dance & Fitness Guatemala,"8a. Calle 28-00, zona 11 interior Parque Comercial Las Majadas Local 37, Ciudad de Guatemala Ver mapa.",4226-3000,http://www.inmotiongt.com/,In Motion Dance & Fitness es un centro muy completo para aprender a bailar y a la vez para ejercitarte de una manera muy entretenida. Cuentan con 10 años de experiencia y ofrecen desde danza árabe hasta clases grupales de bachata o salsa. Lo mejor es que ofrecen la opción de pagar por clase para que pruebes las distintas disciplinas. Sin duda te va a encantar.,Baile,Guatemala - Guatemala,"https://www.google.com/maps/place/In+Motion+Dance+%26+Fitness/@14.6216878,-90.5711508,15z/data=!3m1!4b1!4m5!3m4!1s0x8589a1ad46c4441d:0x13c6ecb7721cc2d5!8m2!3d14.621688!4d-90.562396",-90.5711508,14.6216878,"{'type': 'Point', 'coordinates': ['-90.5711508', '14.6216878']}"
111,Indesa (Scandinavia Gym),C.C. Chuckee Chese Local 6 Zona 9 Blvd Liberacion 6-31 Z9,(+502) 2377 3012,,,deportes,Guatemala - Guatemala,"https://www.google.com/maps/place/Chuck+E.+Cheese's/@14.6216878,-90.5711508,15z/data=!4m5!3m4!1s0x8589a1b06a537625:0x4d0288ec5dd03e56!8m2!3d14.6245457!4d-90.5515432",-90.5711508,14.6216878,"{'type': 'Point', 'coordinates': ['-90.5711508', '14.6216878']}"
112,Invictus Performance Training,"8a. avenida 6-63, Zona 14",2367 1239,https://www.facebook.com/invictusperformance/,crossfit,crossfit,Guatemala - Guatemala,"https://www.google.com/maps/place/INVICTUS+Performance+Training/@14.5859324,-90.5220585,15z/data=!3m1!4b1!4m5!3m4!1s0x8589a3de053c6ac7:0xc2493d022bdedb0e!8m2!3d14.5859326!4d-90.5133037",-90.5220585,14.5859324,"{'type': 'Point', 'coordinates': ['-90.5220585', '14.5859324']}"
113,Ka Synergy,18 Calle 15-51 Zona 13,tel:+(502) 2362-6530,https://directorio.guatemala.com/listing_reports.php?report=website&id=553,"Ka Synergy es un concepto de formación con artes marciales y fitness, para toda la familia. Hay programas apropiados para cada etapa del desarrollo.

Utilizamos la licencia Skillz y Hyper para nuestros programas de arte marcial dividiendo las etapas del desarrollo del alumno en edades y ventanas especificas",Artes Marciales,Guatemala - Guatemala,"https://www.google.com/maps/place/18+Calle+1551,+Cdad.+de+Guatemala,+Guatemala/@14.579892,-90.5329934,15z/data=!3m1!4b1!4m5!3m4!1s0x8589a3e25be0dd29:0x9567f2eeea7625af!8m2!3d14.5798922!4d-90.5242386",-90.5329934,14.579892,"{'type': 'Point', 'coordinates': ['-90.5329934', '14.579892']}"
114,Metro Bowl,Cl 2 Bul Vista Hermosa 15-93 Zona 15,(+502) 2243 2424,http://www.metrobowl.com.gt,,boliche,Guatemala - Guatemala,"https://www.google.com/maps/place/Metro+Bowl/@14.6010065,-90.5072849,15z/data=!3m1!4b1!4m5!3m4!1s0x8589a3b06925d9e5:0x20f5a30ed7a4d228!8m2!3d14.6010067!4d-90.4985301",-90.5072849,14.6010065,"{'type': 'Point', 'coordinates': ['-90.5072849', '14.6010065']}"
115,Micheo Boxing by Futeca Oakland Mall,"Diagonal 6, 13-01 zona 10",tel:+(502) 2336-5569,,"En Micheo Boxing by Futeca somos una academia de boxeo diferente, ya que brindamos un servicio personalizado y tenemos el aval de la Federación Nacional de Boxeo de Guatemala. Contamos con el equipo completo y las instalaciones adecuadas para ti.

Nuestro objetivo es crear una condición fisica. Que nuestros estudiantes aprendan a boxear. Mejorar su estilo de vida, resistencia y fuerza. Eliminar estres y % de grasa",Boxeo,Guatemala - Guatemala,"https://www.google.com/maps/place/Oakland+Mall/@14.6010038,-90.5335497,13z/data=!4m8!1m2!2m1!1soakland+mall!3m4!1s0x8589a3c793b98d83:0xeef9af0a626eb633!8m2!3d14.5987057!4d-90.5076063",-90.5335497,14.6010038,"{'type': 'Point', 'coordinates': ['-90.5335497', '14.6010038']}"
116,Micheo Boxing by Futeca Zona 14,10a Avenida 10-50 Zona 14,tel:+(502) 2366-8052,,"En Micheo Boxing by Futeca somos una academia de boxeo diferente, ya que brindamos un servicio personalizado y tenemos el aval de la Federación Nacional de Boxeo de Guatemala. Contamos con el equipo completo y las instalaciones adecuadas para ti.

Nuestro objetivo es crear una condición fisica. Que nuestros estudiantes aprendan a boxear. Mejorar  su estilo de vida, resistencia y fuerza. Eliminar estres y % de grasa",Boxeo,Guatemala - Guatemala,"https://www.google.com/maps/place/Futeca,+Cdad.+de+Guatemala,+Guatemala/@14.584182,-90.5231594,15z/data=!3m1!4b1!4m5!3m4!1s0x8589a3e8e6684697:0x92844045fa0f1e60!8m2!3d14.5841756!4d-90.514338",-90.5231594,14.584182,"{'type': 'Point', 'coordinates': ['-90.5231594', '14.584182']}"
117,Mix Fun Fitness,Km. 14 Carretera a El Salvador,tel:+(502) 6685-2344,,"Con Mix Fun Fitness únete a la fiesta. Ve por lo saludable, diviértete y ponte en forma. Olvida el ejercicio, solo piérdete en la original fiesta de baile fitness.","Pesas, Zumba, Pilates",Guatemala - Guatemala,"https://www.google.com/maps/place/Centro+Comercial+Escala/@14.5587625,-90.4714664,15z/data=!4m13!1m7!3m6!1s0x8589a4a425bc0cd9:0xa347fa0d4bd91c64!2sCarr.+a+El+Salvador+14,+Guatemala!3b1!8m2!3d14.5587627!4d-90.4627116!3m4!1s0x8589a4a4307defe7:0x454b8065d7281a8!8m2!3d14.5592343!4d-90.4618858",-90.4714664,14.5587625,"{'type': 'Point', 'coordinates': ['-90.4714664', '14.5587625']}"
118,Monkey Business Calisthenics,"15 Avenida y 4a. Calle 3-15, Zona 14",tel:+(502) 5917-0558,,"En Monkey Business Calisthenics verás forma segura y divertida de ejercitarse, en la cual se utiliza únicamente el peso corporal como resistencia en los entrenos. Los movimientos principales son pullups, push ups, dips, squats, handstands, jumps. Los cuales pueden evolucionar a movimientos más complejos como el muscle up, planche, human flag front y back lever, entre muchos otros.","Calisthenia, TRX",Guatemala - Guatemala,"https://www.google.com/maps/place/Monkey+Business+Calisthenics/@14.58755,-90.5229046,15z/data=!3m1!4b1!4m5!3m4!1s0x8589a3e82d886539:0xf6473bed885a9f73!8m2!3d14.5875502!4d-90.5141498",-90.5229046,14.58755,"{'type': 'Point', 'coordinates': ['-90.5229046', '14.58755']}"
119,Neurogym Antigua,5a. Avenida Norte #17,tel:(502) 7831-5210 | 5892-2527,https://directorio.guatemala.com/listing_reports.php?report=website&id=1821,"Neurogym Antigua ofrece un programa de estimulación temprana, enfocado en cuatro áreas de desarrollo: neurofísca, neurocognitiva, neurolingüística, y socio-emocional.",Pesas,Guatemala - Guatemala,"https://www.google.com/maps/place/5a+Avenida+Norte+17,+Antigua+Guatemala,+Guatemala/@14.5585869,-90.7429278,15z/data=!3m1!4b1!4m5!3m4!1s0x85890e74aa9ba5a3:0xa14f853522559c5c!8m2!3d14.5585871!4d-90.734173",-90.7429278,14.5585869,"{'type': 'Point', 'coordinates': ['-90.7429278', '14.5585869']}"
120,New Time Crew,6 Avenida 3-39 Nivel 3 Zona 1,(+502) 5922 7937,,,ballet,Guatemala - Guatemala,"https://www.google.com/maps/place/TrovaRock/@14.6456798,-90.515164,16.66z/data=!4m5!3m4!1s0x8589a211c620456f:0x2f1a04ae383afed5!8m2!3d14.6453673!4d-90.5133715",-90.515164,14.6456798,"{'type': 'Point', 'coordinates': ['-90.515164', '14.6456798']}"
121,OB CrossFit,23 Calle 14-75 Zona 4,tel:+(502) 2333-0512,https://directorio.guatemala.com/listing_reports.php?report=website&id=487,"En OB CrossFit somos un centro de crossfit ubicado en Condado Naranjo de la Ciudad de Guatemala, contamos con las mejores instalaciones y el mejor equipo que hará que los resultados deseados se vean en muy poco tiempo.",Crossfit,Guatemala - Guatemala,"https://www.google.com/maps/place/OB+Crossfit/@14.65296,-90.547315,15z/data=!3m1!4b1!4m5!3m4!1s0x8589a1e40a909d0b:0x759a3f3cbc210ef6!8m2!3d14.6529602!4d-90.5385602",-90.547315,14.65296,"{'type': 'Point', 'coordinates': ['-90.547315', '14.65296']}"
122,Okinawan Goju Ryu,Avenida Las Américas 17-16,tel:+(502) 2334-5697,https://directorio.guatemala.com/listing_reports.php?report=website&id=7695,"Okinawan Goju Ryu en Guatemala es dojo que desde 1987 enseña esta disciplina, dirigida por el Sensei Fernando Ramírez desde hace más de 23 años.

Sensei Ramirez obtuvo su cinta negra en 1977 bajo la guía y organización del Master Seikichi Toguchi, alumno directo de Master Chojun Miyagi. Sensei Ramirez viajó a Okinawa, China, India, Nepal. Aparte de karate, aprendió acupuntura y tai-chi-chuan estilo Chen.",Artes Marciales,Guatemala - Guatemala,"https://www.google.com/maps/search/Avenida+Las+Am%C3%A9ricas+17-16/@14.5773587,-90.5257858,17z/data=!3m1!4b1",-90.5257858,14.5773587,"{'type': 'Point', 'coordinates': ['-90.5257858', '14.5773587']}"
123,Olé Flamenco En Guatemala,"Centro Comercial San Cristobal, Cdad. de Guatemala, Guatemala",,,,,,"https://www.google.com/maps/place/Ol%C3%A9!+Escuela+De+Arte+Flamenco/@14.581349,-90.6327401,12z/data=!4m8!1m2!2m1!1sOl%C3%A9+Flamenco+guatemala!3m4!1s0x0:0x48c10e53e288ab31!8m2!3d14.5953161!4d-90.5795932",-90.6327401,14.581349,"{'type': 'Point', 'coordinates': ['-90.6327401', '14.581349']}"
124,Olé Flamenco En Guatemala,"Centro Comercial San Cristobal, Cdad. de Guatemala, Guatemala",,,,,,"https://www.google.com/maps/place/Ol%C3%A9!+Las+Am%C3%A9ricas/@14.581349,-90.6327401,12z/data=!4m8!1m2!2m1!1sOl%C3%A9+Flamenco+guatemala!3m4!1s0x0:0xdfd35ad1b9db3242!8m2!3d14.5893357!4d-90.5204129",-90.6327401,14.581349,"{'type': 'Point', 'coordinates': ['-90.6327401', '14.581349']}"
125,OM Yoga,6ta. Avenida 20-42 zona 10,tel:+(502) 2333-4310,https://directorio.guatemala.com/listing_reports.php?report=website&id=260,"Para OM Yoga, el yoga es el camino para evolucionar y dejar de sufrir. Vivimos en un mundo donde todo nos bloquea de la verdadera felicidad interna y al hacer yoga abrimos un espacio hacia nuevas posibilidades que nos da la vida.

Nuestro equipo está conformado por instructores y asistentes capacitados para asistirte y ayudarte en el camino que hoy inicias en OM. Cada profesor lleno de luz, está certificado en su estilo de yoga para servirte como un guía en tu práctica personal al entrar por las puertas de nuestro estudio.",Yoga,Guatemala - Guatemala,"https://www.google.com/maps/place/Om+Yoga+Vista+Hermosa/@14.5860981,-90.4960992,15z/data=!3m1!4b1!4m5!3m4!1s0x8589a3757baaa8cd:0x1ac7023aea730c30!8m2!3d14.5860983!4d-90.4873444",-90.4960992,14.5860981,"{'type': 'Point', 'coordinates': ['-90.4960992', '14.5860981']}"
126,OM Yoga,Design Center,,,,,,"https://www.google.com/maps/place/Om+Yoga+Guatemala/@14.5902727,-90.5215778,15z/data=!3m1!4b1!4m5!3m4!1s0x8589a3eaa83ddb13:0xba0ec347c32568e6!8m2!3d14.5902729!4d-90.512823",-90.5215778,14.5902727,"{'type': 'Point', 'coordinates': ['-90.5215778', '14.5902727']}"
127,Partido,2A. Calle 36-369 Z.7,(+502) 2439 4388,,,deportes,Guatemala - Guatemala,"https://www.google.com/maps/place/Partido/@14.6349152,-90.5746497,15z/data=!3m1!4b1!4m5!3m4!1s0x8589a0357fbd3415:0x3e641f851d80aae1!8m2!3d14.6349154!4d-90.5658949",-90.5746497,14.6349152,"{'type': 'Point', 'coordinates': ['-90.5746497', '14.6349152']}"
128,Pilates Powerhouse Studio,Cl 16 22-40 Z 10,(+502) 2337 1283,,,deportes,Guatemala - Guatemala,"https://www.google.com/maps/place/16+Calle+22,+Cdad.+de+Guatemala,+Guatemala/@14.5835608,-90.4980488,17.27z/data=!4m5!3m4!1s0x8589a39997d97c47:0xdcfba2629aaedc6b!8m2!3d14.5839205!4d-90.4957649",-90.4980488,14.5835608,"{'type': 'Point', 'coordinates': ['-90.4980488', '14.5835608']}"
129,Poltec - CC ASIA MALL (ROOSEVELT),Calzada Roosevelt 13-88,24743214,http://www.poltecgym.com/,"El ejercicio es parte importante de un estilo de vida saludable. El ejercicio previene los problemas de salud, desarrolla resistencia, brinda más energía y puede ayudar a reducir el estrés.",Gimnasios de Educación Física,Guatemala - Guatemala,"https://www.google.com/maps/place/Asia+Mall,+Calzada+Roosevelt+13-88,+Cdad.+de+Guatemala+01007,+Guatemala/@14.6234446,-90.5594861,15z/data=!3m1!4b1!4m5!3m4!1s0x8589a1a4cd058b8d:0x28348cac76ef1734!8m2!3d14.6234313!4d-90.5508237",-90.5594861,14.6234446,"{'type': 'Point', 'coordinates': ['-90.5594861', '14.6234446']}"
130,Poltec - CC EL FARO,"Dirección: Km. 17.9 Carretera a San Jose Pinula, Centro Comercial Local 14, El Faro",6637-4927,http://www.poltecgym.com/,"El ejercicio es parte importante de un estilo de vida saludable. El ejercicio previene los problemas de salud, desarrolla resistencia, brinda más energía y puede ayudar a reducir el estrés.",Gimnasios de Educación Física,Guatemala - Guatemala,"https://www.google.com/maps/place/Megapaca+El+Faro/@14.5372688,-90.4627386,14.3z/data=!4m8!1m2!2m1!1skm+17.9+carretera+a+san+jose+pinula!3m4!1s0x8589bb49f3f35ab5:0x86aec38e86040e4b!8m2!3d14.5429823!4d-90.4452045",-90.4627386,14.5372688,"{'type': 'Point', 'coordinates': ['-90.4627386', '14.5372688']}"
131,Poltec - CC GRAN PORTAL PETAPA,"45 Calle 19-40, zona 12, C. C. Gran Portal Petapa ",2460-3185,http://www.poltecgym.com/,"El ejercicio es parte importante de un estilo de vida saludable. El ejercicio previene los problemas de salud, desarrolla resistencia, brinda más energía y puede ayudar a reducir el estrés.",Gimnasios de Educación Física,Guatemala - Guatemala,"https://www.google.com/maps/place/Centro+Comercial+Gran+Portal+Petapa/@14.5700492,-90.5578678,15z/data=!3m1!4b1!4m5!3m4!1s0x8589a13404349869:0xf607f0c6d8ac74e0!8m2!3d14.5700494!4d-90.549113",-90.5578678,14.5700492,"{'type': 'Point', 'coordinates': ['-90.5578678', '14.5700492']}"
132,Poltec - CC METRONORTE,"Km. 5 Carretera al Atlántico Zona 17, Guatemala Guatemala",2256-0882,http://www.poltecgym.com/,"El ejercicio es parte importante de un estilo de vida saludable. El ejercicio previene los problemas de salud, desarrolla resistencia, brinda más energía y puede ayudar a reducir el estrés.",Gimnasios de Educación Física,Guatemala - Guatemala,"https://www.google.com/maps/place/Metronorte/@14.6473356,-90.4861922,15z/data=!3m1!4b1!4m5!3m4!1s0x8589a29a9335c127:0xc0f84c4f0197cc07!8m2!3d14.6473358!4d-90.4774374",-90.4861922,14.6473356,"{'type': 'Point', 'coordinates': ['-90.4861922', '14.6473356']}"
133,Poltec - CC PLAZA SAN RAFAEL,Ruta al Atlántico CC. Plaza San Rafael Zona 18 Guatemala,2261-6391,http://www.poltecgym.com/,"El ejercicio es parte importante de un estilo de vida saludable. El ejercicio previene los problemas de salud, desarrolla resistencia, brinda más energía y puede ayudar a reducir el estrés.",Gimnasios de Educación Física,Guatemala - Guatemala,"https://www.google.com/maps/place/Plaza+San+Rafael+Atl%C3%A1ntico/@14.6536344,-90.4652618,15z/data=!3m1!4b1!4m5!3m4!1s0x8589a2a944f61d51:0x966d50e0fb5b0004!8m2!3d14.6536346!4d-90.456507",-90.4652618,14.6536344,"{'type': 'Point', 'coordinates': ['-90.4652618', '14.6536344']}"
134,Poltec - CC SANTA CLARA,"Km. 17.5 Pacifico, Terreno #6, C.C. Santa Clara, Villa Nueva., Guatemala 01011, Guatemala",6644-8279,http://www.poltecgym.com/,"El ejercicio es parte importante de un estilo de vida saludable. El ejercicio previene los problemas de salud, desarrolla resistencia, brinda más energía y puede ayudar a reducir el estrés.",Gimnasios de Educación Física,Guatemala - Guatemala,"https://www.google.com/maps/place/Centro+Comercial+Santa+Clara/@14.5306173,-90.6067896,15z/data=!3m1!4b1!4m5!3m4!1s0x8589a76339b1fa55:0x77d3ffcfe520c714!8m2!3d14.5306175!4d-90.5980348",-90.6067896,14.5306173,"{'type': 'Point', 'coordinates': ['-90.6067896', '14.5306173']}"
135,Pure Yoga,Diagonal 35 Blvd. Austriaco,tel:+(502) 2491-4240,https://directorio.guatemala.com/listing_reports.php?report=website&id=438,"El Yoga restablece el equilibrio, la simetría del cuerpo, aumenta la flexibilidad y reduce dolores. Únete a la familia de Pure Yoga y disfruta de una vida saludable.",Yoga,Guatemala - Guatemala,"https://www.google.com/maps/place/Pure+Yoga/@14.6119048,-90.4919407,15z/data=!3m1!4b1!4m5!3m4!1s0x8589a2fdfe4123f1:0xb0d903b50c3ed6b4!8m2!3d14.611905!4d-90.4831859",-90.4919407,14.6119048,"{'type': 'Point', 'coordinates': ['-90.4919407', '14.6119048']}"
136,Ritmo y Sabor Guatemala,"4a. avenida, 16-24 zona 14, Ciudad de Guatemala Ver mapa.",4800-2015,https://es-la.facebook.com/ritmoysaborgt/,"Ritmo y Sabor es una reconocida academia en donde enseñan a bailar distintos tipos de música. Desde salsa, bachata, rueda de casino, merengue, clases personalizadas para niños y mucho más. Lo mejor es que cuentan con horarios bastante amplios para que elijas el que mejor te quede. Además, ofrecen un pase completo para poder disfrutar de todas las clases de la academia, sin limitación.",Baile,Guatemala - Guatemala,"https://www.google.com/maps/place/Ritmo+y+Sabor+Guatemala/@14.5794688,-90.5291688,15z/data=!3m1!4b1!4m5!3m4!1s0x8589a3e13a9938c9:0xec5564f2370758ab!8m2!3d14.579469!4d-90.520414",-90.5291688,14.5794688,"{'type': 'Point', 'coordinates': ['-90.5291688', '14.5794688']}"
137,Salsa in Motion Academy,"8 Calle 28-00, Zona 11 ",tel:+(502) 4215-1875,https://directorio.guatemala.com/listing_reports.php?report=website&id=522,"Salsa in Motion Academy es la mejor academia de Baile & Fitness en Guatemala. Si lo que quieres es aprender a bailar, has venido al lugar correcto. Además de salsa, con nosotros también podrás aprender a bailar bachata y tomar clases de Zumba Fitness.

Salsa In Motion Academy es arte, pasión, crecimiento, movimiento y vida. Promovemos y buscamos desarrollar en las personas su estado físico, psicológico y dancístico por medio de la interpretación y expresión musical.",Baile ,Guatemala - Guatemala,"https://www.google.com/maps/search/8+Calle+28-00,+Zona+11,+Ciudad+de+Guatemala,+Guatemala/@14.6223133,-90.5712667,15z/data=!3m1!4b1",-90.5712667,14.6223133,"{'type': 'Point', 'coordinates': ['-90.5712667', '14.6223133']}"
138,Salsa Latin Guatemala,"18 calle 15-51, Zona 13 C.C. Paseo Real, Ciudad de Guatemala Ver mapa.",4217-2567 | 4008-6112,https://www.facebook.com/Salsa-Latin-Guatemala-178268719078/,"¡Atención amantes del baile! Salsa Latin Guatemala es la primera academia profesional de baile latino de Guatemala. Lo mejor es que cuenta con más de 14 años de experiencia en el mundo del baile. Podrás encontrar clases de salsa, bachata, boogalo, pachanga, chachachá y más. Participan en competencias internacionales y cuentan con distintos niveles para que puedas aprender poco a poco.",Baile,Guatemala - Guatemala,"https://www.google.com/maps/place/SALSA+LATIN+GUATEMALA/@14.6223133,-90.5712667,15z/data=!4m5!3m4!1s0x8589a20a0cac7db9:0x86b5c4080f6c86a0!8m2!3d14.5800075!4d-90.5239709",-90.5712667,14.6223133,"{'type': 'Point', 'coordinates': ['-90.5712667', '14.6223133']}"
139,Scandinavia - Aguilar Batres,"Calzada Aguilar Batres14-07, Zona 12",Teléfonos: 2459-2586 y 2377-3013,https://www.scandinaviagym.com/,Cadena de 14 gimnasios. Siempre Cerca de Ti. Amplios Horarios. En las principales ciudades de Guatemala.,Gimnasios de Educación Física,Guatemala - Guatemala,"https://www.google.com/maps/place/Scandinavia+Gym/@14.6043201,-90.5539631,15z/data=!3m1!4b1!4m5!3m4!1s0x8589a10cb7ef5ffd:0xd7db473bfd2a87ee!8m2!3d14.6043203!4d-90.5452083",-90.5539631,14.6043201,"{'type': 'Point', 'coordinates': ['-90.5539631', '14.6043201']}"
140,Scandinavia - Antigua Guatemala,7a Calle Poniente #34,Teléfonos: 7832 6763,https://www.scandinaviagym.com/,Cadena de 14 gimnasios. Siempre Cerca de Ti. Amplios Horarios. En las principales ciudades de Guatemala.,Gimnasios de Educación Física,Guatemala - Guatemala,"https://www.google.com/maps/place/Scandinavia+Gym/@14.5543297,-90.7458326,15z/data=!3m1!4b1!4m5!3m4!1s0x85890e0dbdbf2d9d:0x39558f5b19f63dea!8m2!3d14.5543299!4d-90.7370778",-90.7458326,14.5543297,"{'type': 'Point', 'coordinates': ['-90.7458326', '14.5543297']}"
141,Scandinavia - Arkadia Premium,Centro Comercial Arkadia zona 10,Teléfonos: 2211 0046,https://www.scandinaviagym.com/,Cadena de 14 gimnasios. Siempre Cerca de Ti. Amplios Horarios. En las principales ciudades de Guatemala.,Gimnasios de Educación Física,Guatemala - Guatemala,"https://www.google.com/maps/place/Arkadia+Shopping+Mall/@14.6029186,-90.5922493,12z/data=!4m8!1m2!2m1!1sscandinavia+arkadia!3m4!1s0x8589a39b9db4f0e3:0x93fb9aa9f9d920ba!8m2!3d14.5799767!4d-90.4932853",-90.5922493,14.6029186,"{'type': 'Point', 'coordinates': ['-90.5922493', '14.6029186']}"
142,Scandinavia - Carretera a El Salvador,"Km. 16.5, Carretera a El Salvador Salida a San José Pinula",Teléfonos: 2277-9297 y 6634-0633,https://www.scandinaviagym.com/,Cadena de 14 gimnasios. Siempre Cerca de Ti. Amplios Horarios. En las principales ciudades de Guatemala.,Gimnasios de Educación Física,Guatemala - Guatemala,"https://www.google.com/maps/place/Scandinavia+Gym/@14.5379815,-90.4895258,12.51z/data=!4m8!1m2!2m1!1sscandinavia+gym+carretera!3m4!1s0x0:0xdb6074abd9efe4da!8m2!3d14.5438331!4d-90.45398",-90.4895258,14.5379815,"{'type': 'Point', 'coordinates': ['-90.4895258', '14.5379815']}"
143,Scandinavia - El Frutal,"Centro Comercial El Frutal, Villa Nueva",Teléfonos: 3502 1704,https://www.scandinaviagym.com/,Cadena de 14 gimnasios. Siempre Cerca de Ti. Amplios Horarios. En las principales ciudades de Guatemala.,Gimnasios de Educación Física,Guatemala - Guatemala,"https://www.google.com/maps/place/Complejo+Comercial+El+Frutal/@14.5214516,-90.5730692,15z/data=!3m1!4b1!4m5!3m4!1s0x8589a70036a4038d:0xe6dfb293fb358f71!8m2!3d14.5214518!4d-90.5643144",-90.5730692,14.5214516,"{'type': 'Point', 'coordinates': ['-90.5730692', '14.5214516']}"
144,Scandinavia - El Naranjo,Condado Naranjo,Teléfonos: 2212 7513,https://www.scandinaviagym.com/,Cadena de 14 gimnasios. Siempre Cerca de Ti. Amplios Horarios. En las principales ciudades de Guatemala.,Gimnasios de Educación Física,Guatemala - Guatemala,"https://www.google.com/maps/place/Condado+Naranjo,+Cdad.+de+Guatemala,+Guatemala/@14.6555265,-90.5509465,15z/data=!3m1!4b1!4m5!3m4!1s0x8589a1e1ab9cfc2d:0x27624c072872fd6d!8m2!3d14.6555267!4d-90.5421917",-90.5509465,14.6555265,"{'type': 'Point', 'coordinates': ['-90.5509465', '14.6555265']}"
145,Scandinavia - Galerías Primma,Centro Comercial Galerías Primma,Teléfonos: 2474 2815,https://www.scandinaviagym.com/,Cadena de 14 gimnasios. Siempre Cerca de Ti. Amplios Horarios. En las principales ciudades de Guatemala.,Gimnasios de Educación Física,Guatemala - Guatemala,"https://www.google.com/maps/place/Banco+CHN+Agencia+GALERIAS+PRIMMA/@14.6239898,-90.5619848,15z/data=!3m1!4b1!4m5!3m4!1s0x8589a1b4a3b6139b:0x1c0ea21ce50b46f0!8m2!3d14.62399!4d-90.55323",-90.5619848,14.6239898,"{'type': 'Point', 'coordinates': ['-90.5619848', '14.6239898']}"
146,Scandinavia - Metronorte,Centro Comercial Metronorte,Teléfonos: 2269 5605,https://www.scandinaviagym.com/,Cadena de 14 gimnasios. Siempre Cerca de Ti. Amplios Horarios. En las principales ciudades de Guatemala.,Gimnasios de Educación Física,Guatemala - Guatemala,"https://www.google.com/maps/place/Metro+Nte.,+Cdad.+de+Guatemala,+Guatemala/@14.6477058,-90.4874525,15z/data=!3m1!4b1!4m5!3m4!1s0x8589a29aaeecf82b:0xcf3b17d29e9017ef!8m2!3d14.647706!4d-90.4786977",-90.4874525,14.6477058,"{'type': 'Point', 'coordinates': ['-90.4874525', '14.6477058']}"
147,Scandinavia - San Cristobal,Centro Comercial Arkadia zona 10,Teléfonos: 2478 1566,https://www.scandinaviagym.com/,Cadena de 14 gimnasios. Siempre Cerca de Ti. Amplios Horarios. En las principales ciudades de Guatemala.,Gimnasios de Educación Física,Guatemala - Guatemala,"https://www.google.com/maps/place/Scandinavia+Gym+San+Crist%C3%B3bal/@14.5967719,-90.587963,15z/data=!3m1!4b1!4m5!3m4!1s0x8589a0ec4ca0b1ef:0x9c17332b007f20dc!8m2!3d14.5967721!4d-90.5792082",-90.587963,14.5967719,"{'type': 'Point', 'coordinates': ['-90.587963', '14.5967719']}"
148,Scandinavia - San Lucas,"Centro Comercial El Sauce, San Lucas Sacatepéquez",Teléfonos: 7830 1641,https://www.scandinaviagym.com/,Cadena de 14 gimnasios. Siempre Cerca de Ti. Amplios Horarios. En las principales ciudades de Guatemala.,Gimnasios de Educación Física,Guatemala - Guatemala,"https://www.google.com/maps/place/Scandinavia+Gym+San+Lucas/@14.6092074,-90.6689162,15z/data=!3m1!4b1!4m5!3m4!1s0x85890b9fb0624649:0x899bdab0f4cd0ebc!8m2!3d14.6092076!4d-90.6601614",-90.6689162,14.6092074,"{'type': 'Point', 'coordinates': ['-90.6689162', '14.6092074']}"
149,Scandinavia - San Rafael,"km. 7.5 Carretera a El Atlántico zona 18, c.c. San Rafael, local #90",Teléfonos: 2267 2919,https://www.scandinaviagym.com/,Cadena de 14 gimnasios. Siempre Cerca de Ti. Amplios Horarios. En las principales ciudades de Guatemala.,Gimnasios de Educación Física,Guatemala - Guatemala,"https://www.google.com/maps/place/Scandinavia+Gym+San+Rafael+Z.+18/@14.6532228,-90.4649288,15z/data=!3m1!4b1!4m5!3m4!1s0x8589a2a937f773db:0x45c79b4a708fdc35!8m2!3d14.653223!4d-90.456174",-90.4649288,14.6532228,"{'type': 'Point', 'coordinates': ['-90.4649288', '14.6532228']}"
150,Scandinavia - Vista Hermosa,Boulevard Vista Hermosa 21-95 zona 15,Teléfonos: 2277-9296 y 2369-1018,https://www.scandinaviagym.com/,Cadena de 14 gimnasios. Siempre Cerca de Ti. Amplios Horarios. En las principales ciudades de Guatemala.,Gimnasios de Educación Física,Guatemala - Guatemala,"https://www.google.com/maps/place/Scandinavia,+Blvd.+Vista+Hermosa,+Cdad.+de+Guatemala,+Guatemala/@14.5866982,-90.4969745,15z/data=!3m1!4b1!4m5!3m4!1s0x8589a39fde4b6d65:0x387eed2562774f43!8m2!3d14.5867351!4d-90.4882498",-90.4969745,14.5866982,"{'type': 'Point', 'coordinates': ['-90.4969745', '14.5866982']}"
151,Scandinavia - Xela,"Avenida Las Américas 11-50 Zona 3 Condado Santa María Local 8, Quetzaltenango",Teléfonos: 7763 7802,https://www.scandinaviagym.com/,Cadena de 14 gimnasios. Siempre Cerca de Ti. Amplios Horarios. En las principales ciudades de Guatemala.,Gimnasios de Educación Física,Guatemala - Guatemala,"https://www.google.com/maps/place/Scandinavia+GYM/@14.8538938,-91.5446574,15z/data=!3m1!4b1!4m5!3m4!1s0x858e981730c8d9e7:0xa16da8e110fb76fa!8m2!3d14.853894!4d-91.5359026",-91.5446574,14.8538938,"{'type': 'Point', 'coordinates': ['-91.5446574', '14.8538938']}"
152,Scandinavia - Zona 5,"39 calle 21 07, zona 5 (atrás de Paiz)",Teléfonos: 2335 7683,https://www.scandinaviagym.com/,Cadena de 14 gimnasios. Siempre Cerca de Ti. Amplios Horarios. En las principales ciudades de Guatemala.,Gimnasios de Educación Física,Guatemala - Guatemala,"https://www.google.com/maps/place/Scandinavia+GYM/@14.6258812,-90.5037273,15z/data=!3m1!4b1!4m5!3m4!1s0x8589a25a55c5264b:0x13e8d834524e1d7b!8m2!3d14.6258814!4d-90.4949725",-90.5037273,14.6258812,"{'type': 'Point', 'coordinates': ['-90.5037273', '14.6258812']}"
153,Schumann'S Cordova,Blvd San Cristobal Centro Comercial San Cristobal Zona 8 Mixco,(+502) 2478 1097,http://www.schumanscordova.com,,artes marciales,Guatemala - Guatemala,"https://www.google.com/maps/place/Centro+Comercial+San+Cristobal,+Cdad.+de+Guatemala,+Guatemala/@14.5950688,-90.5879301,15z/data=!3m1!4b1!4m5!3m4!1s0x8589a0ec6935db51:0x3b22080dad643963!8m2!3d14.595069!4d-90.5791753",-90.5879301,14.5950688,"{'type': 'Point', 'coordinates': ['-90.5879301', '14.5950688']}"
154,Schumann's Majadas,"27 Avenida 6-40, Parque Comercial Las Majadas, ",tel:+(502) 3231-6693,,"En nuestro gimnasio Schumann's Majadas enseñamos Artes Marciales Mixtas (MMA) basados en el ""Galvan Combat System"" con la franquicia internacional ""Bonebreakers"" que ha desarrollado exitosamente un sistema de artes marciales mixtas efectivo, basado principalmente en muay thai, jiujitsu, boxeo y catch wrestling.

El sistema que enseñamos además de poner énfasis en la efectividad combativa, mantiene muy claro su papel como instrumento de desarrollo integral, planteando una serie de valores como: decisión, honor, valor, control, carácter, sinceridad y balance, que son las 7 normas para la vida.",Artes Marciales,Guatemala - Guatemala,"https://www.google.com/maps/place/Majadas+Once/@14.6206232,-90.5704469,15z/data=!3m1!4b1!4m5!3m4!1s0x8589a1adaa76cd35:0x53a233299ace5eeb!8m2!3d14.6206234!4d-90.5616921",-90.5704469,14.6206232,"{'type': 'Point', 'coordinates': ['-90.5704469', '14.6206232']}"
155,Schumanns Sporta,Km. 18.5 Carretera a El Salvador,tel:+(502) 6633-9623,https://directorio.guatemala.com/listing_reports.php?report=website&id=3438,"La misión de Schumanns Sporta es formar a personas con valores y actitud positiva hacia cualquier situación, enseñar el camino de la disciplina sin maltrato, para alcanzar el éxito. Enseñamos artes marciales para cualquier edad.",Artes Marciales,Guatemala - Guatemala,"https://www.google.com/maps/place/Sporta/@14.6204557,-90.8418859,10z/data=!4m8!1m2!2m1!1ssporta!3m4!1s0x8589a4c35cac38c1:0x4d2a81fde0ef0820!8m2!3d14.5317507!4d-90.4654229",-90.8418859,14.6204557,"{'type': 'Point', 'coordinates': ['-90.8418859', '14.6204557']}"
156,Sense CrossFit,"9a. avenida 16-03, Zona 10",2366 5836,https://www.facebook.com/amsicrossfit/,crossfit,crossfit,Guatemala - Guatemala,"https://www.google.com/maps/place/SENSE+Crossfit/@14.5941907,-90.5176285,15z/data=!3m1!4b1!4m5!3m4!1s0x8589a3c72cc086f1:0x8758aa7f5a6f2567!8m2!3d14.5941909!4d-90.5088737",-90.5176285,14.5941907,"{'type': 'Point', 'coordinates': ['-90.5176285', '14.5941907']}"
157,Sky Dance Academy,Bul Tulmtzu 17 Av 2-15 C.C. Valle del Sol Z.4 Mixco,(+502) 2431 4113,http://www.skydancegt.com,,ballet,Guatemala - Guatemala,"https://www.google.com/maps/place/Sky+Dance+Academy/@14.6430528,-90.5737868,15z/data=!3m1!4b1!4m5!3m4!1s0x8589a033193e577b:0x7510c287efaa5c3a!8m2!3d14.643053!4d-90.565032",-90.5737868,14.6430528,"{'type': 'Point', 'coordinates': ['-90.5737868', '14.6430528']}"
158,Smart Fit - El Naranjo," Plaza Kalú, locales R2-R5 - 23 calle 14-50 Zona 4 de Mixco - Condado El Naranjo Mixco, GU - Guatemala",,https://www.smartfit.com.gt/,"Inaugurada en 2009, Smart Fit fue creada con el propósito de democratizar el acceso a la práctica de actividad física de alto nivel, con planes accesibles y adhesión facilitada.",Gimnasios de Educación Física,Guatemala - Guatemala,"https://www.google.com/maps/place/PLAZA+KALU+CONDADO+NARANJO/@14.6430528,-90.5737868,15z/data=!4m5!3m4!1s0x8589a1e42644460f:0x9a67d7167d839caa!8m2!3d14.6502645!4d-90.5397667",-90.5737868,14.6430528,"{'type': 'Point', 'coordinates': ['-90.5737868', '14.6430528']}"
159,Smart Fit - Los Próceres,"  3ª Avenida 16-52, Z.10 -  Centro Comercial Los Próceres Ciudad de Guatemala, GU - Guatemala",,https://www.smartfit.com.gt/,"Inaugurada en 2009, Smart Fit fue creada con el propósito de democratizar el acceso a la práctica de actividad física de alto nivel, con planes accesibles y adhesión facilitada.",Gimnasios de Educación Física,Guatemala - Guatemala,"https://www.google.com/maps/place/Centro+Comercial+Los+Proceres/@14.5948416,-90.5244171,15z/data=!3m1!4b1!4m5!3m4!1s0x8589a3c4a49fb9e7:0x7f3ab2b6daf28ec5!8m2!3d14.5948418!4d-90.5156623",-90.5244171,14.5948416,"{'type': 'Point', 'coordinates': ['-90.5244171', '14.5948416']}"
160,Smart Fit - Metrocentro Villa Nueva," Centro Comercial Metrocentro local L103 -  0 Calle 16-20, Zona 4 - Villa Nueva Ciudad de Guatemala, GU - Guatemala",,https://www.smartfit.com.gt/,"Inaugurada en 2009, Smart Fit fue creada con el propósito de democratizar el acceso a la práctica de actividad física de alto nivel, con planes accesibles y adhesión facilitada.",Gimnasios de Educación Física,Guatemala - Guatemala,"https://www.google.com/maps/place/Metrocentro+Villa+Nueva/@14.5135495,-90.5859758,15z/data=!3m1!4b1!4m5!3m4!1s0x8589a7a6aab46371:0x9b721760501f0a2a!8m2!3d14.5135497!4d-90.577221",-90.5859758,14.5135495,"{'type': 'Point', 'coordinates': ['-90.5859758', '14.5135495']}"
161,Smart Fit - Metroplaza Carr. a El Salvador," Km 13.1  - Carr. a El Salvador, Local 208 Ciudad de Guatemala, GU - Guatemala",,https://www.smartfit.com.gt/,"Inaugurada en 2009, Smart Fit fue creada con el propósito de democratizar el acceso a la práctica de actividad física de alto nivel, con planes accesibles y adhesión facilitada.",Gimnasios de Educación Física,Guatemala - Guatemala,"https://www.google.com/maps/place/Centro+Comercial+Metroplaza/@14.5677316,-90.4809267,15z/data=!3m1!4b1!4m5!3m4!1s0x8589a4ddc2393af9:0x4ce61a597ef7a28c!8m2!3d14.5677318!4d-90.4721719",-90.4809267,14.5677316,"{'type': 'Point', 'coordinates': ['-90.4809267', '14.5677316']}"
162,Smart Fit - QUO Zona 4," Via 7, 4-20, Zona 4, Torre Q, Segundo Nivel, Guatemala  -  Ciudad de Guatemala, GU - Guatemala",,https://www.smartfit.com.gt/,"Inaugurada en 2009, Smart Fit fue creada con el propósito de democratizar el acceso a la práctica de actividad física de alto nivel, con planes accesibles y adhesión facilitada.",Gimnasios de Educación Física,Guatemala - Guatemala,"https://www.google.com/maps/place/Via+7+4-51,+Cdad.+de+Guatemala,+Guatemala/@14.6179806,-90.5234065,15z/data=!3m1!4b1!4m5!3m4!1s0x8589a2318fa65369:0x1056ae2c880b87f2!8m2!3d14.6179808!4d-90.5146517",-90.5234065,14.6179806,"{'type': 'Point', 'coordinates': ['-90.5234065', '14.6179806']}"
163,Smart Fit - Rambla," Centro Comercial Rambla 10 - Boulevar Los Próceres 25-76 Ciudad de Guatemala, GU - Guatemala",,https://www.smartfit.com.gt/,"Inaugurada en 2009, Smart Fit fue creada con el propósito de democratizar el acceso a la práctica de actividad física de alto nivel, con planes accesibles y adhesión facilitada.",Gimnasios de Educación Física,Guatemala - Guatemala,"https://www.google.com/maps/place/Rambla10/@14.6179806,-90.5234065,15z/data=!4m5!3m4!1s0x8589a39a48fb4755:0xe1a0adff51a5c4a3!8m2!3d14.5807364!4d-90.4953474",-90.5234065,14.6179806,"{'type': 'Point', 'coordinates': ['-90.5234065', '14.6179806']}"
164,Smart Fit - Tikal Futura," Calzada Roosevelt 23-43 -  Ciudad de Guatemala, GU - Guatemala",,https://www.smartfit.com.gt/,"Inaugurada en 2009, Smart Fit fue creada con el propósito de democratizar el acceso a la práctica de actividad física de alto nivel, con planes accesibles y adhesión facilitada.",Gimnasios de Educación Física,Guatemala - Guatemala,"https://www.google.com/maps/place/Grand+Tikal+Futura+Hotel/@14.6225814,-90.5629352,15z/data=!3m1!4b1!4m8!3m7!1s0x8589a1baa9d16f77:0x6867b4859eecd06e!5m2!4m1!1i2!8m2!3d14.6225816!4d-90.5541804",-90.5629352,14.6225814,"{'type': 'Point', 'coordinates': ['-90.5629352', '14.6225814']}"
165,Sporta Gym,Km 18.5 Carretera a El Salvador,tel:+(502) 6648-0100,https://directorio.guatemala.com/listing_reports.php?report=website&id=291,"En nuestro club no hay actitudes hostiles! Cada persona tiene metas diferentes cuando comienza pero todas desean obtener resultados. Ayudarles a que luzcan y se sientan en óptimas condiciones es nuestra misión y la razón de por qué le encantará estar con nosotros.

En Sporta Usted siempre tiene acceso a nuestros instructores y a las últimas técnicas de fitness y entrenamiento, todo en una localización muy conveniente.

¡Cada vez que venga a entrenar se sentirá muy bien al salir; sabiendo que luce y se siente de lo mejor!",Pesas,Guatemala - Guatemala,"https://www.google.com/maps/place/Sporta/@14.5317505,-90.4741777,15z/data=!3m1!4b1!4m5!3m4!1s0x8589a4c35cac38c1:0x4d2a81fde0ef0820!8m2!3d14.5317507!4d-90.4654229",-90.4741777,14.5317505,"{'type': 'Point', 'coordinates': ['-90.4741777', '14.5317505']}"
166,Sporta Gym,La Noria,,,,,,"https://www.google.com/maps/place/Sporta+La+Noria+Zona+14/@14.5813158,-90.5245548,15z/data=!3m1!4b1!4m5!3m4!1s0x8589a3ef5d272ff1:0x96a70e580f38e0f8!8m2!3d14.581316!4d-90.5158",-90.5245548,14.5813158,"{'type': 'Point', 'coordinates': ['-90.5245548', '14.5813158']}"
167,Squash Zone,10 Avenida 10-50 Zona 14,(+502) 5580 1015,,,entrenamiento fisico,Guatemala - Guatemala,"https://www.google.com.ar/maps/place/Futeca+Sport+Gym+Zona+14/@14.5828328,-90.5236105,15z/data=!4m13!1m7!3m6!1s0x8589a3e8d1d61e09:0x83920cdfe53d90f!2s10+Avenida+10,+Cdad.+de+Guatemala,+Guatemala!3b1!8m2!3d14.582833!4d-90.5148557!3m4!1s0x8589a3e8a508e5b3:0xebb704721f7b3be6!8m2!3d14.582708!4d-90.515705",-90.5236105,14.5828328,"{'type': 'Point', 'coordinates': ['-90.5236105', '14.5828328']}"
168,Studio Fit,Km 32.2 San Lucas Sacatepéquez,tel:+(502) 4108-2156,,Studio Fit es un centro de ejercicios físicos que te ofrece clases guiadas con entrenadores certificados y profesionales.,Pesas,Guatemala - Guatemala,"https://www.google.com.ar/maps/place/STUDIO+FIT/@14.5886177,-90.6699123,15z/data=!3m1!4b1!4m5!3m4!1s0x85890b382c5294fd:0xb233e563528de96a!8m2!3d14.5886179!4d-90.6611575",-90.6699123,14.5886177,"{'type': 'Point', 'coordinates': ['-90.6699123', '14.5886177']}"
169,Studio Fitness,Carretera al Salvador,,,,,,"https://www.google.com.ar/maps/place/Studio+Fitness/@14.5169224,-90.4841287,15.49z/data=!4m5!3m4!1s0x8589a51d5b7e931b:0x9c537f9552d4fe13!8m2!3d14.5178745!4d-90.4776766",-90.4841287,14.5169224,"{'type': 'Point', 'coordinates': ['-90.4841287', '14.5169224']}"
170,The Boxing Club,"20 calle 25-85, Zona 10",tel:+(502) 2363-3026,https://directorio.guatemala.com/listing_reports.php?report=website&id=490,"The Boxing Club es una escuela de boxeo enfocada en ofrecer instrucción de boxeo como fitness para lograr disciplina, quema de grasa, eliminación de estrés y defensa personal.",Boxeo,Guatemala - Guatemala,"https://www.google.com.ar/maps/place/20+calle+2585,+Guatemala/@14.5796602,-90.503927,15z/data=!3m1!4b1!4m5!3m4!1s0x8589a39a556cc6e9:0x3645cbc782229629!8m2!3d14.5796604!4d-90.4951722",-90.503927,14.5796602,"{'type': 'Point', 'coordinates': ['-90.503927', '14.5796602']}"
171,The Dance Factory,"Km. 14.5 Carretera a El Salvador, Centro Comercial Escala Local B-2, Ciudad de Guatemala Ver mapa.",6634-2230 | 2258-8628,https://es-la.facebook.com/DanceFactoryGT/,The Dance Factory es una de las academias de baile más grande del país. Cuenta con tres sucursales en la Ciudad de Guatemala y clases de distintos géneros musicales. Son conocidos gracias a sus clausuras con escenografías únicas y bailes espectaculares. Aceptan a bailarines a partir de los 4 años de edad y es una opción única para enamorarte del baile.,Baile,Guatemala - Guatemala,"https://www.google.com.ar/maps/place/Dance+Factory+Escala/@14.5903643,-90.6515221,11z/data=!4m8!1m2!2m1!1sthe+dance+factory+guatemala!3m4!1s0x8589a55c8478ef63:0x954729ede0a09b4b!8m2!3d14.5587471!4d-90.4633846",-90.6515221,14.5903643,"{'type': 'Point', 'coordinates': ['-90.6515221', '14.5903643']}"
172,The Dance Factory,Majadas Once,,,,,,"https://www.google.com.ar/maps/place/Dance+Factory+Majadas+Once/@14.5904478,-90.6515216,11z/data=!4m8!1m2!2m1!1sthe+dance+factory+guatemala!3m4!1s0x8589a1375ae5ad3b:0x9357388c0f739a6d!8m2!3d14.6223989!4d-90.5594852",-90.6515216,14.5904478,"{'type': 'Point', 'coordinates': ['-90.6515216', '14.5904478']}"
173,The Dance Factory,Las Americas,,,,,,"https://www.google.com.ar/maps/place/Dance+Factory+Am%C3%A9ricas/@14.5902808,-90.6515227,11z/data=!4m8!1m2!2m1!1sdance+factory+guatemala!3m4!1s0x8589a3dd998e1035:0x2c988dff0841f19b!8m2!3d14.5893968!4d-90.5191896",-90.6515227,14.5902808,"{'type': 'Point', 'coordinates': ['-90.6515227', '14.5902808']}"
174,The Fit Center,"Blvd. Rafael Landivar, 10-05 Zona 16",tel:+(502) 2493-7666,https://directorio.guatemala.com/listing_reports.php?report=website&id=744,"The Fit Center es un concepto integral de gimnasio personalizado en Paseo Cayalá. Programas integrales: clases de ejercicios, suplementos, nutrición, y quiropráctica.

En una clase de 45 minutos, estarás haciendo ejercicios funcionales y de aislamiento muscular que tienen además gran impacto en tu metabolismo, por lo que estarás quemando calorías hasta 48 horas después de entrenar.","Pesas, Pilates, TRX",Guatemala - Guatemala,"https://www.google.com.ar/maps/place/THE+FIT+CENTER/@14.6105748,-90.4942138,15z/data=!3m1!4b1!4m5!3m4!1s0x8589a301cc796225:0xd4662afcac347f9e!8m2!3d14.610575!4d-90.485459",-90.4942138,14.6105748,"{'type': 'Point', 'coordinates': ['-90.4942138', '14.6105748']}"
175,Top Spin,Km 14.1 Al Salv. Cc Paseo Sn Sebastian,(+502) 2369 8694,,,deportes,Guatemala - Guatemala,"https://www.google.com.ar/maps/place/LAI+LAI+PASEO+SAN+SEBASTIA/@14.5621821,-90.4653169,17.66z/data=!4m5!3m4!1s0x8589a4a732e530f3:0x1782e18b5a30d8d6!8m2!3d14.5634762!4d-90.4643947",-90.4653169,14.5621821,"{'type': 'Point', 'coordinates': ['-90.4653169', '14.5621821']}"
176,Tres Virtudes (Pure Yoga),Diagonal 35 Boulevard Austriaco 16-25 C.C. Cardales S-207 Zona 16,(+502) 2491 4240,,,deportes,Guatemala - Guatemala,"https://www.google.com.ar/maps/place/Pure+Yoga/@14.6119048,-90.4919407,15z/data=!3m1!4b1!4m5!3m4!1s0x8589a2fdfe4123f1:0xb0d903b50c3ed6b4!8m2!3d14.611905!4d-90.4831859",-90.4919407,14.6119048,"{'type': 'Point', 'coordinates': ['-90.4919407', '14.6119048']}"
177,Unidanza Guatemala,"Cardales de Cayalá Zona 16 Local 207 Sur, Diagonal 35 Bulevar Austriaco 16-25, Ciudad de Guatemala Ver mapa.",2491-4337,http://unidanza.net/,"En Unidanza vas a encontrar un gran equipo de maestros de ballet, jazz, hip hop y pilates, entregados a la enseñanza de la danza con el deseo de desarrollar y compartir este arte con futuras generaciones. Lo mejor es que las clases son personalizadas y cuentan con distintas presentaciones en lugares llenos de historia. ¡A bailar se ha dicho!",Baile,Guatemala - Guatemala,"https://www.google.com.ar/maps/place/UNIDANZA/@14.6113926,-90.4919482,15z/data=!4m8!1m2!2m1!1sUnidanza+Guatemala!3m4!1s0x8589a3e1f202964f:0xccccf68ae4958565!8m2!3d14.6123689!4d-90.4829988",-90.4919482,14.6113926,"{'type': 'Point', 'coordinates': ['-90.4919482', '14.6113926']}"
178,Unlimited Dance Academy,"Bulevar Los Próceres, 24-24 zona 10 C. C. Las Cañas, Ciudad de Guatemala Ver mapa.",2366-7892 | 2366-7893,https://unlimited-dance.com.gt/,"¿Con ganas de aprender pasos nuevos? Sin duda alguna Unlimited Dance Academy es un buen lugar para disfrutar del baile y de sus diferentes ritmos. Cuentan con más de 20 años de experiencia, con clases personalizadas y pasos impresionantes. Lo mejor es que cuentan con presentaciones y un ambiente muy agradable, en donde seguro conocerás personas que comparten la pasión por el baile.",Baile,Guatemala - Guatemala,"https://www.google.com.ar/maps/place/Unlimited+Dance+Academy/@14.5814489,-90.5051898,15z/data=!3m1!4b1!4m5!3m4!1s0x8589a39a168e4a87:0x9363c47bff4a6df7!8m2!3d14.5814491!4d-90.496435",-90.5051898,14.5814489,"{'type': 'Point', 'coordinates': ['-90.5051898', '14.5814489']}"
179,Urban Yoga,"Km 15.5 Carr. a El Salvador, Edificio Plaza Concep",tel:+(502) 4622-0497,,"Urban Yoga es un estudio en Carretera a El Salvador ofreciendo clases de Yoga de diferentes tipos: Vinyasa, Align & Flow, Hatha, Slow Flow, Ashtanga y clases estilo Mysore. Atrévete a algo fuera de lo convencional y divertido. Urban Yoga te invita a visitarlos.",Yoga,Guatemala - Guatemala,"https://www.google.com.ar/maps/place/Plaza+Concepci%C3%B3n/@14.5527477,-90.4551883,17.45z/data=!4m8!1m2!2m1!1surban+yoga+plaza+concep!3m4!1s0x0:0xa4875a23e8fcb4ef!8m2!3d14.5535455!4d-90.453925",-90.4551883,14.5527477,"{'type': 'Point', 'coordinates': ['-90.4551883', '14.5527477']}"
180,Vertical Shapes,"2da. Calle 23-51 Zona 15, Vista Hermosa I",tel:+(502) 2369-8775,https://directorio.guatemala.com/listing_reports.php?report=website&id=427,"Vertical Shapes es una academia especializada en Pole Fitness y acrobacias aéreas, dirigido al 100% para mujeres que desean ejercitar y tonificar su cuerpo, siempre de una forma entretenida y logrando un aumento en la autoestima de cada una.

El Pole Dance está dirigido a mujeres que desean ejercitar y tonificar su cuerpo de una forma entretenida y logrando aumento en la autoestima.",Pole Dance,Guatemala - Guatemala,"https://www.google.com.ar/maps/place/Boom+Kettlebell-Gym/@14.584902,-90.4865434,19.63z/data=!4m8!1m2!2m1!1s2da.+Calle+23-51+Zona+15,+Vista+Hermosa+I!3m4!1s0x0:0xf97f9484a95fdc27!8m2!3d14.5850754!4d-90.4861145",-90.4865434,14.584902,"{'type': 'Point', 'coordinates': ['-90.4865434', '14.584902']}"
181,Vitam CrossFit,5a Avenida 12-56 Zona 14,tel:+(502) 2366-6810,https://directorio.guatemala.com/listing_reports.php?report=website&id=488,"El mejor y más completo método de acondicionamiento físico en donde usamos movimientos naturales y rutinas balanceadas de gymnastics, levantamiento de pesas y cardio.",Crossfit,Guatemala - Guatemala,"https://www.google.com.ar/maps/place/5+Avenida+12,+Cdad.+de+Guatemala,+Guatemala/@14.5848272,-90.5198261,16.08z/data=!4m5!3m4!1s0x8589a3e843a9b98b:0xcb2da5a5d4519f21!8m2!3d14.5855706!4d-90.5154309",-90.5198261,14.5848272,"{'type': 'Point', 'coordinates': ['-90.5198261', '14.5848272']}"
182,Waterproof Swim Academy,15 Av A y 3 Cl D Mixco Z 8,(+502) 2375 8195,,,natacion,Guatemala - Guatemala,"https://www.google.com.ar/maps/place/Waterproof+Swim+Academy+San+Cristobal/@14.5890564,-90.6032724,15z/data=!3m1!4b1!4m5!3m4!1s0x8589a1df4a12645b:0x2ab9f04f45520346!8m2!3d14.5890566!4d-90.5945176",-90.6032724,14.5890564,"{'type': 'Point', 'coordinates': ['-90.6032724', '14.5890564']}"
183,Waterproof Swim Academy,San Isidro Zona 16,,,,,,"https://www.google.com.ar/maps/place/Waterproof+Swim+Academy/@14.6140712,-90.4797833,15z/data=!3m1!4b1!4m5!3m4!1s0x8589a2e09c422cff:0xa1c3cca0eb4ad310!8m2!3d14.6140714!4d-90.4710285",-90.4797833,14.6140712,"{'type': 'Point', 'coordinates': ['-90.4797833', '14.6140712']}"
184,Xsport Fitness Center,"Calz. Aguilar Batres, 37-95 Zona 12",tel:+(502) 2476-9841,,"En Xsport Fitness Center son por excelencia más que un gimnasio. Encontrarás la mejor asesoría, promociones y actividades para lograr tus metas.","Pesas, Crossfit",Guatemala - Guatemala,"https://www.google.com.ar/maps/place/Xsport+Fitness+Center/@14.5873798,-90.5706683,15z/data=!3m1!4b1!4m5!3m4!1s0x8589a1203ac79f53:0xfc38ea2da04bac8a!8m2!3d14.58738!4d-90.5619135",-90.5706683,14.5873798,"{'type': 'Point', 'coordinates': ['-90.5706683', '14.5873798']}"
185,Xtream Gym,6a. Avenida 6-63 Zona 10,tel:+(502) 2278-9325,https://directorio.guatemala.com/listing_reports.php?report=website&id=1212,"Nuestro gimnasio ofrece un entrenamiento por medio del acondicionamiento físico general que incluye la pérdida de peso y preparación física para mejorar el rendimiento en cualquier deporte.

Se realiza por medio de ejercicios con cambios de intensidad, trabajando con ejercicios aeróbicos y anaeróbicos, ejercicios de desarrollo de la fuerza con el uso del peso corporal, carrera, desarrollo de la coordinación, flexibilidad y explosividad del movimiento muscular.",Artes Marciales,Guatemala - Guatemala,"https://www.google.com.ar/maps/place/XTREAM+GYM/@14.606585,-90.5188815,15z/data=!3m1!4b1!4m5!3m4!1s0x8589a3cbc49ff5d7:0x252f462450e15f5c!8m2!3d14.6065852!4d-90.5101267",-90.5188815,14.606585,"{'type': 'Point', 'coordinates': ['-90.5188815', '14.606585']}"
186,YogAntigua,1ra Avenida Sur #6,tel:+(502) 5251-4809,https://directorio.guatemala.com/listing_reports.php?report=website&id=51884,"YogAntigua es la mejor opción que puedes elegir al momento de hacer ejercicio. Cuentan con equipo especializado, instructores calificados y la mejor disposición para que los visites. Mantén en armonía tu cuerpo y mente con YogAntigua",Yoga,Guatemala - Guatemala,"https://www.google.com.ar/maps/place/YogAntigua/@14.5516518,-90.7426818,15z/data=!3m1!4b1!4m5!3m4!1s0x85890e6d4a5aad51:0x49c0e55c1a206fb8!8m2!3d14.551652!4d-90.733927",-90.7426818,14.5516518,"{'type': 'Point', 'coordinates': ['-90.7426818', '14.5516518']}"
187,Zardoz Fitness,16 Calle final 41-85 Zona 5,tel:+(502) 2336-0091,https://directorio.guatemala.com/listing_reports.php?report=website&id=52216,"Zardoz Fitness es un centro de entrenamiento en el que puedes mejorar tu condición física, ponerte en forma o sacar tu estrés. Cuentan con área para pesas, cardio, yoga, ejercicios funcionales, y muchas más clases. Visítalos en Zona 5.",Pesas,Guatemala - Guatemala,"https://www.google.com.ar/maps/place/ZarDoz+Gym/@14.6278428,-90.5013668,15z/data=!3m1!4b1!4m5!3m4!1s0x8589a2595f09d34b:0x48caba4fbf45ea66!8m2!3d14.627843!4d-90.492612",-90.5013668,14.6278428,"{'type': 'Point', 'coordinates': ['-90.5013668', '14.6278428']}"
